{"type": "FeatureCollection", "features": [{"type": "Feature", "properties": {"id": "tb_79714293", "name": "洪武古道260219", "region": "金东区", "region_source": "两步路 PosStartName", "difficulty": "困难", "difficulty_reason": "距离>15km 或爬升>900m", "family": null, "family_reason": null, "family_tag": null, "has_water": true, "water_reason": "轨迹描述或标注点提到：瀑布、溪", "distance_km": 12.18, "ascent_m": 1049, "descent_m": 1035, "ele_min": 340, "ele_max": 1070, "hours": 4.64, "pause_hours": 0.21, "track_points": 1122, "waypoints": 91, "start": {"lon": 119.6739753, "lat": 29.209166}, "end": {"lon": 119.6738451, "lat": 29.2090101}, "tags": ["外部导入", "徒步"], "description": "武平殿到点将台来回有3处走错，已经标注", "source": {"provider": "两步路(2bulu)", "track_id": "79714293", "creator": "步履赴山野", "creator_id": "64771087", "app_version": "and_8.1.3", "begin_time": "1771477392000", "file": "洪武古道260219.gpx"}}, "geometry": {"type": "LineString", "coordinates": [[119.6739753, 29.209166, 354.8], [119.674102, 29.2093049, 354.76], [119.6746745, 29.2095843, 360.79], [119.6745767, 29.2095665, 359.77], [119.6747896, 29.2101266, 354.48], [119.6746452, 29.2102948, 351.01], [119.6740289, 29.2103328, 343.33], [119.673905, 29.2105096, 339.72], [119.6738584, 29.2106147, 341.05], [119.6737969, 29.2110217, 350.01], [119.6738743, 29.21121, 344.88], [119.6737215, 29.2114837, 343.59], [119.6740364, 29.211708, 348.19], [119.6741359, 29.2116855, 350.22], [119.6745422, 29.2112262, 356.02], [119.6747407, 29.2112786, 355.06], [119.6747845, 29.2114921, 357.06], [119.6746493, 29.2118029, 359.04], [119.6747019, 29.2121125, 362.18], [119.674634, 29.212429, 367.41], [119.6747418, 29.212611, 370.35], [119.6751722, 29.2129615, 365.54], [119.6746396, 29.2124538, 363.45], [119.674546, 29.2126255, 364.7], [119.6744841, 29.2131068, 367.98], [119.674522, 29.2132069, 367.64], [119.674741, 29.2133145, 369.34], [119.6747861, 29.2135039, 371.76], [119.6743944, 29.2138956, 377.51], [119.6739426, 29.2140468, 371.14], [119.6740752, 29.2145043, 378.28], [119.6742306, 29.2146538, 381.84], [119.674445, 29.2147103, 386.12], [119.67448, 29.2147839, 388.39], [119.6745735, 29.2153577, 399.59], [119.6745113, 29.2155555, 401.86], [119.6746155, 29.2157382, 405.63], [119.6746325, 29.215925, 409.53], [119.6743625, 29.2160946, 414.59], [119.6739858, 29.2165647, 428.9], [119.6736473, 29.2167954, 437.15], [119.6735809, 29.2171821, 443.57], [119.6732583, 29.2176715, 462.2], [119.6731719, 29.2176507, 463.45], [119.6731256, 29.2177042, 463.08], [119.672541, 29.2186515, 485.18], [119.6722759, 29.2192813, 498.41], [119.6719978, 29.2195773, 516.37], [119.6718095, 29.2199858, 530.75], [119.6718735, 29.2204309, 534.75], [119.6716652, 29.2206888, 548.48], [119.6716157, 29.2208864, 553.33], [119.6713557, 29.221087, 564.63], [119.6712338, 29.221521, 580.78], [119.6710838, 29.2216895, 585.7], [119.6712409, 29.2219209, 593.92], [119.6711622, 29.2221997, 611.69], [119.6709917, 29.2223186, 614.89], [119.6707774, 29.2222638, 619.73], [119.6707095, 29.2221858, 620.75], [119.6709495, 29.2223305, 618.86], [119.6709033, 29.222585, 624.31], [119.6710368, 29.2227495, 630.04], [119.6713201, 29.2228775, 636.4], [119.6714162, 29.2230329, 639.7], [119.6716115, 29.2231342, 644.56], [119.6716718, 29.223299, 651.2], [119.6715367, 29.2234288, 661.58], [119.6715603, 29.2235121, 669.07], [119.6720164, 29.2240731, 698.98], [119.6720063, 29.2245025, 718.15], [119.6717597, 29.2254564, 742.84], [119.6718448, 29.2257972, 749.92], [119.6723717, 29.2266225, 786.73], [119.6723811, 29.226799, 797.42], [119.6726992, 29.2270388, 816.16], [119.673045, 29.2270159, 826.1], [119.6734633, 29.2273733, 849.81], [119.6735291, 29.2275482, 850.02], [119.6741936, 29.2277706, 859.74], [119.6744281, 29.2281412, 870.42], [119.6743333, 29.228195, 876.73], [119.6743467, 29.2282933, 886.74], [119.6744779, 29.2284527, 900.49], [119.6753265, 29.2288391, 942.48], [119.6762911, 29.2290682, 960.83], [119.6766875, 29.2296748, 972.36], [119.6769507, 29.2298589, 975.8], [119.6772207, 29.2303497, 994.98], [119.6774297, 29.2303922, 1004.3], [119.6779963, 29.2303549, 1015.43], [119.6783217, 29.2304239, 1021.0], [119.6783872, 29.2305005, 1020.52], [119.6783306, 29.2307028, 1021.45], [119.678385, 29.2306383, 1022.2], [119.6780303, 29.2309804, 1029.97], [119.6784482, 29.2311967, 1025.3], [119.678909, 29.2315396, 1020.56], [119.6794767, 29.2327507, 1019.07], [119.6795732, 29.2332475, 1019.33], [119.6799807, 29.2337294, 1010.84], [119.6804268, 29.2339327, 1011.72], [119.6806725, 29.2337224, 1013.95], [119.6808842, 29.2333748, 1018.29], [119.6808943, 29.2327677, 1019.11], [119.680821, 29.2322785, 1023.45], [119.6808996, 29.2320494, 1024.82], [119.6813281, 29.2316678, 1022.33], [119.6816276, 29.2315757, 1013.46], [119.6813269, 29.2316584, 1014.34], [119.6811808, 29.2317741, 1014.23], [119.6810712, 29.2316486, 1014.36], [119.6811145, 29.2315642, 1013.69], [119.6814032, 29.231329, 1015.37], [119.6821375, 29.2310314, 1003.22], [119.682285, 29.2307563, 1001.05], [119.6821909, 29.2305967, 998.92], [119.6822517, 29.2306021, 998.35], [119.6823321, 29.2304546, 1001.61], [119.6825338, 29.2303468, 998.95], [119.6825262, 29.2301558, 994.21], [119.6828403, 29.2299481, 980.28], [119.6828901, 29.2298231, 977.5], [119.68284, 29.22992, 976.56], [119.6825655, 29.2300785, 972.51], [119.6825885, 29.2301509, 974.65], [119.6827895, 29.2302379, 981.15], [119.6827433, 29.2304041, 986.67], [119.6825865, 29.2305231, 991.78], [119.6825736, 29.2305991, 992.91], [119.6825811, 29.2308804, 995.0], [119.6827018, 29.2310954, 1000.72], [119.6827037, 29.2313352, 1004.01], [119.6827885, 29.2313717, 1005.69], [119.6832835, 29.2312766, 1007.89], [119.6845414, 29.23123, 1004.77], [119.6849783, 29.2315474, 991.32], [119.6850951, 29.2315695, 989.59], [119.6859031, 29.2313996, 995.06], [119.6861381, 29.2314192, 994.66], [119.6863457, 29.231492, 993.13], [119.6865352, 29.2317471, 984.61], [119.6870825, 29.231909, 970.18], [119.6876834, 29.232323, 960.64], [119.6878034, 29.2325435, 955.77], [119.6879455, 29.2326333, 954.43], [119.68762, 29.232253, 956.21], [119.6878285, 29.2320622, 964.75], [119.6877545, 29.2318669, 973.01], [119.6883712, 29.2316439, 965.86], [119.6887222, 29.231393, 963.8], [119.689217, 29.2313191, 964.36], [119.6895083, 29.2310311, 964.39], [119.6899614, 29.2309486, 960.44], [119.690177, 29.2307315, 957.49], [119.6898665, 29.2302594, 971.44], [119.6894473, 29.2301344, 982.04], [119.689389, 29.2301458, 983.1], [119.689605, 29.2302467, 982.73], [119.6898955, 29.2303094, 983.45], [119.6888822, 29.2304152, 1003.81], [119.687587, 29.2308541, 1017.29], [119.6871605, 29.2309203, 1016.88], [119.6865941, 29.2312668, 1013.76], [119.685335, 29.2315162, 987.9], [119.6849628, 29.2315288, 993.4], [119.68459, 29.2312871, 999.44], [119.6843693, 29.231217, 1001.44], [119.6832811, 29.2312476, 1011.75], [119.6822713, 29.2314836, 1005.9], [119.6817685, 29.2314946, 1008.37], [119.6810299, 29.2317961, 1010.14], [119.6808369, 29.2320547, 1012.74], [119.6807808, 29.2324775, 1009.64], [119.6802115, 29.2327149, 1010.73], [119.6798812, 29.2326202, 1014.22], [119.6799809, 29.2324527, 1014.19], [119.6800341, 29.2321734, 1011.6], [119.6803381, 29.2322452, 1008.06], [119.6807681, 29.2321112, 1006.54], [119.680848, 29.2321574, 1007.12], [119.6808457, 29.2321091, 1008.1], [119.6806132, 29.232114, 1011.26], [119.6802459, 29.2322416, 1011.07], [119.6795896, 29.232089, 1011.16], [119.6792392, 29.2323107, 1012.13], [119.6788598, 29.2314605, 1025.36], [119.6780186, 29.2309354, 1034.77], [119.6785141, 29.2305067, 1032.13], [119.6786097, 29.2300109, 1033.74], [119.6787415, 29.2298587, 1037.11], [119.6798816, 29.2296645, 1022.1], [119.6801008, 29.2295603, 1020.78], [119.6802506, 29.228934, 1026.65], [119.6801609, 29.2286424, 1026.47], [119.6801896, 29.2285588, 1024.72], [119.6804419, 29.2283389, 1017.06], [119.6808921, 29.2281419, 1012.58], [119.6810568, 29.2278671, 1013.36], [119.6814208, 29.2276764, 1021.95], [119.681822, 29.2269648, 1055.82], [119.6816802, 29.2263485, 1066.17], [119.6810416, 29.2257562, 1066.4], [119.6811681, 29.2254912, 1069.55], [119.6811823, 29.2253893, 1068.89], [119.6817205, 29.224766, 1035.03], [119.6826883, 29.2241532, 983.8], [119.6829499, 29.2238363, 963.01], [119.6834804, 29.2236007, 951.35], [119.6825265, 29.2242243, 945.1], [119.6827097, 29.2241243, 968.58], [119.6829637, 29.2238129, 967.47], [119.6832801, 29.2237164, 958.08], [119.6834701, 29.223587, 951.79], [119.6838399, 29.2230798, 928.11], [119.6838152, 29.2227478, 912.72], [119.6834492, 29.2215781, 903.82], [119.6834006, 29.2207893, 897.89], [119.6827357, 29.2197961, 878.95], [119.6826116, 29.2192213, 881.14], [119.6823923, 29.2188633, 881.68], [119.68248, 29.218297, 882.24], [119.6820462, 29.2174288, 880.95], [119.6821134, 29.217247, 885.99], [119.6824722, 29.2170212, 880.69], [119.6825783, 29.21635, 840.71], [119.6824953, 29.2163086, 832.75], [119.6826862, 29.215977, 823.58], [119.6826762, 29.21578, 813.18], [119.6825767, 29.2157417, 807.12], [119.6824313, 29.2149343, 793.44], [119.6824677, 29.2140223, 768.52], [119.6825902, 29.2138662, 763.56], [119.6831679, 29.2136009, 754.99], [119.6833369, 29.2133479, 745.18], [119.6833092, 29.2130673, 732.97], [119.6834046, 29.2126968, 735.19], [119.6833728, 29.2125423, 724.27], [119.6836869, 29.2122749, 708.3], [119.6837643, 29.212111, 697.06], [119.6838445, 29.2115443, 651.09], [119.6838212, 29.2114542, 647.83], [119.6837263, 29.2114289, 644.03], [119.6829508, 29.211378, 612.73], [119.6823068, 29.2111476, 593.32], [119.6812818, 29.2111919, 559.16], [119.6808521, 29.2110412, 557.17], [119.680407, 29.2110154, 551.5], [119.6799239, 29.2106889, 534.33], [119.6795774, 29.2106281, 520.63], [119.6791727, 29.2104301, 508.39], [119.6783853, 29.2103514, 481.54], [119.6781115, 29.2101964, 468.0], [119.6779026, 29.2102404, 460.26], [119.6775791, 29.2101638, 445.17], [119.6772746, 29.2103018, 441.43], [119.6774676, 29.2105334, 432.26], [119.6774486, 29.2106348, 429.01], [119.6772034, 29.210857, 422.51], [119.6770382, 29.21059, 425.0], [119.6768357, 29.2104907, 426.81], [119.6763183, 29.210732, 407.07], [119.6758519, 29.210799, 390.82], [119.6756287, 29.2110212, 392.88], [119.6756489, 29.2113268, 396.75], [119.6753239, 29.2115935, 397.89], [119.6753419, 29.211333, 412.87], [119.6751923, 29.2112223, 409.95], [119.6748409, 29.21127, 388.94], [119.6746429, 29.211169, 379.29], [119.6746698, 29.2109648, 373.72], [119.6749287, 29.2104019, 371.53], [119.6749476, 29.2099899, 369.68], [119.6748695, 29.2097928, 368.52], [119.6746524, 29.20954, 370.53], [119.673838, 29.209137, 371.64], [119.6738451, 29.2090101, 370.19]]}}, {"type": "Feature", "properties": {"id": "tb_63575934", "name": "金华南山四顾屏环线", "region": "婺城区", "region_source": "两步路 PosStartName", "difficulty": "困难", "difficulty_reason": "距离>15km 或爬升>900m", "family": null, "family_reason": null, "family_tag": null, "has_water": null, "water_reason": null, "distance_km": 19.96, "ascent_m": 1276, "descent_m": 1267, "ele_min": 98, "ele_max": 551, "hours": 7.83, "pause_hours": 1.69, "track_points": 1883, "waypoints": 0, "start": {"lon": 119.60039, "lat": 28.9873833}, "end": {"lon": 119.6013239, "lat": 28.9879963}, "tags": ["徒步"], "description": "", "source": {"provider": "两步路(2bulu)", "track_id": "63575934", "creator": "TiAmo_LBL4775744", "creator_id": "55463573", "app_version": "and_7.8.9", "begin_time": "1735950760000", "file": "金华南山四顾屏环线.gpx"}}, "geometry": {"type": "LineString", "coordinates": [[119.60039, 28.9873833, 126.5], [119.60035, 28.987485, 126.5], [119.6002846, 28.9874259, 128.26], [119.5999864, 28.9866308, 145.74], [119.5999581, 28.9856663, 149.24], [119.6000636, 28.9848651, 153.95], [119.600031, 28.9846737, 154.81], [119.599839, 28.9843164, 157.44], [119.5997077, 28.983738, 166.03], [119.5997122, 28.9832362, 173.66], [119.5996, 28.9826267, 171.72], [119.5997366, 28.9820451, 179.95], [119.5997279, 28.9816158, 181.82], [119.5993822, 28.9812675, 192.9], [119.5993181, 28.9809131, 197.81], [119.5990587, 28.9807261, 202.59], [119.5988811, 28.9803767, 213.95], [119.5984922, 28.9800295, 225.68], [119.5976929, 28.9796805, 243.87], [119.5975053, 28.9793208, 252.07], [119.597531, 28.9790315, 254.53], [119.5974531, 28.9787537, 263.1], [119.59678, 28.9778547, 285.04], [119.5966634, 28.977488, 298.84], [119.5963298, 28.977154, 314.74], [119.5960813, 28.9767608, 330.09], [119.5959863, 28.9764841, 333.08], [119.5958307, 28.976364, 338.03], [119.5951504, 28.9751685, 376.31], [119.5949384, 28.9749435, 380.56], [119.594647, 28.974852, 387.44], [119.5950049, 28.9749813, 390.01], [119.5950302, 28.9749138, 390.86], [119.5947165, 28.974414, 391.23], [119.5947537, 28.9741348, 397.97], [119.5946396, 28.9739676, 401.19], [119.5946803, 28.9738091, 402.39], [119.5945173, 28.9733955, 403.84], [119.5941131, 28.9731535, 417.79], [119.593455, 28.97303, 422.23], [119.5929733, 28.9732167, 453.27], [119.5924444, 28.9732099, 467.82], [119.592185, 28.9730667, 504.57], [119.592004, 28.9727053, 526.33], [119.5916523, 28.9724687, 532.43], [119.5914493, 28.9723729, 539.92], [119.5911121, 28.9723433, 547.76], [119.590905, 28.9723955, 551.02], [119.590528, 28.9722124, 549.3], [119.5903268, 28.9717099, 538.42], [119.5901186, 28.9716563, 525.45], [119.5898285, 28.9713718, 504.69], [119.589835, 28.971105, 500.39], [119.5894066, 28.9704278, 459.55], [119.5884556, 28.9698953, 441.71], [119.5881946, 28.9696027, 445.04], [119.5880619, 28.9692052, 454.25], [119.5879145, 28.9690732, 456.26], [119.5877024, 28.9690017, 452.31], [119.5871121, 28.969006, 434.92], [119.5865096, 28.9687838, 441.78], [119.585867, 28.9687931, 464.98], [119.5853733, 28.9687133, 478.49], [119.5853213, 28.968419, 485.21], [119.585048, 28.9681303, 490.37], [119.5850316, 28.9680348, 490.94], [119.5852781, 28.967369, 474.18], [119.5852123, 28.9670772, 467.74], [119.5849987, 28.966509, 453.76], [119.5847659, 28.9661683, 454.76], [119.5844928, 28.9659847, 456.5], [119.5842672, 28.9656582, 465.71], [119.5841209, 28.9652779, 471.04], [119.5841278, 28.9649876, 468.78], [119.5838591, 28.9645964, 472.24], [119.583593, 28.9644096, 480.95], [119.5833936, 28.9640702, 492.46], [119.5832981, 28.9640245, 495.1], [119.5821328, 28.9640039, 510.02], [119.58156, 28.9638733, 513.45], [119.5813583, 28.9635333, 540.74], [119.5810541, 28.9633808, 539.3], [119.5808919, 28.9629193, 530.05], [119.5809821, 28.962649, 527.13], [119.5808, 28.9624017, 524.41], [119.5806967, 28.9623717, 517.14], [119.5804883, 28.9621483, 500.27], [119.5802883, 28.9618204, 473.0], [119.5797092, 28.9615413, 458.55], [119.5794929, 28.961196, 457.7], [119.5787677, 28.9607011, 457.16], [119.5786782, 28.9604451, 472.33], [119.5785011, 28.9602052, 476.24], [119.5779682, 28.9600034, 461.46], [119.5778617, 28.9598083, 461.78], [119.577857, 28.9595267, 468.62], [119.5776319, 28.9592114, 469.55], [119.577635, 28.9588213, 473.45], [119.5775156, 28.9583308, 466.78], [119.5772946, 28.9581054, 469.71], [119.5772467, 28.957905, 475.7], [119.5775535, 28.9567655, 462.44], [119.5775161, 28.956582, 465.29], [119.5773491, 28.956453, 466.78], [119.5769314, 28.9562874, 456.25], [119.5761622, 28.956157, 436.3], [119.5758486, 28.9558705, 433.02], [119.5757059, 28.9554161, 428.0], [119.5756287, 28.9553566, 427.52], [119.5752734, 28.9553269, 427.03], [119.5749217, 28.9551123, 427.81], [119.5746406, 28.954822, 432.4], [119.573645, 28.9544933, 434.7], [119.5736267, 28.9545867, 453.41], [119.5735317, 28.95432, 466.31], [119.5732607, 28.9540064, 470.32], [119.5732567, 28.9537313, 481.22], [119.5725227, 28.9534852, 468.53], [119.5724828, 28.9529447, 467.78], [119.5720899, 28.952092, 424.67], [119.5720322, 28.9518045, 414.65], [119.5721591, 28.950129, 385.06], [119.5721886, 28.9500334, 381.85], [119.57255, 28.949805, 355.94], [119.5726083, 28.9496083, 352.7], [119.5725858, 28.9493877, 343.22], [119.5727832, 28.9489078, 338.34], [119.5728336, 28.948312, 330.2], [119.5725433, 28.9476467, 328.72], [119.5724241, 28.9470986, 284.29], [119.5724852, 28.9466948, 260.45], [119.5727966, 28.9460294, 219.06], [119.5728498, 28.9457253, 194.19], [119.5727429, 28.9454188, 175.86], [119.5721118, 28.9451372, 176.3], [119.5722017, 28.9450633, 173.72], [119.572185, 28.945155, 171.3], [119.5723553, 28.9452971, 169.82], [119.573551, 28.9456249, 167.04], [119.5739416, 28.9458058, 166.16], [119.5767321, 28.9482574, 167.69], [119.5782578, 28.949212, 167.97], [119.5788039, 28.9492968, 170.06], [119.5797567, 28.9493078, 171.98], [119.5803856, 28.9495047, 172.49], [119.5813902, 28.9496247, 171.01], [119.5828051, 28.9503025, 156.28], [119.5831584, 28.9504184, 150.45], [119.5834083, 28.9504208, 148.45], [119.5838773, 28.9503191, 151.09], [119.5843819, 28.9501023, 150.85], [119.5851202, 28.9495955, 149.85], [119.5852753, 28.9494514, 148.64], [119.5853778, 28.9492673, 152.38], [119.5854166, 28.9489623, 153.77], [119.585571, 28.948812, 155.31], [119.5858314, 28.9487421, 155.01], [119.5860697, 28.948827, 150.75], [119.586708, 28.9493168, 132.14], [119.5876898, 28.9508312, 138.6], [119.5877743, 28.951121, 137.73], [119.587587, 28.9519296, 136.0], [119.5876173, 28.9522464, 137.16], [119.5877083, 28.9524136, 140.72], [119.5882954, 28.9529137, 127.84], [119.588963, 28.9529355, 131.31], [119.5893415, 28.9530885, 132.81], [119.5905218, 28.9538628, 127.87], [119.5909577, 28.9542403, 131.48], [119.5916094, 28.9544678, 124.25], [119.5924547, 28.9546231, 121.87], [119.5930207, 28.9548515, 122.03], [119.5942169, 28.9558244, 111.14], [119.5950271, 28.9565984, 109.39], [119.5957804, 28.9581396, 120.15], [119.596439, 28.9584249, 115.13], [119.5970079, 28.9587829, 109.26], [119.5974633, 28.9595214, 119.0], [119.5977575, 28.9598235, 117.13], [119.6010547, 28.9613484, 107.19], [119.6016103, 28.9622863, 112.23], [119.6020205, 28.9631465, 120.88], [119.6024078, 28.9634998, 123.43], [119.603892, 28.963676, 117.67], [119.6040646, 28.9637923, 116.27], [119.6047138, 28.963961, 117.64], [119.6052114, 28.9642462, 116.12], [119.6057492, 28.9643904, 129.6], [119.6061816, 28.9642206, 123.57], [119.6067687, 28.9641176, 118.7], [119.6075773, 28.9638519, 124.37], [119.6100169, 28.962871, 123.0], [119.6108953, 28.9631508, 112.14], [119.6116961, 28.9632837, 111.85], [119.61203, 28.9634091, 114.67], [119.6121926, 28.9635531, 115.85], [119.6125156, 28.9641536, 117.5], [119.6127902, 28.9645053, 111.94], [119.6134017, 28.9648183, 110.58], [119.6142579, 28.9649761, 110.44], [119.6152733, 28.9647303, 109.12], [119.6156249, 28.9647204, 108.07], [119.6177035, 28.9652282, 102.58], [119.6202045, 28.9655518, 97.74], [119.6203244, 28.9655708, 98.02], [119.6204992, 28.9658152, 99.3], [119.6199307, 28.9657734, 111.13], [119.6196333, 28.9659323, 114.6], [119.6193006, 28.9662463, 111.94], [119.6183962, 28.9675865, 128.52], [119.6181012, 28.9686911, 133.47], [119.6181545, 28.9691646, 122.62], [119.6183283, 28.969628, 130.96], [119.6181175, 28.969978, 136.71], [119.6181302, 28.9702666, 142.34], [119.6179725, 28.9705224, 155.98], [119.6179853, 28.970612, 157.84], [119.6180092, 28.9705584, 167.84], [119.6179337, 28.9705348, 178.58], [119.6178559, 28.9705914, 183.66], [119.6175292, 28.9712425, 181.48], [119.6175523, 28.9714205, 186.69], [119.6178063, 28.9717245, 202.64], [119.6178038, 28.9719333, 210.0], [119.6174865, 28.9722285, 222.25], [119.6175615, 28.9723668, 217.53], [119.6171823, 28.9724849, 227.96], [119.6169105, 28.9729114, 259.38], [119.6167173, 28.9729754, 280.44], [119.61652, 28.9733128, 304.24], [119.6164359, 28.9736093, 319.59], [119.6164409, 28.9738922, 326.72], [119.615811, 28.9741407, 331.12], [119.6155956, 28.9743616, 325.94], [119.6155178, 28.974536, 325.81], [119.6155675, 28.9747318, 328.94], [119.6154626, 28.9749807, 345.08], [119.6153244, 28.9758062, 349.35], [119.6154217, 28.975785, 371.87], [119.6152544, 28.9765635, 393.66], [119.615279, 28.9766679, 391.48], [119.6160634, 28.977396, 368.93], [119.6163575, 28.9774995, 359.32], [119.6163995, 28.9775868, 355.36], [119.6164354, 28.9777779, 348.42], [119.6162635, 28.978581, 323.84], [119.6163323, 28.9789643, 309.59], [119.6162239, 28.9792451, 297.73], [119.6162989, 28.9794207, 293.4], [119.616458, 28.979575, 291.12], [119.6165135, 28.979767, 286.32], [119.6163112, 28.9798192, 279.11], [119.6161986, 28.9799745, 272.6], [119.6159808, 28.9799528, 265.67], [119.6159001, 28.9800021, 262.89], [119.6161618, 28.9806817, 217.83], [119.6162166, 28.9809867, 210.6], [119.6155055, 28.9819933, 196.11], [119.6153783, 28.9823867, 193.07], [119.6153833, 28.9825883, 188.79], [119.6165974, 28.9837776, 147.05], [119.6170097, 28.9847641, 146.53], [119.6171554, 28.9853726, 137.59], [119.6172683, 28.9855445, 136.05], [119.6174527, 28.9861426, 131.36], [119.6174566, 28.9863314, 132.2], [119.6172007, 28.9865357, 128.78], [119.6170747, 28.9868514, 127.75], [119.6169843, 28.9868979, 128.46], [119.6161584, 28.9869073, 140.57], [119.6154584, 28.9870696, 137.69], [119.6151729, 28.9872148, 133.68], [119.6151697, 28.9872681, 131.49], [119.6145694, 28.9875066, 133.43], [119.614516, 28.9876954, 133.9], [119.6147325, 28.9882845, 129.28], [119.6146428, 28.9884572, 125.76], [119.6144251, 28.9885538, 128.31], [119.6134958, 28.9883743, 128.59], [119.6133823, 28.9883814, 127.69], [119.6131931, 28.9885905, 127.46], [119.6132022, 28.9883087, 131.01], [119.6130626, 28.9880029, 136.26], [119.6129563, 28.987987, 138.43], [119.6124912, 28.98809, 135.96], [119.6117622, 28.9881074, 136.5], [119.6112344, 28.9878953, 136.57], [119.6106897, 28.9881193, 137.91], [119.6099103, 28.9882151, 146.36], [119.6096745, 28.9878764, 147.31], [119.6095765, 28.9878397, 145.89], [119.609115, 28.9879011, 140.38], [119.6080989, 28.9878321, 143.04], [119.6078814, 28.9877298, 144.54], [119.6077263, 28.9874412, 144.18], [119.6076326, 28.9874264, 141.74], [119.6075193, 28.9875931, 138.57], [119.6074339, 28.9883225, 132.32], [119.6074682, 28.9880721, 133.99], [119.6072964, 28.9879847, 130.45], [119.6074434, 28.9879991, 134.32], [119.6075072, 28.9879293, 134.18], [119.6076136, 28.9874486, 144.95], [119.6077261, 28.9874541, 144.59], [119.6080315, 28.9878887, 141.24], [119.6081336, 28.9879255, 142.82], [119.6084941, 28.9878498, 146.56], [119.6092255, 28.9879183, 139.84], [119.609557, 28.9878806, 135.14], [119.6097657, 28.987969, 133.34], [119.6116212, 28.9918081, 127.69], [119.6119744, 28.9923482, 121.8], [119.6122996, 28.9932021, 117.65], [119.6125698, 28.9936544, 115.89], [119.6130173, 28.9947056, 106.51], [119.6124022, 28.9950932, 104.43], [119.6120666, 28.9951705, 110.21], [119.6108646, 28.995202, 116.04], [119.6106541, 28.9951098, 117.21], [119.6105459, 28.9949382, 117.85], [119.6102611, 28.9947795, 116.89], [119.6097605, 28.9948946, 111.86], [119.6091065, 28.9949474, 111.12], [119.607594, 28.9949263, 119.82], [119.6062355, 28.9949857, 111.11], [119.6037547, 28.9953007, 110.01], [119.603591, 28.9946519, 114.56], [119.6030959, 28.9940012, 124.47], [119.6030005, 28.9934626, 128.25], [119.6030043, 28.9925279, 131.84], [119.6029418, 28.9922302, 133.72], [119.6028579, 28.9920942, 135.04], [119.6023636, 28.9916937, 132.29], [119.6018871, 28.9902002, 136.39], [119.6003333, 28.9876277, 144.66], [119.6011014, 28.9876548, 132.39], [119.6012005, 28.9877018, 132.13], [119.6013963, 28.9880267, 134.84], [119.6013239, 28.9879963, 136.24]]}}]}