<?xml version='1.0' encoding='UTF-8' standalone='yes' ?>
<gpx version="1.1" creator="GPSBabel - http://www.gpsbabel.org" xmlns:xsi="http://www.w3.org/2001/XMLSchema-instance" xmlns="http://www.topografix.com/GPX/1/1" xsi:schemaLocation="http://www.topografix.com/GPX/1/1 http://www.topografix.com/GPX/1/1/gpx.xsd">
  <metadata>
    <link href="http://www.garmin.com">
      <text>Garmin International</text>
    </link>
    <time>2026-08-12T05:08:22Z</time>
    <bounds minlat="29.3744917" minlon="119.861455" maxlat="29.3793107" maxlon="119.88069" />
  </metadata>
  <extensions>
    <name><![CDATA[三县第一潭（三瀑）]]>
    </name>
    <description><![CDATA[车可以开到里面去，可以少走2.5公里左右，但是容易堵车。水潭瀑布路段注意安全，比较滑，曾经出事过。下游两个瀑布，过去看看就好了，不要太冒险，安全第一。]]>
    </description>
    <TrackId>88232643</TrackId>
    <TrackTypeId>8</TrackTypeId>
    <TrackTags>徒步</TrackTags>
    <BeginTime>1786511302000</BeginTime>
    <EndTime>1786517589000</EndTime>
    <TimeUsed>6287000</TimeUsed>
    <PauseTime>596727</PauseTime>
    <PosStartName>岩下山村</PosStartName>
    <PosEndName>岩下山村</PosEndName>
    <ProductVersion>and_9.1.5</ProductVersion>
    <StartDistrictId>9659</StartDistrictId>
    <EndDistrictId>9659</EndDistrictId>
    <CreaterId>64771087</CreaterId>
    <CreaterName><![CDATA[步履赴山野]]>
    </CreaterName>
    <CreaterIcon>1523534626</CreaterIcon>
    <OriginCreaterId>64771087</OriginCreaterId>
    <OriginCreaterNickname><![CDATA[步履赴山野]]>
    </OriginCreaterNickname>
    <OriginCreaterName><![CDATA[null]]>
    </OriginCreaterName>
    <OriginCreaterIcon>1523534626</OriginCreaterIcon>
    <ThumbnailId>1657601230</ThumbnailId>
    <Distance>5441.0</Distance>
    <ElevationGain>160.43</ElevationGain>
    <ElevationLoss>150.43000000000004</ElevationLoss>
    <SportAvgSpeed>0.9561931387123255</SportAvgSpeed>
  </extensions>
  <trk>
    <trkseg>
      <trkpt lat="29.3744917" lon="119.861455">
        <ele>239.1</ele>
        <time>2026-08-12T05:08:24Z</time>
        <speed>0.87245417</speed>
      </trkpt>
      <trkpt lat="29.3745346" lon="119.8615437">
        <ele>239.1</ele>
        <time>2026-08-12T05:08:42Z</time>
        <speed>0.9928992</speed>
      </trkpt>
      <trkpt lat="29.3745834" lon="119.8616331">
        <ele>240.3</ele>
        <time>2026-08-12T05:08:50Z</time>
        <speed>1.2003322</speed>
      </trkpt>
      <trkpt lat="29.3746329" lon="119.8617331">
        <ele>240.99</ele>
        <time>2026-08-12T05:08:58Z</time>
        <speed>1.2672461</speed>
      </trkpt>
      <trkpt lat="29.3746647" lon="119.8618536">
        <ele>241.73</ele>
        <time>2026-08-12T05:09:04Z</time>
        <speed>2.4583132</speed>
      </trkpt>
      <trkpt lat="29.3747085" lon="119.8619739">
        <ele>242.23</ele>
        <time>2026-08-12T05:09:14Z</time>
        <speed>1.3321011</speed>
      </trkpt>
      <trkpt lat="29.3747851" lon="119.8620348">
        <ele>243.68</ele>
        <time>2026-08-12T05:09:20Z</time>
        <speed>1.6615233</speed>
      </trkpt>
      <trkpt lat="29.3748745" lon="119.8620805">
        <ele>245.58</ele>
        <time>2026-08-12T05:09:26Z</time>
        <speed>1.7078483</speed>
      </trkpt>
      <trkpt lat="29.3749719" lon="119.8620907">
        <ele>246.36</ele>
        <time>2026-08-12T05:09:32Z</time>
        <speed>1.6697589</speed>
      </trkpt>
      <trkpt lat="29.3750666" lon="119.8621016">
        <ele>246.85</ele>
        <time>2026-08-12T05:09:38Z</time>
        <speed>1.5822561</speed>
      </trkpt>
      <trkpt lat="29.3751564" lon="119.8621283">
        <ele>247.86</ele>
        <time>2026-08-12T05:09:44Z</time>
        <speed>1.5230631</speed>
      </trkpt>
      <trkpt lat="29.3752603" lon="119.8621387">
        <ele>249.6</ele>
        <time>2026-08-12T05:09:50Z</time>
        <speed>1.6635822</speed>
      </trkpt>
      <trkpt lat="29.3753742" lon="119.862172">
        <ele>249.6</ele>
        <time>2026-08-12T05:09:58Z</time>
        <speed>1.3357042</speed>
      </trkpt>
      <trkpt lat="29.3754546" lon="119.8622357">
        <ele>248.65</ele>
        <time>2026-08-12T05:10:04Z</time>
        <speed>1.6280664</speed>
      </trkpt>
      <trkpt lat="29.3755232" lon="119.8623399">
        <ele>246.48</ele>
        <time>2026-08-12T05:10:10Z</time>
        <speed>2.07536</speed>
      </trkpt>
      <trkpt lat="29.3756024" lon="119.8624293">
        <ele>244.47</ele>
        <time>2026-08-12T05:10:18Z</time>
        <speed>1.7824831</speed>
      </trkpt>
      <trkpt lat="29.3757108" lon="119.862471">
        <ele>243.15</ele>
        <time>2026-08-12T05:10:26Z</time>
        <speed>1.7737328</speed>
      </trkpt>
      <trkpt lat="29.3758174" lon="119.8624782">
        <ele>242.7</ele>
        <time>2026-08-12T05:10:32Z</time>
        <speed>1.599242</speed>
      </trkpt>
      <trkpt lat="29.375928" lon="119.8624886">
        <ele>242.91</ele>
        <time>2026-08-12T05:10:40Z</time>
        <speed>1.5518875</speed>
      </trkpt>
      <trkpt lat="29.3760219" lon="119.8625194">
        <ele>243.34</ele>
        <time>2026-08-12T05:10:48Z</time>
        <speed>1.3459986</speed>
      </trkpt>
      <trkpt lat="29.3761192" lon="119.8625567">
        <ele>244.78</ele>
        <time>2026-08-12T05:10:54Z</time>
        <speed>1.4262953</speed>
      </trkpt>
      <trkpt lat="29.3762157" lon="119.8625734">
        <ele>246.3</ele>
        <time>2026-08-12T05:11:00Z</time>
        <speed>1.8483675</speed>
      </trkpt>
      <trkpt lat="29.3763096" lon="119.8625858">
        <ele>247.42</ele>
        <time>2026-08-12T05:11:06Z</time>
        <speed>1.7557175</speed>
      </trkpt>
      <trkpt lat="29.3764064" lon="119.8625949">
        <ele>247.88</ele>
        <time>2026-08-12T05:11:12Z</time>
        <speed>1.991975</speed>
      </trkpt>
      <trkpt lat="29.3765007" lon="119.8626148">
        <ele>247.2</ele>
        <time>2026-08-12T05:11:18Z</time>
        <speed>1.9157962</speed>
      </trkpt>
      <trkpt lat="29.3766078" lon="119.8625891">
        <ele>246.0</ele>
        <time>2026-08-12T05:11:26Z</time>
        <speed>1.7371875</speed>
      </trkpt>
      <trkpt lat="29.3767009" lon="119.8625302">
        <ele>245.35</ele>
        <time>2026-08-12T05:11:34Z</time>
        <speed>1.4721055</speed>
      </trkpt>
      <trkpt lat="29.3767945" lon="119.8624952">
        <ele>244.3</ele>
        <time>2026-08-12T05:11:40Z</time>
        <speed>1.4108536</speed>
      </trkpt>
      <trkpt lat="29.3768963" lon="119.8625372">
        <ele>243.65</ele>
        <time>2026-08-12T05:11:48Z</time>
        <speed>1.5184306</speed>
      </trkpt>
      <trkpt lat="29.3769774" lon="119.8626026">
        <ele>243.67</ele>
        <time>2026-08-12T05:11:54Z</time>
        <speed>1.5951241</speed>
      </trkpt>
      <trkpt lat="29.3770544" lon="119.8626863">
        <ele>243.9</ele>
        <time>2026-08-12T05:12:00Z</time>
        <speed>1.6924067</speed>
      </trkpt>
      <trkpt lat="29.3771033" lon="119.862792">
        <ele>244.33</ele>
        <time>2026-08-12T05:12:06Z</time>
        <speed>1.8602061</speed>
      </trkpt>
      <trkpt lat="29.3771589" lon="119.8628929">
        <ele>244.1</ele>
        <time>2026-08-12T05:12:16Z</time>
        <speed>1.0397389</speed>
      </trkpt>
      <trkpt lat="29.3772378" lon="119.8629806">
        <ele>244.83</ele>
        <time>2026-08-12T05:12:22Z</time>
        <speed>0.9965022</speed>
      </trkpt>
      <trkpt lat="29.3773282" lon="119.863016">
        <ele>246.07</ele>
        <time>2026-08-12T05:12:28Z</time>
        <speed>1.5760795</speed>
      </trkpt>
      <trkpt lat="29.377427" lon="119.8629985">
        <ele>247.76</ele>
        <time>2026-08-12T05:12:34Z</time>
        <speed>1.738217</speed>
      </trkpt>
      <trkpt lat="29.3775402" lon="119.8629922">
        <ele>249.97</ele>
        <time>2026-08-12T05:12:42Z</time>
        <speed>1.4412222</speed>
      </trkpt>
      <trkpt lat="29.377625" lon="119.8630521">
        <ele>250.8</ele>
        <time>2026-08-12T05:12:48Z</time>
        <speed>1.7804241</speed>
      </trkpt>
      <trkpt lat="29.3776469" lon="119.8631653">
        <ele>249.9</ele>
        <time>2026-08-12T05:12:56Z</time>
        <speed>1.317689</speed>
      </trkpt>
      <trkpt lat="29.3776553" lon="119.8633017">
        <ele>248.18</ele>
        <time>2026-08-12T05:13:04Z</time>
        <speed>1.3686464</speed>
      </trkpt>
      <trkpt lat="29.3776501" lon="119.8634309">
        <ele>247.11</ele>
        <time>2026-08-12T05:13:10Z</time>
        <speed>1.5590936</speed>
      </trkpt>
      <trkpt lat="29.3777105" lon="119.8635351">
        <ele>245.73</ele>
        <time>2026-08-12T05:13:18Z</time>
        <speed>1.736158</speed>
      </trkpt>
      <trkpt lat="29.3778082" lon="119.8635823">
        <ele>244.73</ele>
        <time>2026-08-12T05:13:24Z</time>
        <speed>1.8977808</speed>
      </trkpt>
      <trkpt lat="29.377896" lon="119.8636394">
        <ele>244.63</ele>
        <time>2026-08-12T05:13:30Z</time>
        <speed>1.9348408</speed>
      </trkpt>
      <trkpt lat="29.3779655" lon="119.8637235">
        <ele>245.09</ele>
        <time>2026-08-12T05:13:36Z</time>
        <speed>1.738217</speed>
      </trkpt>
      <trkpt lat="29.3780584" lon="119.8637724">
        <ele>245.78</ele>
        <time>2026-08-12T05:13:42Z</time>
        <speed>1.8720447</speed>
      </trkpt>
      <trkpt lat="29.3781489" lon="119.8637413">
        <ele>246.01</ele>
        <time>2026-08-12T05:14:02Z</time>
        <speed>1.1565808</speed>
      </trkpt>
      <trkpt lat="29.3782538" lon="119.8636774">
        <ele>246.73</ele>
        <time>2026-08-12T05:14:12Z</time>
        <speed>1.4412222</speed>
      </trkpt>
      <trkpt lat="29.3783459" lon="119.8637057">
        <ele>247.84</ele>
        <time>2026-08-12T05:14:18Z</time>
        <speed>1.7907186</speed>
      </trkpt>
      <trkpt lat="29.3783848" lon="119.8637985">
        <ele>247.95</ele>
        <time>2026-08-12T05:14:24Z</time>
        <speed>1.68623</speed>
      </trkpt>
      <trkpt lat="29.3784043" lon="119.863911">
        <ele>247.97</ele>
        <time>2026-08-12T05:14:30Z</time>
        <speed>1.6574056</speed>
      </trkpt>
      <trkpt lat="29.3784324" lon="119.8640358">
        <ele>247.68</ele>
        <time>2026-08-12T05:14:38Z</time>
        <speed>1.5179158</speed>
      </trkpt>
      <trkpt lat="29.378391" lon="119.8641413">
        <ele>247.17</ele>
        <time>2026-08-12T05:14:46Z</time>
        <speed>1.3001883</speed>
      </trkpt>
      <trkpt lat="29.3783077" lon="119.8642333">
        <ele>246.8</ele>
        <time>2026-08-12T05:14:54Z</time>
        <speed>1.1926113</speed>
      </trkpt>
      <trkpt lat="29.3782409" lon="119.8643277">
        <ele>246.37</ele>
        <time>2026-08-12T05:15:00Z</time>
        <speed>1.2250389</speed>
      </trkpt>
      <trkpt lat="29.3782636" lon="119.8644209">
        <ele>245.01</ele>
        <time>2026-08-12T05:15:06Z</time>
        <speed>1.5642408</speed>
      </trkpt>
      <trkpt lat="29.3783531" lon="119.8644538">
        <ele>243.2</ele>
        <time>2026-08-12T05:15:12Z</time>
        <speed>1.8056456</speed>
      </trkpt>
      <trkpt lat="29.3784617" lon="119.8644873">
        <ele>242.72</ele>
        <time>2026-08-12T05:15:20Z</time>
        <speed>1.5107098</speed>
      </trkpt>
      <trkpt lat="29.37849" lon="119.8645833">
        <ele>244.43</ele>
        <time>2026-08-12T05:15:26Z</time>
        <speed>1.6785091</speed>
      </trkpt>
      <trkpt lat="29.3785186" lon="119.8647064">
        <ele>245.8</ele>
        <time>2026-08-12T05:15:34Z</time>
        <speed>2.0871985</speed>
      </trkpt>
      <trkpt lat="29.3785934" lon="119.864783">
        <ele>246.23</ele>
        <time>2026-08-12T05:15:40Z</time>
        <speed>1.9266052</speed>
      </trkpt>
      <trkpt lat="29.3786825" lon="119.8648349">
        <ele>247.08</ele>
        <time>2026-08-12T05:15:46Z</time>
        <speed>1.9240316</speed>
      </trkpt>
      <trkpt lat="29.3787022" lon="119.8649364">
        <ele>247.65</ele>
        <time>2026-08-12T05:15:54Z</time>
        <speed>1.4818853</speed>
      </trkpt>
      <trkpt lat="29.3786923" lon="119.8650517">
        <ele>247.97</ele>
        <time>2026-08-12T05:16:00Z</time>
        <speed>1.6054186</speed>
      </trkpt>
      <trkpt lat="29.3787482" lon="119.8651477">
        <ele>248.2</ele>
        <time>2026-08-12T05:16:08Z</time>
        <speed>1.5503433</speed>
      </trkpt>
      <trkpt lat="29.3788477" lon="119.8652088">
        <ele>249.32</ele>
        <time>2026-08-12T05:16:16Z</time>
        <speed>1.7165986</speed>
      </trkpt>
      <trkpt lat="29.3789235" lon="119.8653036">
        <ele>250.3</ele>
        <time>2026-08-12T05:16:24Z</time>
        <speed>1.5421078</speed>
      </trkpt>
      <trkpt lat="29.3789422" lon="119.8654115">
        <ele>251.5</ele>
        <time>2026-08-12T05:16:30Z</time>
        <speed>1.5596083</speed>
      </trkpt>
      <trkpt lat="29.378922" lon="119.8655184">
        <ele>252.28</ele>
        <time>2026-08-12T05:16:36Z</time>
        <speed>1.7552028</speed>
      </trkpt>
      <trkpt lat="29.3788842" lon="119.8656425">
        <ele>252.29</ele>
        <time>2026-08-12T05:16:44Z</time>
        <speed>1.6373314</speed>
      </trkpt>
      <trkpt lat="29.3788674" lon="119.865775">
        <ele>251.13</ele>
        <time>2026-08-12T05:16:52Z</time>
        <speed>1.8097633</speed>
      </trkpt>
      <trkpt lat="29.3789087" lon="119.8658854">
        <ele>249.31</ele>
        <time>2026-08-12T05:17:00Z</time>
        <speed>1.6224045</speed>
      </trkpt>
      <trkpt lat="29.3789829" lon="119.8659829">
        <ele>246.94</ele>
        <time>2026-08-12T05:17:08Z</time>
        <speed>1.3784261</speed>
      </trkpt>
      <trkpt lat="29.3790612" lon="119.8660851">
        <ele>244.99</ele>
        <time>2026-08-12T05:17:14Z</time>
        <speed>1.8880011</speed>
      </trkpt>
      <trkpt lat="29.379135" lon="119.8661662">
        <ele>243.92</ele>
        <time>2026-08-12T05:17:22Z</time>
        <speed>1.3336452</speed>
      </trkpt>
      <trkpt lat="29.3791852" lon="119.8662838">
        <ele>243.87</ele>
        <time>2026-08-12T05:17:28Z</time>
        <speed>1.8514558</speed>
      </trkpt>
      <trkpt lat="29.3792134" lon="119.8663985">
        <ele>244.7</ele>
        <time>2026-08-12T05:17:34Z</time>
        <speed>2.1448474</speed>
      </trkpt>
      <trkpt lat="29.3792344" lon="119.8665358">
        <ele>245.99</ele>
        <time>2026-08-12T05:17:42Z</time>
        <speed>1.9075606</speed>
      </trkpt>
      <trkpt lat="29.3792206" lon="119.8666659">
        <ele>247.11</ele>
        <time>2026-08-12T05:17:50Z</time>
        <speed>1.7464525</speed>
      </trkpt>
      <trkpt lat="29.3791804" lon="119.8667917">
        <ele>248.31</ele>
        <time>2026-08-12T05:17:58Z</time>
        <speed>1.3918089</speed>
      </trkpt>
      <trkpt lat="29.3791268" lon="119.8668931">
        <ele>248.61</ele>
        <time>2026-08-12T05:18:04Z</time>
        <speed>1.587918</speed>
      </trkpt>
      <trkpt lat="29.3790737" lon="119.8669869">
        <ele>248.82</ele>
        <time>2026-08-12T05:18:10Z</time>
        <speed>1.7582911</speed>
      </trkpt>
      <trkpt lat="29.3790392" lon="119.8670866">
        <ele>248.47</ele>
        <time>2026-08-12T05:18:16Z</time>
        <speed>1.6465964</speed>
      </trkpt>
      <trkpt lat="29.3790165" lon="119.8671973">
        <ele>247.36</ele>
        <time>2026-08-12T05:18:22Z</time>
        <speed>1.8179989</speed>
      </trkpt>
      <trkpt lat="29.3790202" lon="119.8673172">
        <ele>245.7</ele>
        <time>2026-08-12T05:18:28Z</time>
        <speed>2.1144788</speed>
      </trkpt>
      <trkpt lat="29.3790314" lon="119.8674325">
        <ele>245.31</ele>
        <time>2026-08-12T05:18:36Z</time>
        <speed>1.55652</speed>
      </trkpt>
      <trkpt lat="29.3790497" lon="119.8675491">
        <ele>246.43</ele>
        <time>2026-08-12T05:18:42Z</time>
        <speed>1.5276955</speed>
      </trkpt>
      <trkpt lat="29.379083" lon="119.8676586">
        <ele>247.32</ele>
        <time>2026-08-12T05:18:48Z</time>
        <speed>1.8421909</speed>
      </trkpt>
      <trkpt lat="29.3791119" lon="119.8677703">
        <ele>247.96</ele>
        <time>2026-08-12T05:18:56Z</time>
        <speed>1.5081362</speed>
      </trkpt>
      <trkpt lat="29.3791277" lon="119.8678806">
        <ele>248.15</ele>
        <time>2026-08-12T05:19:02Z</time>
        <speed>1.2106267</speed>
      </trkpt>
      <trkpt lat="29.3791382" lon="119.8679955">
        <ele>248.13</ele>
        <time>2026-08-12T05:19:08Z</time>
        <speed>1.7541733</speed>
      </trkpt>
      <trkpt lat="29.3791597" lon="119.8680996">
        <ele>247.99</ele>
        <time>2026-08-12T05:19:14Z</time>
        <speed>1.840132</speed>
      </trkpt>
      <trkpt lat="29.3791895" lon="119.8682096">
        <ele>247.22</ele>
        <time>2026-08-12T05:19:20Z</time>
        <speed>1.8442497</speed>
      </trkpt>
      <trkpt lat="29.3792158" lon="119.8683385">
        <ele>246.18</ele>
        <time>2026-08-12T05:19:28Z</time>
        <speed>1.7310108</speed>
      </trkpt>
      <trkpt lat="29.3792427" lon="119.868473">
        <ele>246.19</ele>
        <time>2026-08-12T05:19:36Z</time>
        <speed>1.5781384</speed>
      </trkpt>
      <trkpt lat="29.3792696" lon="119.8685847">
        <ele>247.18</ele>
        <time>2026-08-12T05:19:42Z</time>
        <speed>1.7001275</speed>
      </trkpt>
      <trkpt lat="29.379279" lon="119.868696">
        <ele>248.22</ele>
        <time>2026-08-12T05:19:48Z</time>
        <speed>1.6352725</speed>
      </trkpt>
      <trkpt lat="29.3793106" lon="119.8688229">
        <ele>249.33</ele>
        <time>2026-08-12T05:19:56Z</time>
        <speed>1.8092486</speed>
      </trkpt>
      <trkpt lat="29.3792875" lon="119.8689522">
        <ele>250.78</ele>
        <time>2026-08-12T05:20:04Z</time>
        <speed>1.7366728</speed>
      </trkpt>
      <trkpt lat="29.3792223" lon="119.8690642">
        <ele>251.69</ele>
        <time>2026-08-12T05:20:12Z</time>
        <speed>1.5549759</speed>
      </trkpt>
      <trkpt lat="29.3791707" lon="119.8691833">
        <ele>251.48</ele>
        <time>2026-08-12T05:20:20Z</time>
        <speed>1.5446814</speed>
      </trkpt>
      <trkpt lat="29.3791515" lon="119.8693106">
        <ele>250.59</ele>
        <time>2026-08-12T05:20:28Z</time>
        <speed>1.3423955</speed>
      </trkpt>
      <trkpt lat="29.3791504" lon="119.8694271">
        <ele>248.79</ele>
        <time>2026-08-12T05:20:34Z</time>
        <speed>1.460267</speed>
      </trkpt>
      <trkpt lat="29.3791873" lon="119.8695342">
        <ele>247.33</ele>
        <time>2026-08-12T05:20:40Z</time>
        <speed>1.6069628</speed>
      </trkpt>
      <trkpt lat="29.3791677" lon="119.8696333">
        <ele>246.59</ele>
        <time>2026-08-12T05:20:56Z</time>
        <speed>1.1370214</speed>
      </trkpt>
      <trkpt lat="29.379177" lon="119.8696987">
        <ele>246.38</ele>
        <time>2026-08-12T05:21:10Z</time>
        <speed>0.0</speed>
      </trkpt>
      <trkpt lat="29.379196" lon="119.8698053">
        <ele>246.6</ele>
        <time>2026-08-12T05:21:54Z</time>
        <speed>1.0397389</speed>
      </trkpt>
      <trkpt lat="29.3792015" lon="119.869923">
        <ele>246.04</ele>
        <time>2026-08-12T05:22:00Z</time>
        <speed>1.6146836</speed>
      </trkpt>
      <trkpt lat="29.3791823" lon="119.8700336">
        <ele>246.2</ele>
        <time>2026-08-12T05:22:06Z</time>
        <speed>1.8895453</speed>
      </trkpt>
      <trkpt lat="29.3791781" lon="119.8701443">
        <ele>246.67</ele>
        <time>2026-08-12T05:22:14Z</time>
        <speed>1.6810827</speed>
      </trkpt>
      <trkpt lat="29.3791822" lon="119.8702659">
        <ele>247.33</ele>
        <time>2026-08-12T05:22:22Z</time>
        <speed>1.4865178</speed>
      </trkpt>
      <trkpt lat="29.3791604" lon="119.870374">
        <ele>247.7</ele>
        <time>2026-08-12T05:22:28Z</time>
        <speed>1.4777675</speed>
      </trkpt>
      <trkpt lat="29.3791099" lon="119.8704727">
        <ele>248.13</ele>
        <time>2026-08-12T05:22:34Z</time>
        <speed>1.6929214</speed>
      </trkpt>
      <trkpt lat="29.3790401" lon="119.8705558">
        <ele>248.76</ele>
        <time>2026-08-12T05:22:42Z</time>
        <speed>1.634243</speed>
      </trkpt>
      <trkpt lat="29.378993" lon="119.8706465">
        <ele>248.44</ele>
        <time>2026-08-12T05:22:50Z</time>
        <speed>1.3598961</speed>
      </trkpt>
      <trkpt lat="29.3789713" lon="119.8707486">
        <ele>247.9</ele>
        <time>2026-08-12T05:22:56Z</time>
        <speed>1.411883</speed>
      </trkpt>
      <trkpt lat="29.3789127" lon="119.8708377">
        <ele>247.52</ele>
        <time>2026-08-12T05:23:04Z</time>
        <speed>1.5354164</speed>
      </trkpt>
      <trkpt lat="29.3788641" lon="119.870934">
        <ele>246.65</ele>
        <time>2026-08-12T05:23:10Z</time>
        <speed>1.4535756</speed>
      </trkpt>
      <trkpt lat="29.378838" lon="119.8710347">
        <ele>245.42</ele>
        <time>2026-08-12T05:23:16Z</time>
        <speed>1.5441667</speed>
      </trkpt>
      <trkpt lat="29.3788177" lon="119.8711494">
        <ele>244.21</ele>
        <time>2026-08-12T05:23:26Z</time>
        <speed>1.0186353</speed>
      </trkpt>
      <trkpt lat="29.3788259" lon="119.8712725">
        <ele>243.09</ele>
        <time>2026-08-12T05:23:32Z</time>
        <speed>1.3290128</speed>
      </trkpt>
      <trkpt lat="29.3788448" lon="119.8713928">
        <ele>242.83</ele>
        <time>2026-08-12T05:23:38Z</time>
        <speed>1.8849127</speed>
      </trkpt>
      <trkpt lat="29.3788769" lon="119.8714962">
        <ele>243.12</ele>
        <time>2026-08-12T05:23:48Z</time>
        <speed>0.9120878</speed>
      </trkpt>
      <trkpt lat="29.3788984" lon="119.8715992">
        <ele>244.36</ele>
        <time>2026-08-12T05:23:56Z</time>
        <speed>1.0490038</speed>
      </trkpt>
      <trkpt lat="29.3789205" lon="119.8717228">
        <ele>245.88</ele>
        <time>2026-08-12T05:24:04Z</time>
        <speed>1.899325</speed>
      </trkpt>
      <trkpt lat="29.3789039" lon="119.8718357">
        <ele>248.04</ele>
        <time>2026-08-12T05:24:14Z</time>
        <speed>1.3418808</speed>
      </trkpt>
      <trkpt lat="29.3788754" lon="119.8719486">
        <ele>251.42</ele>
        <time>2026-08-12T05:24:24Z</time>
        <speed>1.3387924</speed>
      </trkpt>
      <trkpt lat="29.3788071" lon="119.872053">
        <ele>254.38</ele>
        <time>2026-08-12T05:24:32Z</time>
        <speed>1.2718786</speed>
      </trkpt>
      <trkpt lat="29.3787609" lon="119.8721518">
        <ele>255.85</ele>
        <time>2026-08-12T05:24:50Z</time>
        <speed>0.68766886</speed>
      </trkpt>
      <trkpt lat="29.3786747" lon="119.8722215">
        <ele>256.43</ele>
        <time>2026-08-12T05:24:58Z</time>
        <speed>1.2075384</speed>
      </trkpt>
      <trkpt lat="29.3785817" lon="119.8722773">
        <ele>256.85</ele>
        <time>2026-08-12T05:25:04Z</time>
        <speed>1.6285812</speed>
      </trkpt>
      <trkpt lat="29.3784912" lon="119.8723463">
        <ele>256.91</ele>
        <time>2026-08-12T05:25:12Z</time>
        <speed>1.5874033</speed>
      </trkpt>
      <trkpt lat="29.3784032" lon="119.8723993">
        <ele>256.61</ele>
        <time>2026-08-12T05:25:18Z</time>
        <speed>1.4901209</speed>
      </trkpt>
      <trkpt lat="29.3783144" lon="119.872448">
        <ele>256.35</ele>
        <time>2026-08-12T05:25:24Z</time>
        <speed>1.6718178</speed>
      </trkpt>
      <trkpt lat="29.3782319" lon="119.872496">
        <ele>255.98</ele>
        <time>2026-08-12T05:25:28Z</time>
        <speed>1.9044722</speed>
      </trkpt>
      <trkpt lat="29.378143" lon="119.8725608">
        <ele>255.34</ele>
        <time>2026-08-12T05:25:32Z</time>
        <speed>2.388826</speed>
      </trkpt>
      <trkpt lat="29.3780478" lon="119.8726385">
        <ele>254.21</ele>
        <time>2026-08-12T05:25:36Z</time>
        <speed>2.9025185</speed>
      </trkpt>
      <trkpt lat="29.3779755" lon="119.872744">
        <ele>252.87</ele>
        <time>2026-08-12T05:25:40Z</time>
        <speed>2.9025185</speed>
      </trkpt>
      <trkpt lat="29.3779422" lon="119.8728611">
        <ele>251.68</ele>
        <time>2026-08-12T05:25:44Z</time>
        <speed>3.1284816</speed>
      </trkpt>
      <trkpt lat="29.3779108" lon="119.8730067">
        <ele>250.96</ele>
        <time>2026-08-12T05:25:50Z</time>
        <speed>2.6394956</speed>
      </trkpt>
      <trkpt lat="29.3779" lon="119.8731508">
        <ele>251.41</ele>
        <time>2026-08-12T05:25:56Z</time>
        <speed>2.5566254</speed>
      </trkpt>
      <trkpt lat="29.3778764" lon="119.8732632">
        <ele>252.95</ele>
        <time>2026-08-12T05:26:02Z</time>
        <speed>2.0480797</speed>
      </trkpt>
      <trkpt lat="29.3778086" lon="119.873359">
        <ele>255.3</ele>
        <time>2026-08-12T05:26:10Z</time>
        <speed>1.4741645</speed>
      </trkpt>
      <trkpt lat="29.3777393" lon="119.873451">
        <ele>258.35</ele>
        <time>2026-08-12T05:26:20Z</time>
        <speed>1.1684195</speed>
      </trkpt>
      <trkpt lat="29.3777069" lon="119.8735632">
        <ele>261.56</ele>
        <time>2026-08-12T05:26:28Z</time>
        <speed>1.3418808</speed>
      </trkpt>
      <trkpt lat="29.3777117" lon="119.873571">
        <ele>263.6</ele>
        <time>2026-08-12T05:26:56Z</time>
        <speed>0.0</speed>
      </trkpt>
      <trkpt lat="29.3777175" lon="119.8736466">
        <ele>264.33</ele>
        <time>2026-08-12T05:27:48Z</time>
        <speed>0.91157305</speed>
      </trkpt>
      <trkpt lat="29.3777497" lon="119.8737398">
        <ele>264.66</ele>
        <time>2026-08-12T05:28:12Z</time>
        <speed>0.98929614</speed>
      </trkpt>
      <trkpt lat="29.3777233" lon="119.8738533">
        <ele>263.99</ele>
        <time>2026-08-12T05:29:50Z</time>
        <speed>0.48744196</speed>
      </trkpt>
      <trkpt lat="29.3776683" lon="119.8739483">
        <ele>263.09</ele>
        <time>2026-08-12T05:29:58Z</time>
        <speed>1.2152592</speed>
      </trkpt>
      <trkpt lat="29.3776021" lon="119.8740433">
        <ele>262.45</ele>
        <time>2026-08-12T05:30:06Z</time>
        <speed>1.2837173</speed>
      </trkpt>
      <trkpt lat="29.377517" lon="119.8741268">
        <ele>262.0</ele>
        <time>2026-08-12T05:30:16Z</time>
        <speed>1.1519483</speed>
      </trkpt>
      <trkpt lat="29.3774475" lon="119.874204">
        <ele>260.75</ele>
        <time>2026-08-12T05:30:22Z</time>
        <speed>1.3753377</speed>
      </trkpt>
      <trkpt lat="29.3773966" lon="119.8743083">
        <ele>259.31</ele>
        <time>2026-08-12T05:30:30Z</time>
        <speed>1.55652</speed>
      </trkpt>
      <trkpt lat="29.3773826" lon="119.8744204">
        <ele>259.09</ele>
        <time>2026-08-12T05:30:38Z</time>
        <speed>1.3310716</speed>
      </trkpt>
      <trkpt lat="29.3773371" lon="119.8745269">
        <ele>260.17</ele>
        <time>2026-08-12T05:30:50Z</time>
        <speed>0.67943335</speed>
      </trkpt>
      <trkpt lat="29.37729" lon="119.8746315">
        <ele>261.69</ele>
        <time>2026-08-12T05:30:58Z</time>
        <speed>0.9105436</speed>
      </trkpt>
      <trkpt lat="29.3772213" lon="119.8747377">
        <ele>263.41</ele>
        <time>2026-08-12T05:31:04Z</time>
        <speed>1.7387316</speed>
      </trkpt>
      <trkpt lat="29.3771651" lon="119.8748633">
        <ele>265.0</ele>
        <time>2026-08-12T05:31:12Z</time>
        <speed>1.9029281</speed>
      </trkpt>
      <trkpt lat="29.3771273" lon="119.8749695">
        <ele>266.46</ele>
        <time>2026-08-12T05:31:16Z</time>
        <speed>1.7675561</speed>
      </trkpt>
      <trkpt lat="29.3770775" lon="119.8750763">
        <ele>267.55</ele>
        <time>2026-08-12T05:31:20Z</time>
        <speed>1.9966075</speed>
      </trkpt>
      <trkpt lat="29.3770172" lon="119.8751876">
        <ele>268.09</ele>
        <time>2026-08-12T05:31:24Z</time>
        <speed>2.3594866</speed>
      </trkpt>
      <trkpt lat="29.3769695" lon="119.8753006">
        <ele>268.57</ele>
        <time>2026-08-12T05:31:30Z</time>
        <speed>2.4387538</speed>
      </trkpt>
      <trkpt lat="29.376996" lon="119.875403">
        <ele>270.04</ele>
        <time>2026-08-12T05:31:38Z</time>
        <speed>1.9096195</speed>
      </trkpt>
      <trkpt lat="29.3769929" lon="119.8755025">
        <ele>272.69</ele>
        <time>2026-08-12T05:31:50Z</time>
        <speed>0.7231847</speed>
      </trkpt>
      <trkpt lat="29.3769321" lon="119.8756078">
        <ele>276.31</ele>
        <time>2026-08-12T05:32:14Z</time>
        <speed>1.3073944</speed>
      </trkpt>
      <trkpt lat="29.3768608" lon="119.875713">
        <ele>279.02</ele>
        <time>2026-08-12T05:32:22Z</time>
        <speed>1.3043061</speed>
      </trkpt>
      <trkpt lat="29.3767949" lon="119.8758007">
        <ele>280.73</ele>
        <time>2026-08-12T05:32:30Z</time>
        <speed>0.97848696</speed>
      </trkpt>
      <trkpt lat="29.3768206" lon="119.8758843">
        <ele>282.87</ele>
        <time>2026-08-12T05:32:40Z</time>
        <speed>0.0</speed>
      </trkpt>
      <trkpt lat="29.3768743" lon="119.8759875">
        <ele>285.55</ele>
        <time>2026-08-12T05:32:50Z</time>
        <speed>0.8112022</speed>
      </trkpt>
      <trkpt lat="29.3769588" lon="119.8760509">
        <ele>288.07</ele>
        <time>2026-08-12T05:32:58Z</time>
        <speed>1.0001053</speed>
      </trkpt>
      <trkpt lat="29.3769954" lon="119.8760841">
        <ele>290.75</ele>
        <time>2026-08-12T05:33:02Z</time>
        <speed>0.0</speed>
      </trkpt>
      <trkpt lat="29.3770482" lon="119.8761682">
        <ele>293.05</ele>
        <time>2026-08-12T05:33:16Z</time>
        <speed>1.121065</speed>
      </trkpt>
      <trkpt lat="29.3771002" lon="119.8762597">
        <ele>294.06</ele>
        <time>2026-08-12T05:33:24Z</time>
        <speed>1.0335622</speed>
      </trkpt>
      <trkpt lat="29.3771649" lon="119.8763363">
        <ele>294.59</ele>
        <time>2026-08-12T05:33:32Z</time>
        <speed>0.99444336</speed>
      </trkpt>
      <trkpt lat="29.3772442" lon="119.8763949">
        <ele>295.71</ele>
        <time>2026-08-12T05:33:40Z</time>
        <speed>1.2312156</speed>
      </trkpt>
      <trkpt lat="29.3773367" lon="119.8764397">
        <ele>296.65</ele>
        <time>2026-08-12T05:33:48Z</time>
        <speed>1.0979025</speed>
      </trkpt>
      <trkpt lat="29.3773814" lon="119.8765244">
        <ele>297.53</ele>
        <time>2026-08-12T05:33:54Z</time>
        <speed>1.3480575</speed>
      </trkpt>
      <trkpt lat="29.3774098" lon="119.8766238">
        <ele>298.77</ele>
        <time>2026-08-12T05:34:02Z</time>
        <speed>1.4093094</speed>
      </trkpt>
      <trkpt lat="29.3774692" lon="119.8767195">
        <ele>300.54</ele>
        <time>2026-08-12T05:34:10Z</time>
        <speed>1.2080531</speed>
      </trkpt>
      <trkpt lat="29.377543" lon="119.8768097">
        <ele>302.25</ele>
        <time>2026-08-12T05:34:18Z</time>
        <speed>1.3784261</speed>
      </trkpt>
      <trkpt lat="29.3776139" lon="119.8768974">
        <ele>304.25</ele>
        <time>2026-08-12T05:34:26Z</time>
        <speed>1.3933531</speed>
      </trkpt>
      <trkpt lat="29.3776501" lon="119.8769941">
        <ele>305.78</ele>
        <time>2026-08-12T05:34:32Z</time>
        <speed>1.3995297</speed>
      </trkpt>
      <trkpt lat="29.3777043" lon="119.8770917">
        <ele>307.25</ele>
        <time>2026-08-12T05:34:40Z</time>
        <speed>1.5225483</speed>
      </trkpt>
      <trkpt lat="29.3777419" lon="119.8772029">
        <ele>308.43</ele>
        <time>2026-08-12T05:34:48Z</time>
        <speed>1.3748231</speed>
      </trkpt>
      <trkpt lat="29.3777944" lon="119.8773051">
        <ele>308.89</ele>
        <time>2026-08-12T05:34:56Z</time>
        <speed>1.4592375</speed>
      </trkpt>
      <trkpt lat="29.3778333" lon="119.8774181">
        <ele>308.98</ele>
        <time>2026-08-12T05:35:06Z</time>
        <speed>0.9563539</speed>
      </trkpt>
      <trkpt lat="29.3778807" lon="119.8775251">
        <ele>310.75</ele>
        <time>2026-08-12T05:35:16Z</time>
        <speed>1.1030498</speed>
      </trkpt>
      <trkpt lat="29.3779066" lon="119.8776431">
        <ele>312.19</ele>
        <time>2026-08-12T05:35:28Z</time>
        <speed>0.93988276</speed>
      </trkpt>
      <trkpt lat="29.3779432" lon="119.8777501">
        <ele>311.42</ele>
        <time>2026-08-12T05:35:36Z</time>
        <speed>1.1040791</speed>
      </trkpt>
      <trkpt lat="29.377985" lon="119.8778449">
        <ele>310.98</ele>
        <time>2026-08-12T05:35:42Z</time>
        <speed>1.124668</speed>
      </trkpt>
      <trkpt lat="29.3780147" lon="119.8779419">
        <ele>311.16</ele>
        <time>2026-08-12T05:35:52Z</time>
        <speed>0.81892306</speed>
      </trkpt>
      <trkpt lat="29.3779434" lon="119.8779441">
        <ele>313.07</ele>
        <time>2026-08-12T05:36:04Z</time>
        <speed>0.7669361</speed>
      </trkpt>
      <trkpt lat="29.3778407" lon="119.8778743">
        <ele>315.28</ele>
        <time>2026-08-12T05:36:12Z</time>
        <speed>1.3815144</speed>
      </trkpt>
      <trkpt lat="29.3777423" lon="119.8778025">
        <ele>317.52</ele>
        <time>2026-08-12T05:36:22Z</time>
        <speed>0.69847804</speed>
      </trkpt>
      <trkpt lat="29.3777117" lon="119.8778731">
        <ele>320.27</ele>
        <time>2026-08-12T05:36:46Z</time>
        <speed>0.83539414</speed>
      </trkpt>
      <trkpt lat="29.3777694" lon="119.8779632">
        <ele>325.18</ele>
        <time>2026-08-12T05:36:56Z</time>
        <speed>1.2981294</speed>
      </trkpt>
      <trkpt lat="29.3778433" lon="119.8780721">
        <ele>329.32</ele>
        <time>2026-08-12T05:37:06Z</time>
        <speed>1.1771697</speed>
      </trkpt>
      <trkpt lat="29.3779331" lon="119.8781549">
        <ele>333.61</ele>
        <time>2026-08-12T05:37:14Z</time>
        <speed>1.3017325</speed>
      </trkpt>
      <trkpt lat="29.3780371" lon="119.8782012">
        <ele>337.78</ele>
        <time>2026-08-12T05:37:22Z</time>
        <speed>1.448943</speed>
      </trkpt>
      <trkpt lat="29.3781332" lon="119.8782638">
        <ele>341.49</ele>
        <time>2026-08-12T05:37:30Z</time>
        <speed>1.4695319</speed>
      </trkpt>
      <trkpt lat="29.3781952" lon="119.8783456">
        <ele>343.64</ele>
        <time>2026-08-12T05:37:38Z</time>
        <speed>0.9959875</speed>
      </trkpt>
      <trkpt lat="29.3782177" lon="119.8784507">
        <ele>345.6</ele>
        <time>2026-08-12T05:37:46Z</time>
        <speed>0.95583916</speed>
      </trkpt>
      <trkpt lat="29.3782032" lon="119.8785796">
        <ele>347.06</ele>
        <time>2026-08-12T05:37:54Z</time>
        <speed>1.4278394</speed>
      </trkpt>
      <trkpt lat="29.3781595" lon="119.8786979">
        <ele>347.6</ele>
        <time>2026-08-12T05:38:02Z</time>
        <speed>1.2054795</speed>
      </trkpt>
      <trkpt lat="29.3782213" lon="119.8787675">
        <ele>347.68</ele>
        <time>2026-08-12T05:38:12Z</time>
        <speed>0.7762011</speed>
      </trkpt>
      <trkpt lat="29.3783239" lon="119.8788086">
        <ele>349.2</ele>
        <time>2026-08-12T05:38:20Z</time>
        <speed>1.1540072</speed>
      </trkpt>
      <trkpt lat="29.3783874" lon="119.8788955">
        <ele>350.4</ele>
        <time>2026-08-12T05:38:28Z</time>
        <speed>1.2801142</speed>
      </trkpt>
      <trkpt lat="29.3784712" lon="119.8789568">
        <ele>351.22</ele>
        <time>2026-08-12T05:38:36Z</time>
        <speed>1.1668752</speed>
      </trkpt>
      <trkpt lat="29.3785446" lon="119.8790354">
        <ele>352.03</ele>
        <time>2026-08-12T05:38:44Z</time>
        <speed>1.2512897</speed>
      </trkpt>
      <trkpt lat="29.3785279" lon="119.8791361">
        <ele>352.49</ele>
        <time>2026-08-12T05:38:54Z</time>
        <speed>0.7623036</speed>
      </trkpt>
      <trkpt lat="29.378477" lon="119.8792444">
        <ele>353.35</ele>
        <time>2026-08-12T05:39:02Z</time>
        <speed>1.0438566</speed>
      </trkpt>
      <trkpt lat="29.3784298" lon="119.8793628">
        <ele>354.15</ele>
        <time>2026-08-12T05:39:10Z</time>
        <speed>1.2116561</speed>
      </trkpt>
      <trkpt lat="29.3784034" lon="119.879485">
        <ele>355.07</ele>
        <time>2026-08-12T05:39:18Z</time>
        <speed>1.191582</speed>
      </trkpt>
      <trkpt lat="29.3783567" lon="119.879596">
        <ele>356.25</ele>
        <time>2026-08-12T05:39:26Z</time>
        <speed>1.4216628</speed>
      </trkpt>
      <trkpt lat="29.378319" lon="119.8797046">
        <ele>357.0</ele>
        <time>2026-08-12T05:39:34Z</time>
        <speed>1.4576933</speed>
      </trkpt>
      <trkpt lat="29.3783269" lon="119.8798251">
        <ele>356.74</ele>
        <time>2026-08-12T05:39:44Z</time>
        <speed>1.1190062</speed>
      </trkpt>
      <trkpt lat="29.3783366" lon="119.8799401">
        <ele>355.91</ele>
        <time>2026-08-12T05:39:52Z</time>
        <speed>1.1895231</speed>
      </trkpt>
      <trkpt lat="29.3783708" lon="119.8800513">
        <ele>355.6</ele>
        <time>2026-08-12T05:40:02Z</time>
        <speed>0.9846636</speed>
      </trkpt>
      <trkpt lat="29.3784175" lon="119.8801549">
        <ele>357.02</ele>
        <time>2026-08-12T05:40:10Z</time>
        <speed>1.0026789</speed>
      </trkpt>
      <trkpt lat="29.3784818" lon="119.8802371">
        <ele>359.12</ele>
        <time>2026-08-12T05:40:30Z</time>
        <speed>0.42516056</speed>
      </trkpt>
      <trkpt lat="29.3785457" lon="119.8803158">
        <ele>361.82</ele>
        <time>2026-08-12T05:40:44Z</time>
        <speed>1.228642</speed>
      </trkpt>
      <trkpt lat="29.37862" lon="119.8803934">
        <ele>363.32</ele>
        <time>2026-08-12T05:40:52Z</time>
        <speed>1.330557</speed>
      </trkpt>
      <trkpt lat="29.3786747" lon="119.8804792">
        <ele>364.13</ele>
        <time>2026-08-12T05:41:06Z</time>
        <speed>0.6789186</speed>
      </trkpt>
      <trkpt lat="29.3787017" lon="119.88058">
        <ele>366.44</ele>
        <time>2026-08-12T05:42:18Z</time>
        <speed>0.3917036</speed>
      </trkpt>
      <trkpt lat="29.37878" lon="119.88066">
        <ele>367.58</ele>
        <time>2026-08-12T05:43:32Z</time>
        <speed>0.45655861</speed>
      </trkpt>
      <trkpt lat="29.37887" lon="119.8805917">
        <ele>367.63</ele>
        <time>2026-08-12T05:43:56Z</time>
        <speed>0.47457388</speed>
      </trkpt>
      <trkpt lat="29.3789558" lon="119.8806192">
        <ele>367.23</ele>
        <time>2026-08-12T05:44:48Z</time>
        <speed>0.38913</speed>
      </trkpt>
      <trkpt lat="29.3789558" lon="119.8806192">
        <ele>367.23</ele>
        <time>2026-08-12T05:45:26Z</time>
        <speed>0.38913</speed>
      </trkpt>
      <extensions>
        <PauseTimes>1786513526000:pause</PauseTimes>
      </extensions>
    </trkseg>
  </trk>
  <trk>
    <trkseg>
      <trkpt lat="29.378865" lon="119.8806567">
        <ele>364.16</ele>
        <time>2026-08-12T05:55:19Z</time>
        <speed>0.25839055</speed>
      </trkpt>
      <trkpt lat="29.378865" lon="119.8806567">
        <ele>364.16</ele>
        <time>2026-08-12T05:55:28Z</time>
        <speed>0.25839055</speed>
      </trkpt>
      <trkpt lat="29.3787767" lon="119.88069">
        <ele>362.93</ele>
        <time>2026-08-12T05:56:04Z</time>
        <speed>0.5301639</speed>
      </trkpt>
      <trkpt lat="29.3786996" lon="119.8806359">
        <ele>364.42</ele>
        <time>2026-08-12T05:56:14Z</time>
        <speed>0.7391411</speed>
      </trkpt>
      <trkpt lat="29.3786606" lon="119.8805277">
        <ele>366.18</ele>
        <time>2026-08-12T05:56:40Z</time>
        <speed>0.5656797</speed>
      </trkpt>
      <trkpt lat="29.3786197" lon="119.8804135">
        <ele>367.91</ele>
        <time>2026-08-12T05:56:46Z</time>
        <speed>1.4401928</speed>
      </trkpt>
      <trkpt lat="29.3786081" lon="119.8803549">
        <ele>368.68</ele>
        <time>2026-08-12T05:57:04Z</time>
        <speed>0.0</speed>
      </trkpt>
      <trkpt lat="29.3785412" lon="119.8803032">
        <ele>368.73</ele>
        <time>2026-08-12T05:57:18Z</time>
        <speed>0.8528947</speed>
      </trkpt>
      <trkpt lat="29.3785031" lon="119.8802101">
        <ele>369.32</ele>
        <time>2026-08-12T05:58:08Z</time>
        <speed>0.5461203</speed>
      </trkpt>
      <trkpt lat="29.3785625" lon="119.8801646">
        <ele>366.73</ele>
        <time>2026-08-12T05:58:58Z</time>
        <speed>0.35361418</speed>
      </trkpt>
      <trkpt lat="29.3786406" lon="119.8802308">
        <ele>363.41</ele>
        <time>2026-08-12T05:59:12Z</time>
        <speed>0.9779722</speed>
      </trkpt>
      <trkpt lat="29.3787563" lon="119.8802949">
        <ele>361.04</ele>
        <time>2026-08-12T05:59:54Z</time>
        <speed>0.42207223</speed>
      </trkpt>
      <trkpt lat="29.3788379" lon="119.8803861">
        <ele>360.29</ele>
        <time>2026-08-12T06:00:04Z</time>
        <speed>0.66862416</speed>
      </trkpt>
      <trkpt lat="29.3788964" lon="119.8804849">
        <ele>359.48</ele>
        <time>2026-08-12T06:00:18Z</time>
        <speed>0.55692947</speed>
      </trkpt>
      <trkpt lat="29.3789817" lon="119.8804417">
        <ele>358.11</ele>
        <time>2026-08-12T06:01:48Z</time>
        <speed>0.0</speed>
      </trkpt>
      <trkpt lat="29.3788933" lon="119.8804133">
        <ele>355.52</ele>
        <time>2026-08-12T06:02:12Z</time>
        <speed>0.0</speed>
      </trkpt>
      <trkpt lat="29.37898" lon="119.8804567">
        <ele>354.57</ele>
        <time>2026-08-12T06:05:46Z</time>
        <speed>0.40920416</speed>
      </trkpt>
      <trkpt lat="29.37889" lon="119.8804433">
        <ele>354.15</ele>
        <time>2026-08-12T06:06:42Z</time>
        <speed>0.0</speed>
      </trkpt>
      <trkpt lat="29.3788508" lon="119.8803553">
        <ele>354.26</ele>
        <time>2026-08-12T06:06:56Z</time>
        <speed>0.0</speed>
      </trkpt>
      <trkpt lat="29.3788926" lon="119.8803942">
        <ele>354.15</ele>
        <time>2026-08-12T06:07:18Z</time>
        <speed>0.0</speed>
      </trkpt>
      <trkpt lat="29.3788822" lon="119.8804824">
        <ele>352.06</ele>
        <time>2026-08-12T06:07:56Z</time>
        <speed>0.0</speed>
      </trkpt>
      <trkpt lat="29.3788462" lon="119.8804406">
        <ele>351.82</ele>
        <time>2026-08-12T06:08:36Z</time>
        <speed>0.8034814</speed>
      </trkpt>
      <trkpt lat="29.3787994" lon="119.880341">
        <ele>352.54</ele>
        <time>2026-08-12T06:08:48Z</time>
        <speed>0.87142473</speed>
      </trkpt>
      <trkpt lat="29.3788364" lon="119.8802396">
        <ele>353.99</ele>
        <time>2026-08-12T06:09:22Z</time>
        <speed>0.4822947</speed>
      </trkpt>
      <trkpt lat="29.3789128" lon="119.8802494">
        <ele>354.55</ele>
        <time>2026-08-12T06:09:40Z</time>
        <speed>0.63259363</speed>
      </trkpt>
      <trkpt lat="29.3789834" lon="119.8803303">
        <ele>353.71</ele>
        <time>2026-08-12T06:10:12Z</time>
        <speed>0.0</speed>
      </trkpt>
      <trkpt lat="29.3789336" lon="119.8803388">
        <ele>352.89</ele>
        <time>2026-08-12T06:10:32Z</time>
        <speed>0.6197256</speed>
      </trkpt>
      <trkpt lat="29.3789094" lon="119.8802481">
        <ele>353.11</ele>
        <time>2026-08-12T06:10:42Z</time>
        <speed>0.7993636</speed>
      </trkpt>
      <trkpt lat="29.37885" lon="119.8801167">
        <ele>353.54</ele>
        <time>2026-08-12T06:12:52Z</time>
        <speed>0.22133055</speed>
      </trkpt>
      <trkpt lat="29.3788967" lon="119.8800233">
        <ele>351.84</ele>
        <time>2026-08-12T06:14:10Z</time>
        <speed>0.0</speed>
      </trkpt>
      <trkpt lat="29.3789933" lon="119.8800083">
        <ele>347.57</ele>
        <time>2026-08-12T06:16:12Z</time>
        <speed>0.4514114</speed>
      </trkpt>
      <trkpt lat="29.3789033" lon="119.8800317">
        <ele>346.29</ele>
        <time>2026-08-12T06:18:10Z</time>
        <speed>0.4864125</speed>
      </trkpt>
      <trkpt lat="29.3789467" lon="119.8799233">
        <ele>345.3</ele>
        <time>2026-08-12T06:19:38Z</time>
        <speed>0.0</speed>
      </trkpt>
      <trkpt lat="29.37895" lon="119.880055">
        <ele>342.21</ele>
        <time>2026-08-12T06:20:06Z</time>
        <speed>1.3696759</speed>
      </trkpt>
      <trkpt lat="29.3789364" lon="119.880064">
        <ele>341.73</ele>
        <time>2026-08-12T06:20:12Z</time>
        <speed>0.0</speed>
      </trkpt>
      <trkpt lat="29.3790227" lon="119.8800525">
        <ele>342.41</ele>
        <time>2026-08-12T06:20:26Z</time>
        <speed>0.6809775</speed>
      </trkpt>
      <trkpt lat="29.378986" lon="119.8800253">
        <ele>346.19</ele>
        <time>2026-08-12T06:20:34Z</time>
        <speed>0.0</speed>
      </trkpt>
      <trkpt lat="29.37885" lon="119.88006">
        <ele>349.25</ele>
        <time>2026-08-12T06:21:34Z</time>
        <speed>0.0</speed>
      </trkpt>
      <trkpt lat="29.3788833" lon="119.8801583">
        <ele>348.11</ele>
        <time>2026-08-12T06:23:02Z</time>
        <speed>0.0</speed>
      </trkpt>
      <trkpt lat="29.3788467" lon="119.8802533">
        <ele>347.55</ele>
        <time>2026-08-12T06:23:36Z</time>
        <speed>0.3633939</speed>
      </trkpt>
      <trkpt lat="29.3787959" lon="119.8803413">
        <ele>348.52</ele>
        <time>2026-08-12T06:23:54Z</time>
        <speed>0.6423733</speed>
      </trkpt>
      <trkpt lat="29.3787169" lon="119.8803354">
        <ele>352.6</ele>
        <time>2026-08-12T06:24:22Z</time>
        <speed>0.0</speed>
      </trkpt>
      <trkpt lat="29.3786378" lon="119.8802737">
        <ele>357.2</ele>
        <time>2026-08-12T06:24:44Z</time>
        <speed>0.70053697</speed>
      </trkpt>
      <trkpt lat="29.3785497" lon="119.8801812">
        <ele>361.11</ele>
        <time>2026-08-12T06:24:56Z</time>
        <speed>0.87966025</speed>
      </trkpt>
      <trkpt lat="29.3784541" lon="119.8801114">
        <ele>363.04</ele>
        <time>2026-08-12T06:25:04Z</time>
        <speed>1.1818023</speed>
      </trkpt>
      <trkpt lat="29.3783895" lon="119.8800173">
        <ele>363.15</ele>
        <time>2026-08-12T06:25:14Z</time>
        <speed>1.274967</speed>
      </trkpt>
      <trkpt lat="29.3783422" lon="119.8798982">
        <ele>363.35</ele>
        <time>2026-08-12T06:25:24Z</time>
        <speed>1.0206941</speed>
      </trkpt>
      <trkpt lat="29.3783287" lon="119.8797706">
        <ele>363.03</ele>
        <time>2026-08-12T06:25:32Z</time>
        <speed>1.3140858</speed>
      </trkpt>
      <trkpt lat="29.3783311" lon="119.8796388">
        <ele>362.5</ele>
        <time>2026-08-12T06:25:42Z</time>
        <speed>1.2456278</speed>
      </trkpt>
      <trkpt lat="29.3783817" lon="119.8795146">
        <ele>361.34</ele>
        <time>2026-08-12T06:25:50Z</time>
        <speed>1.191582</speed>
      </trkpt>
      <trkpt lat="29.3784113" lon="119.8793843">
        <ele>361.58</ele>
        <time>2026-08-12T06:25:58Z</time>
        <speed>1.2240094</speed>
      </trkpt>
      <trkpt lat="29.3784393" lon="119.8792683">
        <ele>362.71</ele>
        <time>2026-08-12T06:26:04Z</time>
        <speed>1.2270977</speed>
      </trkpt>
      <trkpt lat="29.3784772" lon="119.8791455">
        <ele>363.05</ele>
        <time>2026-08-12T06:26:12Z</time>
        <speed>1.3717347</speed>
      </trkpt>
      <trkpt lat="29.3785245" lon="119.8790409">
        <ele>362.64</ele>
        <time>2026-08-12T06:26:22Z</time>
        <speed>0.954295</speed>
      </trkpt>
      <trkpt lat="29.3784894" lon="119.8789543">
        <ele>362.06</ele>
        <time>2026-08-12T06:26:30Z</time>
        <speed>1.2327597</speed>
      </trkpt>
      <trkpt lat="29.3784144" lon="119.8788871">
        <ele>361.61</ele>
        <time>2026-08-12T06:26:36Z</time>
        <speed>1.3943825</speed>
      </trkpt>
      <trkpt lat="29.3783403" lon="119.8788017">
        <ele>361.26</ele>
        <time>2026-08-12T06:26:44Z</time>
        <speed>1.3995297</speed>
      </trkpt>
      <trkpt lat="29.3782482" lon="119.8787442">
        <ele>360.46</ele>
        <time>2026-08-12T06:26:50Z</time>
        <speed>1.42681</speed>
      </trkpt>
      <trkpt lat="29.378138" lon="119.878698">
        <ele>359.23</ele>
        <time>2026-08-12T06:26:58Z</time>
        <speed>1.1591544</speed>
      </trkpt>
      <trkpt lat="29.3781248" lon="119.8785907">
        <ele>357.71</ele>
        <time>2026-08-12T06:27:06Z</time>
        <speed>1.2811437</speed>
      </trkpt>
      <trkpt lat="29.3781442" lon="119.8784695">
        <ele>356.11</ele>
        <time>2026-08-12T06:27:14Z</time>
        <speed>1.0361358</speed>
      </trkpt>
      <trkpt lat="29.3781187" lon="119.8783522">
        <ele>354.34</ele>
        <time>2026-08-12T06:27:24Z</time>
        <speed>1.0917258</speed>
      </trkpt>
      <trkpt lat="29.3780553" lon="119.878256">
        <ele>351.36</ele>
        <time>2026-08-12T06:27:32Z</time>
        <speed>1.3228362</speed>
      </trkpt>
      <trkpt lat="29.3779521" lon="119.8782159">
        <ele>349.4</ele>
        <time>2026-08-12T06:27:40Z</time>
        <speed>1.3403367</speed>
      </trkpt>
      <trkpt lat="29.3778579" lon="119.8781331">
        <ele>348.02</ele>
        <time>2026-08-12T06:27:50Z</time>
        <speed>1.2559222</speed>
      </trkpt>
      <trkpt lat="29.3777916" lon="119.8780288">
        <ele>347.84</ele>
        <time>2026-08-12T06:27:56Z</time>
        <speed>1.5590936</speed>
      </trkpt>
      <trkpt lat="29.3777443" lon="119.8779234">
        <ele>347.82</ele>
        <time>2026-08-12T06:28:02Z</time>
        <speed>1.6661558</speed>
      </trkpt>
      <trkpt lat="29.3777082" lon="119.8778215">
        <ele>347.73</ele>
        <time>2026-08-12T06:28:10Z</time>
        <speed>1.2255536</speed>
      </trkpt>
      <trkpt lat="29.3777836" lon="119.8778107">
        <ele>346.55</ele>
        <time>2026-08-12T06:28:30Z</time>
        <speed>0.98414886</speed>
      </trkpt>
      <trkpt lat="29.3778958" lon="119.8778121">
        <ele>342.92</ele>
        <time>2026-08-12T06:28:38Z</time>
        <speed>1.0979025</speed>
      </trkpt>
      <trkpt lat="29.377932" lon="119.8777342">
        <ele>340.24</ele>
        <time>2026-08-12T06:28:44Z</time>
        <speed>0.88995475</speed>
      </trkpt>
      <trkpt lat="29.3779135" lon="119.8776241">
        <ele>337.86</ele>
        <time>2026-08-12T06:28:48Z</time>
        <speed>1.1519483</speed>
      </trkpt>
      <trkpt lat="29.3778636" lon="119.877496">
        <ele>335.64</ele>
        <time>2026-08-12T06:28:54Z</time>
        <speed>1.5076214</speed>
      </trkpt>
      <trkpt lat="29.3778109" lon="119.8773884">
        <ele>332.18</ele>
        <time>2026-08-12T06:28:58Z</time>
        <speed>1.5642408</speed>
      </trkpt>
      <trkpt lat="29.3777596" lon="119.8772797">
        <ele>328.53</ele>
        <time>2026-08-12T06:29:02Z</time>
        <speed>1.7799095</speed>
      </trkpt>
      <trkpt lat="29.3776857" lon="119.8771682">
        <ele>325.12</ele>
        <time>2026-08-12T06:29:08Z</time>
        <speed>1.6532878</speed>
      </trkpt>
      <trkpt lat="29.377626" lon="119.8770473">
        <ele>321.28</ele>
        <time>2026-08-12T06:29:16Z</time>
        <speed>1.3753377</speed>
      </trkpt>
      <trkpt lat="29.3775808" lon="119.8769182">
        <ele>317.25</ele>
        <time>2026-08-12T06:29:22Z</time>
        <speed>1.6043892</speed>
      </trkpt>
      <trkpt lat="29.3775147" lon="119.8768042">
        <ele>314.39</ele>
        <time>2026-08-12T06:29:30Z</time>
        <speed>1.5925505</speed>
      </trkpt>
      <trkpt lat="29.3774302" lon="119.8767154">
        <ele>312.2</ele>
        <time>2026-08-12T06:29:36Z</time>
        <speed>1.7413052</speed>
      </trkpt>
      <trkpt lat="29.3773749" lon="119.8766028">
        <ele>310.61</ele>
        <time>2026-08-12T06:29:42Z</time>
        <speed>1.6563761</speed>
      </trkpt>
      <trkpt lat="29.3773366" lon="119.8764824">
        <ele>309.62</ele>
        <time>2026-08-12T06:29:48Z</time>
        <speed>1.5915211</speed>
      </trkpt>
      <trkpt lat="29.3772462" lon="119.8764109">
        <ele>309.22</ele>
        <time>2026-08-12T06:29:56Z</time>
        <speed>1.3948972</speed>
      </trkpt>
      <trkpt lat="29.3771553" lon="119.8763418">
        <ele>309.34</ele>
        <time>2026-08-12T06:30:02Z</time>
        <speed>1.2976147</speed>
      </trkpt>
      <trkpt lat="29.3770789" lon="119.8762436">
        <ele>309.84</ele>
        <time>2026-08-12T06:30:08Z</time>
        <speed>1.300703</speed>
      </trkpt>
      <trkpt lat="29.377014" lon="119.8761372">
        <ele>310.64</ele>
        <time>2026-08-12T06:30:16Z</time>
        <speed>1.4772527</speed>
      </trkpt>
      <trkpt lat="29.3769605" lon="119.8760449">
        <ele>311.74</ele>
        <time>2026-08-12T06:30:22Z</time>
        <speed>1.4865178</speed>
      </trkpt>
      <trkpt lat="29.3769031" lon="119.8759587">
        <ele>312.93</ele>
        <time>2026-08-12T06:30:30Z</time>
        <speed>1.3856323</speed>
      </trkpt>
      <trkpt lat="29.3768507" lon="119.8758695">
        <ele>315.07</ele>
        <time>2026-08-12T06:30:36Z</time>
        <speed>1.31563</speed>
      </trkpt>
      <trkpt lat="29.3767847" lon="119.8757673">
        <ele>316.76</ele>
        <time>2026-08-12T06:30:44Z</time>
        <speed>1.3892353</speed>
      </trkpt>
      <trkpt lat="29.3767773" lon="119.8756591">
        <ele>317.98</ele>
        <time>2026-08-12T06:30:54Z</time>
        <speed>1.2754817</speed>
      </trkpt>
      <trkpt lat="29.3768305" lon="119.8755531">
        <ele>317.21</ele>
        <time>2026-08-12T06:31:02Z</time>
        <speed>1.3315864</speed>
      </trkpt>
      <trkpt lat="29.3768955" lon="119.8754586">
        <ele>314.63</ele>
        <time>2026-08-12T06:31:10Z</time>
        <speed>1.3408514</speed>
      </trkpt>
      <trkpt lat="29.3769598" lon="119.8754062">
        <ele>310.31</ele>
        <time>2026-08-12T06:31:22Z</time>
        <speed>0.0</speed>
      </trkpt>
      <trkpt lat="29.3769957" lon="119.8753072">
        <ele>304.67</ele>
        <time>2026-08-12T06:31:42Z</time>
        <speed>0.7700244</speed>
      </trkpt>
      <trkpt lat="29.3769982" lon="119.8752011">
        <ele>298.83</ele>
        <time>2026-08-12T06:31:48Z</time>
        <speed>1.1818023</speed>
      </trkpt>
      <trkpt lat="29.3770405" lon="119.8751075">
        <ele>294.6</ele>
        <time>2026-08-12T06:31:56Z</time>
        <speed>1.228642</speed>
      </trkpt>
      <trkpt lat="29.3770958" lon="119.8750044">
        <ele>290.99</ele>
        <time>2026-08-12T06:32:04Z</time>
        <speed>1.0479745</speed>
      </trkpt>
      <trkpt lat="29.3771347" lon="119.8748864">
        <ele>288.37</ele>
        <time>2026-08-12T06:32:12Z</time>
        <speed>1.2667314</speed>
      </trkpt>
      <trkpt lat="29.3771727" lon="119.8747671">
        <ele>286.75</ele>
        <time>2026-08-12T06:32:20Z</time>
        <speed>1.3737936</speed>
      </trkpt>
      <trkpt lat="29.3772194" lon="119.874656">
        <ele>285.91</ele>
        <time>2026-08-12T06:32:28Z</time>
        <speed>1.2847466</speed>
      </trkpt>
      <trkpt lat="29.3772706" lon="119.8745647">
        <ele>285.43</ele>
        <time>2026-08-12T06:32:34Z</time>
        <speed>1.2888645</speed>
      </trkpt>
      <trkpt lat="29.3773269" lon="119.8744656">
        <ele>285.12</ele>
        <time>2026-08-12T06:32:42Z</time>
        <speed>1.5235778</speed>
      </trkpt>
      <trkpt lat="29.3773658" lon="119.8743574">
        <ele>284.34</ele>
        <time>2026-08-12T06:32:50Z</time>
        <speed>1.35269</speed>
      </trkpt>
      <trkpt lat="29.3773815" lon="119.8742433">
        <ele>283.12</ele>
        <time>2026-08-12T06:32:58Z</time>
        <speed>1.2301861</speed>
      </trkpt>
      <trkpt lat="29.3774358" lon="119.8741386">
        <ele>281.73</ele>
        <time>2026-08-12T06:33:06Z</time>
        <speed>1.0922406</speed>
      </trkpt>
      <trkpt lat="29.3775133" lon="119.8740417">
        <ele>280.51</ele>
        <time>2026-08-12T06:33:14Z</time>
        <speed>1.1632723</speed>
      </trkpt>
      <trkpt lat="29.3775918" lon="119.8739511">
        <ele>280.25</ele>
        <time>2026-08-12T06:33:24Z</time>
        <speed>1.3073944</speed>
      </trkpt>
      <trkpt lat="29.3776487" lon="119.8738599">
        <ele>279.88</ele>
        <time>2026-08-12T06:33:32Z</time>
        <speed>1.3645287</speed>
      </trkpt>
      <trkpt lat="29.3777091" lon="119.8737802">
        <ele>279.76</ele>
        <time>2026-08-12T06:33:52Z</time>
        <speed>1.2559222</speed>
      </trkpt>
      <trkpt lat="29.3777214" lon="119.8736694">
        <ele>279.35</ele>
        <time>2026-08-12T06:34:00Z</time>
        <speed>1.2765111</speed>
      </trkpt>
      <trkpt lat="29.3777061" lon="119.8735552">
        <ele>278.38</ele>
        <time>2026-08-12T06:34:06Z</time>
        <speed>1.714025</speed>
      </trkpt>
      <trkpt lat="29.3777073" lon="119.8734323">
        <ele>277.87</ele>
        <time>2026-08-12T06:34:14Z</time>
        <speed>1.7670414</speed>
      </trkpt>
      <trkpt lat="29.3777626" lon="119.8733259">
        <ele>276.9</ele>
        <time>2026-08-12T06:34:22Z</time>
        <speed>1.7763064</speed>
      </trkpt>
      <trkpt lat="29.3778432" lon="119.8732226">
        <ele>273.46</ele>
        <time>2026-08-12T06:34:30Z</time>
        <speed>1.6980686</speed>
      </trkpt>
      <trkpt lat="29.3778992" lon="119.8731264">
        <ele>270.59</ele>
        <time>2026-08-12T06:34:36Z</time>
        <speed>1.6496847</speed>
      </trkpt>
      <trkpt lat="29.3779385" lon="119.8730286">
        <ele>268.4</ele>
        <time>2026-08-12T06:34:42Z</time>
        <speed>1.8113075</speed>
      </trkpt>
      <trkpt lat="29.3779577" lon="119.8728971">
        <ele>266.85</ele>
        <time>2026-08-12T06:34:50Z</time>
        <speed>1.6625528</speed>
      </trkpt>
      <trkpt lat="29.3779667" lon="119.8727818">
        <ele>266.27</ele>
        <time>2026-08-12T06:34:56Z</time>
        <speed>1.717628</speed>
      </trkpt>
      <trkpt lat="29.3780098" lon="119.8726717">
        <ele>265.68</ele>
        <time>2026-08-12T06:35:04Z</time>
        <speed>1.6476258</speed>
      </trkpt>
      <trkpt lat="29.3780881" lon="119.872581">
        <ele>265.43</ele>
        <time>2026-08-12T06:35:12Z</time>
        <speed>1.6687294</speed>
      </trkpt>
      <trkpt lat="29.378178" lon="119.872506">
        <ele>264.26</ele>
        <time>2026-08-12T06:35:20Z</time>
        <speed>1.513798</speed>
      </trkpt>
      <trkpt lat="29.378266" lon="119.8724341">
        <ele>262.94</ele>
        <time>2026-08-12T06:35:28Z</time>
        <speed>1.4623258</speed>
      </trkpt>
      <trkpt lat="29.37836" lon="119.8723582">
        <ele>261.07</ele>
        <time>2026-08-12T06:35:36Z</time>
        <speed>1.5014447</speed>
      </trkpt>
      <trkpt lat="29.3784628" lon="119.8722949">
        <ele>258.98</ele>
        <time>2026-08-12T06:35:44Z</time>
        <speed>1.5765941</speed>
      </trkpt>
      <trkpt lat="29.3785617" lon="119.8722434">
        <ele>257.27</ele>
        <time>2026-08-12T06:35:52Z</time>
        <speed>1.3727641</speed>
      </trkpt>
      <trkpt lat="29.3786532" lon="119.8721665">
        <ele>255.78</ele>
        <time>2026-08-12T06:36:00Z</time>
        <speed>1.2631283</speed>
      </trkpt>
      <trkpt lat="29.3787543" lon="119.8721094">
        <ele>255.74</ele>
        <time>2026-08-12T06:36:06Z</time>
        <speed>2.1885989</speed>
      </trkpt>
      <trkpt lat="29.3788291" lon="119.8720302">
        <ele>255.68</ele>
        <time>2026-08-12T06:36:16Z</time>
        <speed>1.1329036</speed>
      </trkpt>
      <trkpt lat="29.3788639" lon="119.8719235">
        <ele>254.44</ele>
        <time>2026-08-12T06:36:22Z</time>
        <speed>1.5760795</speed>
      </trkpt>
      <trkpt lat="29.3788953" lon="119.8718127">
        <ele>253.52</ele>
        <time>2026-08-12T06:36:30Z</time>
        <speed>1.5204895</speed>
      </trkpt>
      <trkpt lat="29.378907" lon="119.871686">
        <ele>253.47</ele>
        <time>2026-08-12T06:36:36Z</time>
        <speed>1.8179989</speed>
      </trkpt>
      <trkpt lat="29.3788894" lon="119.8715635">
        <ele>254.34</ele>
        <time>2026-08-12T06:36:43Z</time>
        <speed>1.59358</speed>
      </trkpt>
      <trkpt lat="29.3788606" lon="119.8714442">
        <ele>254.45</ele>
        <time>2026-08-12T06:36:51Z</time>
        <speed>1.4530609</speed>
      </trkpt>
      <trkpt lat="29.3788478" lon="119.8713328">
        <ele>254.13</ele>
        <time>2026-08-12T06:36:57Z</time>
        <speed>1.5421078</speed>
      </trkpt>
      <trkpt lat="29.3788292" lon="119.8712283">
        <ele>253.56</ele>
        <time>2026-08-12T06:37:03Z</time>
        <speed>1.6759355</speed>
      </trkpt>
      <trkpt lat="29.3788087" lon="119.8711095">
        <ele>252.54</ele>
        <time>2026-08-12T06:37:11Z</time>
        <speed>1.4329866</speed>
      </trkpt>
      <trkpt lat="29.3788179" lon="119.8709863">
        <ele>250.59</ele>
        <time>2026-08-12T06:37:19Z</time>
        <speed>1.3707052</speed>
      </trkpt>
      <trkpt lat="29.3788633" lon="119.870887">
        <ele>248.79</ele>
        <time>2026-08-12T06:37:25Z</time>
        <speed>1.44534</speed>
      </trkpt>
      <trkpt lat="29.3789131" lon="119.8707857">
        <ele>247.85</ele>
        <time>2026-08-12T06:37:33Z</time>
        <speed>1.4160008</speed>
      </trkpt>
      <trkpt lat="29.3789716" lon="119.8706775">
        <ele>247.01</ele>
        <time>2026-08-12T06:37:41Z</time>
        <speed>1.2852614</speed>
      </trkpt>
      <trkpt lat="29.3790004" lon="119.8705677">
        <ele>246.66</ele>
        <time>2026-08-12T06:37:47Z</time>
        <speed>1.5796825</speed>
      </trkpt>
      <trkpt lat="29.379047" lon="119.8704749">
        <ele>245.13</ele>
        <time>2026-08-12T06:37:55Z</time>
        <speed>1.4721055</speed>
      </trkpt>
      <trkpt lat="29.3791035" lon="119.8703898">
        <ele>244.0</ele>
        <time>2026-08-12T06:38:01Z</time>
        <speed>1.6311548</speed>
      </trkpt>
      <trkpt lat="29.3791029" lon="119.8702915">
        <ele>244.52</ele>
        <time>2026-08-12T06:38:11Z</time>
        <speed>1.6301253</speed>
      </trkpt>
      <trkpt lat="29.3791447" lon="119.8701927">
        <ele>245.15</ele>
        <time>2026-08-12T06:38:21Z</time>
        <speed>1.7145398</speed>
      </trkpt>
      <trkpt lat="29.3791782" lon="119.8700901">
        <ele>244.79</ele>
        <time>2026-08-12T06:38:29Z</time>
        <speed>1.6723325</speed>
      </trkpt>
      <trkpt lat="29.3792054" lon="119.8699738">
        <ele>244.71</ele>
        <time>2026-08-12T06:38:37Z</time>
        <speed>1.57505</speed>
      </trkpt>
      <trkpt lat="29.3792127" lon="119.8698578">
        <ele>245.26</ele>
        <time>2026-08-12T06:38:45Z</time>
        <speed>1.4376192</speed>
      </trkpt>
      <trkpt lat="29.3792068" lon="119.8697378">
        <ele>245.88</ele>
        <time>2026-08-12T06:38:53Z</time>
        <speed>1.4355602</speed>
      </trkpt>
      <trkpt lat="29.3792023" lon="119.8696206">
        <ele>246.23</ele>
        <time>2026-08-12T06:39:01Z</time>
        <speed>1.2373922</speed>
      </trkpt>
      <trkpt lat="29.3791923" lon="119.8695023">
        <ele>246.61</ele>
        <time>2026-08-12T06:39:07Z</time>
        <speed>1.8787361</speed>
      </trkpt>
      <trkpt lat="29.3791809" lon="119.86938">
        <ele>247.08</ele>
        <time>2026-08-12T06:39:13Z</time>
        <speed>2.1175673</speed>
      </trkpt>
      <trkpt lat="29.3791709" lon="119.8692651">
        <ele>247.56</ele>
        <time>2026-08-12T06:39:23Z</time>
        <speed>1.6018156</speed>
      </trkpt>
      <trkpt lat="29.3791756" lon="119.8691594">
        <ele>246.5</ele>
        <time>2026-08-12T06:39:31Z</time>
        <speed>1.1869495</speed>
      </trkpt>
      <trkpt lat="29.3792134" lon="119.8690431">
        <ele>246.33</ele>
        <time>2026-08-12T06:39:39Z</time>
        <speed>1.3233508</speed>
      </trkpt>
      <trkpt lat="29.3792751" lon="119.8689411">
        <ele>246.7</ele>
        <time>2026-08-12T06:39:49Z</time>
        <speed>1.1272416</speed>
      </trkpt>
      <trkpt lat="29.3793107" lon="119.8688382">
        <ele>245.24</ele>
        <time>2026-08-12T06:39:55Z</time>
        <speed>1.3243803</speed>
      </trkpt>
      <trkpt lat="29.3792742" lon="119.8687394">
        <ele>244.1</ele>
        <time>2026-08-12T06:40:03Z</time>
        <speed>1.4628406</speed>
      </trkpt>
      <trkpt lat="29.3792466" lon="119.8686154">
        <ele>243.67</ele>
        <time>2026-08-12T06:40:13Z</time>
        <speed>0.9589275</speed>
      </trkpt>
      <trkpt lat="29.3792563" lon="119.8685057">
        <ele>244.97</ele>
        <time>2026-08-12T06:40:21Z</time>
        <speed>1.0114292</speed>
      </trkpt>
      <trkpt lat="29.3792349" lon="119.8684061">
        <ele>246.75</ele>
        <time>2026-08-12T06:40:29Z</time>
        <speed>0.8209819</speed>
      </trkpt>
      <trkpt lat="29.3792122" lon="119.8682963">
        <ele>248.96</ele>
        <time>2026-08-12T06:40:35Z</time>
        <speed>1.0958436</speed>
      </trkpt>
      <trkpt lat="29.3791914" lon="119.8681797">
        <ele>251.22</ele>
        <time>2026-08-12T06:40:43Z</time>
        <speed>0.75355333</speed>
      </trkpt>
      <trkpt lat="29.3791657" lon="119.8680694">
        <ele>251.81</ele>
        <time>2026-08-12T06:40:49Z</time>
        <speed>1.2276125</speed>
      </trkpt>
      <trkpt lat="29.3791272" lon="119.8679571">
        <ele>250.99</ele>
        <time>2026-08-12T06:40:57Z</time>
        <speed>1.3820292</speed>
      </trkpt>
      <trkpt lat="29.3791257" lon="119.8678451">
        <ele>249.75</ele>
        <time>2026-08-12T06:41:05Z</time>
        <speed>1.2960706</speed>
      </trkpt>
      <trkpt lat="29.3791223" lon="119.8677358">
        <ele>248.78</ele>
        <time>2026-08-12T06:41:13Z</time>
        <speed>1.4087948</speed>
      </trkpt>
      <trkpt lat="29.379098" lon="119.8676163">
        <ele>248.44</ele>
        <time>2026-08-12T06:41:23Z</time>
        <speed>1.1787139</speed>
      </trkpt>
      <trkpt lat="29.379069" lon="119.8675104">
        <ele>248.55</ele>
        <time>2026-08-12T06:41:29Z</time>
        <speed>1.4371045</speed>
      </trkpt>
      <trkpt lat="29.3790378" lon="119.8673962">
        <ele>248.57</ele>
        <time>2026-08-12T06:41:37Z</time>
        <speed>1.6872594</speed>
      </trkpt>
      <trkpt lat="29.3790341" lon="119.8672684">
        <ele>248.97</ele>
        <time>2026-08-12T06:41:45Z</time>
        <speed>1.7860861</speed>
      </trkpt>
      <trkpt lat="29.3790496" lon="119.8671447">
        <ele>248.55</ele>
        <time>2026-08-12T06:41:53Z</time>
        <speed>1.8293228</speed>
      </trkpt>
      <trkpt lat="29.3790571" lon="119.8670346">
        <ele>248.06</ele>
        <time>2026-08-12T06:41:59Z</time>
        <speed>1.7727033</speed>
      </trkpt>
      <trkpt lat="29.3790775" lon="119.8669321">
        <ele>247.26</ele>
        <time>2026-08-12T06:42:07Z</time>
        <speed>1.4458547</speed>
      </trkpt>
      <trkpt lat="29.3791247" lon="119.8668244">
        <ele>245.94</ele>
        <time>2026-08-12T06:42:15Z</time>
        <speed>1.3568078</speed>
      </trkpt>
      <trkpt lat="29.379187" lon="119.8667139">
        <ele>245.06</ele>
        <time>2026-08-12T06:42:23Z</time>
        <speed>1.3459986</speed>
      </trkpt>
      <trkpt lat="29.3792015" lon="119.8665898">
        <ele>245.55</ele>
        <time>2026-08-12T06:42:31Z</time>
        <speed>1.395412</speed>
      </trkpt>
      <trkpt lat="29.3792104" lon="119.8664683">
        <ele>245.79</ele>
        <time>2026-08-12T06:42:39Z</time>
        <speed>1.4391633</speed>
      </trkpt>
      <trkpt lat="29.3792026" lon="119.8663486">
        <ele>246.44</ele>
        <time>2026-08-12T06:42:47Z</time>
        <speed>1.5184306</speed>
      </trkpt>
      <trkpt lat="29.3791811" lon="119.8662424">
        <ele>247.28</ele>
        <time>2026-08-12T06:42:55Z</time>
        <speed>1.4376192</speed>
      </trkpt>
      <trkpt lat="29.3791261" lon="119.8661398">
        <ele>248.75</ele>
        <time>2026-08-12T06:43:03Z</time>
        <speed>1.4813706</speed>
      </trkpt>
      <trkpt lat="29.3790654" lon="119.8660342">
        <ele>249.63</ele>
        <time>2026-08-12T06:43:11Z</time>
        <speed>1.6841711</speed>
      </trkpt>
      <trkpt lat="29.3790129" lon="119.8659331">
        <ele>249.83</ele>
        <time>2026-08-12T06:43:19Z</time>
        <speed>1.7485114</speed>
      </trkpt>
      <trkpt lat="29.3789462" lon="119.865856">
        <ele>249.09</ele>
        <time>2026-08-12T06:43:27Z</time>
        <speed>1.232245</speed>
      </trkpt>
      <trkpt lat="29.3788836" lon="119.8657624">
        <ele>248.06</ele>
        <time>2026-08-12T06:43:35Z</time>
        <speed>1.4072505</speed>
      </trkpt>
      <trkpt lat="29.3788498" lon="119.8656387">
        <ele>247.82</ele>
        <time>2026-08-12T06:43:43Z</time>
        <speed>1.4612964</speed>
      </trkpt>
      <trkpt lat="29.378867" lon="119.8655154">
        <ele>248.2</ele>
        <time>2026-08-12T06:43:51Z</time>
        <speed>1.347028</speed>
      </trkpt>
      <trkpt lat="29.3789038" lon="119.8653951">
        <ele>248.33</ele>
        <time>2026-08-12T06:43:59Z</time>
        <speed>1.5863739</speed>
      </trkpt>
      <trkpt lat="29.3789155" lon="119.8652857">
        <ele>247.84</ele>
        <time>2026-08-12T06:44:07Z</time>
        <speed>1.4746791</speed>
      </trkpt>
      <trkpt lat="29.3788788" lon="119.8651918">
        <ele>247.65</ele>
        <time>2026-08-12T06:44:15Z</time>
        <speed>1.3233508</speed>
      </trkpt>
      <trkpt lat="29.3787853" lon="119.8651307">
        <ele>247.84</ele>
        <time>2026-08-12T06:44:23Z</time>
        <speed>1.4865178</speed>
      </trkpt>
      <trkpt lat="29.3787062" lon="119.8650542">
        <ele>248.26</ele>
        <time>2026-08-12T06:44:31Z</time>
        <speed>1.3578372</speed>
      </trkpt>
      <trkpt lat="29.378697" lon="119.8649546">
        <ele>248.62</ele>
        <time>2026-08-12T06:44:37Z</time>
        <speed>1.7114514</speed>
      </trkpt>
      <trkpt lat="29.3786998" lon="119.86484">
        <ele>249.26</ele>
        <time>2026-08-12T06:44:45Z</time>
        <speed>1.3187183</speed>
      </trkpt>
      <trkpt lat="29.3786476" lon="119.864756">
        <ele>250.01</ele>
        <time>2026-08-12T06:44:53Z</time>
        <speed>1.3681316</speed>
      </trkpt>
      <trkpt lat="29.3785644" lon="119.864677">
        <ele>250.26</ele>
        <time>2026-08-12T06:45:01Z</time>
        <speed>1.6162277</speed>
      </trkpt>
      <trkpt lat="29.3785193" lon="119.8645738">
        <ele>249.59</ele>
        <time>2026-08-12T06:45:09Z</time>
        <speed>1.4504873</speed>
      </trkpt>
      <trkpt lat="29.3784819" lon="119.8644598">
        <ele>248.91</ele>
        <time>2026-08-12T06:45:17Z</time>
        <speed>1.4298984</speed>
      </trkpt>
      <trkpt lat="29.3783967" lon="119.8644242">
        <ele>249.08</ele>
        <time>2026-08-12T06:45:25Z</time>
        <speed>1.1879789</speed>
      </trkpt>
      <trkpt lat="29.3783019" lon="119.8644145">
        <ele>249.99</ele>
        <time>2026-08-12T06:45:31Z</time>
        <speed>1.4463694</speed>
      </trkpt>
      <trkpt lat="29.3782434" lon="119.8643504">
        <ele>251.2</ele>
        <time>2026-08-12T06:45:37Z</time>
        <speed>1.4427664</speed>
      </trkpt>
      <trkpt lat="29.378265" lon="119.8642531">
        <ele>252.45</ele>
        <time>2026-08-12T06:45:45Z</time>
        <speed>1.2610694</speed>
      </trkpt>
      <trkpt lat="29.3783348" lon="119.8641686">
        <ele>252.77</ele>
        <time>2026-08-12T06:45:53Z</time>
        <speed>1.3387924</speed>
      </trkpt>
      <trkpt lat="29.378416" lon="119.8640875">
        <ele>251.49</ele>
        <time>2026-08-12T06:46:01Z</time>
        <speed>1.2976147</speed>
      </trkpt>
      <trkpt lat="29.378441" lon="119.8639869">
        <ele>250.38</ele>
        <time>2026-08-12T06:46:09Z</time>
        <speed>1.1962144</speed>
      </trkpt>
      <trkpt lat="29.3784107" lon="119.863873">
        <ele>250.65</ele>
        <time>2026-08-12T06:46:19Z</time>
        <speed>1.3485723</speed>
      </trkpt>
      <trkpt lat="29.3783727" lon="119.863758">
        <ele>251.1</ele>
        <time>2026-08-12T06:46:27Z</time>
        <speed>1.4309278</speed>
      </trkpt>
      <trkpt lat="29.3782981" lon="119.8636751">
        <ele>251.66</ele>
        <time>2026-08-12T06:46:37Z</time>
        <speed>1.3372483</speed>
      </trkpt>
      <trkpt lat="29.3782037" lon="119.8636662">
        <ele>250.95</ele>
        <time>2026-08-12T06:46:45Z</time>
        <speed>1.4031328</speed>
      </trkpt>
      <trkpt lat="29.3781116" lon="119.863713">
        <ele>250.02</ele>
        <time>2026-08-12T06:46:53Z</time>
        <speed>1.2801142</speed>
      </trkpt>
      <trkpt lat="29.3780157" lon="119.8637415">
        <ele>249.54</ele>
        <time>2026-08-12T06:47:01Z</time>
        <speed>1.1287858</speed>
      </trkpt>
      <trkpt lat="29.3779397" lon="119.8636801">
        <ele>249.44</ele>
        <time>2026-08-12T06:47:07Z</time>
        <speed>1.37122</speed>
      </trkpt>
      <trkpt lat="29.3778733" lon="119.8635952">
        <ele>248.86</ele>
        <time>2026-08-12T06:47:15Z</time>
        <speed>1.4793117</speed>
      </trkpt>
      <trkpt lat="29.3777809" lon="119.8635482">
        <ele>247.72</ele>
        <time>2026-08-12T06:47:21Z</time>
        <speed>2.0084462</speed>
      </trkpt>
      <trkpt lat="29.377687" lon="119.8634808">
        <ele>246.98</ele>
        <time>2026-08-12T06:47:31Z</time>
        <speed>1.5848297</speed>
      </trkpt>
      <trkpt lat="29.3776548" lon="119.8633756">
        <ele>247.16</ele>
        <time>2026-08-12T06:47:39Z</time>
        <speed>1.3192331</speed>
      </trkpt>
      <trkpt lat="29.3776333" lon="119.8632638">
        <ele>246.96</ele>
        <time>2026-08-12T06:47:47Z</time>
        <speed>1.2965853</speed>
      </trkpt>
      <trkpt lat="29.3776101" lon="119.8631584">
        <ele>246.42</ele>
        <time>2026-08-12T06:47:55Z</time>
        <speed>1.1823169</speed>
      </trkpt>
      <trkpt lat="29.3775879" lon="119.8630471">
        <ele>246.2</ele>
        <time>2026-08-12T06:48:03Z</time>
        <speed>1.3902647</speed>
      </trkpt>
      <trkpt lat="29.3775236" lon="119.8629805">
        <ele>245.9</ele>
        <time>2026-08-12T06:48:11Z</time>
        <speed>1.3593814</speed>
      </trkpt>
      <trkpt lat="29.3774132" lon="119.8629773">
        <ele>244.95</ele>
        <time>2026-08-12T06:48:21Z</time>
        <speed>1.1591544</speed>
      </trkpt>
      <trkpt lat="29.3772993" lon="119.8629937">
        <ele>243.64</ele>
        <time>2026-08-12T06:48:29Z</time>
        <speed>1.4041622</speed>
      </trkpt>
      <trkpt lat="29.3771964" lon="119.8629427">
        <ele>242.85</ele>
        <time>2026-08-12T06:48:37Z</time>
        <speed>1.5055625</speed>
      </trkpt>
      <trkpt lat="29.3771259" lon="119.8628585">
        <ele>242.66</ele>
        <time>2026-08-12T06:48:43Z</time>
        <speed>1.6743914</speed>
      </trkpt>
      <trkpt lat="29.3770778" lon="119.862759">
        <ele>241.99</ele>
        <time>2026-08-12T06:48:51Z</time>
        <speed>1.5590936</speed>
      </trkpt>
      <trkpt lat="29.3770275" lon="119.8626579">
        <ele>242.04</ele>
        <time>2026-08-12T06:48:59Z</time>
        <speed>1.3912941</speed>
      </trkpt>
      <trkpt lat="29.376952" lon="119.8625912">
        <ele>242.84</ele>
        <time>2026-08-12T06:49:07Z</time>
        <speed>1.3882059</speed>
      </trkpt>
      <trkpt lat="29.37687" lon="119.8625208">
        <ele>243.64</ele>
        <time>2026-08-12T06:49:15Z</time>
        <speed>1.436075</speed>
      </trkpt>
      <trkpt lat="29.3767764" lon="119.8624628">
        <ele>244.48</ele>
        <time>2026-08-12T06:49:23Z</time>
        <speed>1.4226922</speed>
      </trkpt>
      <trkpt lat="29.3766783" lon="119.8624942">
        <ele>244.53</ele>
        <time>2026-08-12T06:49:31Z</time>
        <speed>1.4211481</speed>
      </trkpt>
      <trkpt lat="29.3765958" lon="119.862561">
        <ele>244.35</ele>
        <time>2026-08-12T06:49:37Z</time>
        <speed>1.7804241</speed>
      </trkpt>
      <trkpt lat="29.3765023" lon="119.8626142">
        <ele>244.54</ele>
        <time>2026-08-12T06:49:45Z</time>
        <speed>1.7850567</speed>
      </trkpt>
      <trkpt lat="29.3763931" lon="119.8625999">
        <ele>245.13</ele>
        <time>2026-08-12T06:49:53Z</time>
        <speed>1.7464525</speed>
      </trkpt>
      <trkpt lat="29.376296" lon="119.862588">
        <ele>245.11</ele>
        <time>2026-08-12T06:49:59Z</time>
        <speed>1.8097633</speed>
      </trkpt>
      <trkpt lat="29.3761895" lon="119.8625722">
        <ele>245.11</ele>
        <time>2026-08-12T06:50:07Z</time>
        <speed>1.6409345</speed>
      </trkpt>
      <trkpt lat="29.3760856" lon="119.8625538">
        <ele>245.97</ele>
        <time>2026-08-12T06:50:15Z</time>
        <speed>1.5971831</speed>
      </trkpt>
      <trkpt lat="29.375997" lon="119.8625178">
        <ele>246.97</ele>
        <time>2026-08-12T06:50:21Z</time>
        <speed>1.4921798</speed>
      </trkpt>
      <trkpt lat="29.3759077" lon="119.8624773">
        <ele>247.15</ele>
        <time>2026-08-12T06:50:29Z</time>
        <speed>1.4803411</speed>
      </trkpt>
      <trkpt lat="29.3758149" lon="119.8624502">
        <ele>246.92</ele>
        <time>2026-08-12T06:50:35Z</time>
        <speed>1.4762233</speed>
      </trkpt>
      <trkpt lat="29.3757243" lon="119.862439">
        <ele>246.82</ele>
        <time>2026-08-12T06:50:41Z</time>
        <speed>1.9332967</speed>
      </trkpt>
      <trkpt lat="29.3756344" lon="119.8624471">
        <ele>246.12</ele>
        <time>2026-08-12T06:50:49Z</time>
        <speed>1.4890914</speed>
      </trkpt>
      <trkpt lat="29.3755496" lon="119.8624162">
        <ele>245.64</ele>
        <time>2026-08-12T06:50:55Z</time>
        <speed>1.6126248</speed>
      </trkpt>
      <trkpt lat="29.3754905" lon="119.8623218">
        <ele>245.84</ele>
        <time>2026-08-12T06:51:03Z</time>
        <speed>1.5585788</speed>
      </trkpt>
      <trkpt lat="29.3754278" lon="119.8622306">
        <ele>246.68</ele>
        <time>2026-08-12T06:51:11Z</time>
        <speed>1.5503433</speed>
      </trkpt>
      <trkpt lat="29.3753497" lon="119.8621548">
        <ele>246.82</ele>
        <time>2026-08-12T06:51:19Z</time>
        <speed>1.5076214</speed>
      </trkpt>
      <trkpt lat="29.3752578" lon="119.8621179">
        <ele>247.07</ele>
        <time>2026-08-12T06:51:25Z</time>
        <speed>1.791748</speed>
      </trkpt>
      <trkpt lat="29.3751639" lon="119.8621268">
        <ele>247.04</ele>
        <time>2026-08-12T06:51:31Z</time>
        <speed>1.7835125</speed>
      </trkpt>
      <trkpt lat="29.3750716" lon="119.8621103">
        <ele>247.54</ele>
        <time>2026-08-12T06:51:37Z</time>
        <speed>1.5503433</speed>
      </trkpt>
      <trkpt lat="29.3749742" lon="119.8620972">
        <ele>249.46</ele>
        <time>2026-08-12T06:51:45Z</time>
        <speed>1.4880619</speed>
      </trkpt>
      <trkpt lat="29.3748802" lon="119.8620649">
        <ele>249.99</ele>
        <time>2026-08-12T06:51:53Z</time>
        <speed>1.4710761</speed>
      </trkpt>
      <trkpt lat="29.3747854" lon="119.8620213">
        <ele>249.57</ele>
        <time>2026-08-12T06:52:27Z</time>
        <speed>1.3429103</speed>
      </trkpt>
      <trkpt lat="29.374689" lon="119.8619619">
        <ele>248.76</ele>
        <time>2026-08-12T06:52:37Z</time>
        <speed>1.2301861</speed>
      </trkpt>
      <trkpt lat="29.3746423" lon="119.8618627">
        <ele>248.0</ele>
        <time>2026-08-12T06:52:45Z</time>
        <speed>1.2039353</speed>
      </trkpt>
      <trkpt lat="29.3746163" lon="119.8617492">
        <ele>247.4</ele>
        <time>2026-08-12T06:52:55Z</time>
        <speed>1.3079091</speed>
      </trkpt>
      <trkpt lat="29.3745827" lon="119.8616358">
        <ele>245.68</ele>
        <time>2026-08-12T06:53:03Z</time>
        <speed>1.4690173</speed>
      </trkpt>
      <trkpt lat="29.3745827" lon="119.8616358">
        <ele>245.68</ele>
        <time>2026-08-12T06:53:07Z</time>
        <speed>1.4690173</speed>
      </trkpt>
      <extensions>
        <PauseTimes>1786517587000:pause</PauseTimes>
      </extensions>
    </trkseg>
  </trk>
  <wpt lat="29.3744917" lon="119.861455">
    <ele>239.1</ele>
    <time>2026-08-12T05:08:24Z</time>
    <name><![CDATA[停车后，往箭头方向走
        ]]>
    </name>
    <cmt>停车后，往箭头方向走
        </cmt>
    <desc><![CDATA[]]>
    </desc>
    <sym>Flag, Blue</sym>
    <type>user</type>
    <extensions>
      <PosType>0</PosType>
      <Speed>0.87245417</Speed>
      <Accuracy>2.2</Accuracy>
      <Time>1786511304176</Time>
      <description><![CDATA[]]>
      </description>
      <FileId>1657601211</FileId>
      <FileSize>1873959</FileSize>
      <FileType>0</FileType>
    </extensions>
  </wpt>
  <wpt lat="29.3771033" lon="119.862792">
    <ele>243.8</ele>
    <time>2026-08-12T05:12:06Z</time>
    <name><![CDATA[一直单车道水泥路
        ]]>
    </name>
    <cmt>一直单车道水泥路
        </cmt>
    <desc><![CDATA[]]>
    </desc>
    <sym>Flag, Blue</sym>
    <type>user</type>
    <extensions>
      <PosType>0</PosType>
      <Speed>1.8602061</Speed>
      <Accuracy>1.5</Accuracy>
      <Time>1786511526245</Time>
      <description><![CDATA[]]>
      </description>
    </extensions>
  </wpt>
  <wpt lat="29.3784043" lon="119.863911">
    <ele>247.3</ele>
    <time>2026-08-12T05:14:30Z</time>
    <name><![CDATA[有坟
        ]]>
    </name>
    <cmt>有坟
        </cmt>
    <desc><![CDATA[]]>
    </desc>
    <sym>Flag, Blue</sym>
    <type>user</type>
    <extensions>
      <PosType>0</PosType>
      <Speed>1.6574056</Speed>
      <Accuracy>1.3</Accuracy>
      <Time>1786511670266</Time>
      <description><![CDATA[]]>
      </description>
    </extensions>
  </wpt>
  <wpt lat="29.3791873" lon="119.8695342">
    <ele>245.6</ele>
    <time>2026-08-12T05:20:40Z</time>
    <name><![CDATA[可停车
        ]]>
    </name>
    <cmt>可停车
        </cmt>
    <desc><![CDATA[]]>
    </desc>
    <sym>Flag, Blue</sym>
    <type>user</type>
    <extensions>
      <PosType>0</PosType>
      <Speed>1.6069628</Speed>
      <Accuracy>1.5</Accuracy>
      <Time>1786512040248</Time>
      <description><![CDATA[]]>
      </description>
      <FileId>1657601209</FileId>
      <FileSize>1215034</FileSize>
      <FileType>0</FileType>
    </extensions>
  </wpt>
  <wpt lat="29.3791099" lon="119.8704727">
    <ele>249.6</ele>
    <time>2026-08-12T05:22:34Z</time>
    <name><![CDATA[后面车开不过去了
        ]]>
    </name>
    <cmt>后面车开不过去了
        </cmt>
    <desc><![CDATA[]]>
    </desc>
    <sym>Flag, Blue</sym>
    <type>user</type>
    <extensions>
      <PosType>0</PosType>
      <Speed>1.6929214</Speed>
      <Accuracy>1.4</Accuracy>
      <Time>1786512154280</Time>
      <description><![CDATA[]]>
      </description>
      <FileId>1657601206</FileId>
      <FileSize>1137393</FileSize>
      <FileType>0</FileType>
    </extensions>
  </wpt>
  <wpt lat="29.3789205" lon="119.8717228">
    <ele>250.9</ele>
    <time>2026-08-12T05:24:04Z</time>
    <name><![CDATA[沿溪走
        ]]>
    </name>
    <cmt>沿溪走
        </cmt>
    <desc><![CDATA[]]>
    </desc>
    <sym>Flag, Blue</sym>
    <type>user</type>
    <extensions>
      <PosType>0</PosType>
      <Speed>1.899325</Speed>
      <Accuracy>1.5</Accuracy>
      <Time>1786512244263</Time>
      <description><![CDATA[]]>
      </description>
      <FileId>1657601205</FileId>
      <FileSize>1249178</FileSize>
      <FileType>0</FileType>
    </extensions>
  </wpt>
  <wpt lat="29.3777117" lon="119.873571">
    <ele>265.3</ele>
    <time>2026-08-12T05:26:56Z</time>
    <name><![CDATA[桥，水泥路结束
        ]]>
    </name>
    <cmt>桥，水泥路结束
        </cmt>
    <desc><![CDATA[]]>
    </desc>
    <sym>Flag, Blue</sym>
    <type>user</type>
    <extensions>
      <PosType>0</PosType>
      <Speed>0.0</Speed>
      <Accuracy>1.5</Accuracy>
      <Time>1786512416273</Time>
      <description><![CDATA[]]>
      </description>
      <FileId>1657601201</FileId>
      <FileSize>1142358</FileSize>
      <FileType>0</FileType>
    </extensions>
  </wpt>
  <wpt lat="29.3773826" lon="119.8744204">
    <ele>261.6</ele>
    <time>2026-08-12T05:30:38Z</time>
    <name><![CDATA[成熟野路
        ]]>
    </name>
    <cmt>成熟野路
        </cmt>
    <desc><![CDATA[]]>
    </desc>
    <sym>Flag, Blue</sym>
    <type>user</type>
    <extensions>
      <PosType>0</PosType>
      <Speed>1.3310716</Speed>
      <Accuracy>1.7</Accuracy>
      <Time>1786512638288</Time>
      <description><![CDATA[]]>
      </description>
      <FileId>1657601200</FileId>
      <FileSize>1399585</FileSize>
      <FileType>0</FileType>
    </extensions>
  </wpt>
  <wpt lat="29.3769929" lon="119.8755025">
    <ele>281.1</ele>
    <time>2026-08-12T05:31:50Z</time>
    <name><![CDATA[过桥
        ]]>
    </name>
    <cmt>过桥
        </cmt>
    <desc><![CDATA[]]>
    </desc>
    <sym>Flag, Blue</sym>
    <type>user</type>
    <extensions>
      <PosType>0</PosType>
      <Speed>0.7231847</Speed>
      <Accuracy>1.5</Accuracy>
      <Time>1786512710273</Time>
      <description><![CDATA[]]>
      </description>
      <FileId>1657601199</FileId>
      <FileSize>1205681</FileSize>
      <FileType>0</FileType>
    </extensions>
  </wpt>
  <wpt lat="29.3784175" lon="119.8801549">
    <ele>361.9</ele>
    <time>2026-08-12T05:40:10Z</time>
    <name><![CDATA[
        ]]>
    </name>
    <cmt>
        </cmt>
    <desc><![CDATA[]]>
    </desc>
    <sym>Flag, Blue</sym>
    <type>user</type>
    <extensions>
      <PosType>0</PosType>
      <Speed>1.0026789</Speed>
      <Accuracy>1.5</Accuracy>
      <Time>1786513210245</Time>
      <description><![CDATA[]]>
      </description>
      <FileId>1657601196</FileId>
      <FileSize>1500351</FileSize>
      <FileType>0</FileType>
    </extensions>
  </wpt>
  <wpt lat="29.3789558" lon="119.8806192">
    <ele>360.1</ele>
    <time>2026-08-12T05:44:48Z</time>
    <name><![CDATA[龙潭
        ]]>
    </name>
    <cmt>龙潭
        </cmt>
    <desc><![CDATA[]]>
    </desc>
    <sym>Flag, Blue</sym>
    <type>user</type>
    <extensions>
      <PosType>0</PosType>
      <Speed>0.38913</Speed>
      <Accuracy>1.6</Accuracy>
      <Time>1786513488263</Time>
      <description><![CDATA[]]>
      </description>
      <FileId>1657601195</FileId>
      <FileSize>1124996</FileSize>
      <FileType>0</FileType>
    </extensions>
  </wpt>
  <wpt lat="29.3785412" lon="119.8803032">
    <ele>370.1</ele>
    <time>2026-08-12T05:57:18Z</time>
    <name><![CDATA[右转
        ]]>
    </name>
    <cmt>右转
        </cmt>
    <desc><![CDATA[]]>
    </desc>
    <sym>Flag, Blue</sym>
    <type>user</type>
    <extensions>
      <PosType>0</PosType>
      <Speed>0.8528947</Speed>
      <Accuracy>1.6</Accuracy>
      <Time>1786514238260</Time>
      <description><![CDATA[]]>
      </description>
      <FileId>1657601193</FileId>
      <FileSize>2485572</FileSize>
      <FileType>0</FileType>
    </extensions>
  </wpt>
  <wpt lat="29.3786406" lon="119.8802308">
    <ele>357.9</ele>
    <time>2026-08-12T05:59:12Z</time>
    <name><![CDATA[象鼻石左边下去
        ]]>
    </name>
    <cmt>象鼻石左边下去
        </cmt>
    <desc><![CDATA[]]>
    </desc>
    <sym>Flag, Blue</sym>
    <type>user</type>
    <extensions>
      <PosType>0</PosType>
      <Speed>0.9779722</Speed>
      <Accuracy>1.7</Accuracy>
      <Time>1786514352218</Time>
      <description><![CDATA[]]>
      </description>
      <FileId>1657601192</FileId>
      <FileSize>1527348</FileSize>
      <FileType>0</FileType>
    </extensions>
  </wpt>
  <wpt lat="29.3788933" lon="119.8804133">
    <ele>353.3</ele>
    <time>2026-08-12T06:02:12Z</time>
    <name><![CDATA[龙潭下游瀑布
        ]]>
    </name>
    <cmt>龙潭下游瀑布
        </cmt>
    <desc><![CDATA[]]>
    </desc>
    <sym>Flag, Blue</sym>
    <type>user</type>
    <extensions>
      <PosType>0</PosType>
      <Speed>0.0</Speed>
      <Accuracy>1.9</Accuracy>
      <Time>1786514532243</Time>
      <description><![CDATA[]]>
      </description>
      <FileId>1657601188</FileId>
      <FileSize>1440319</FileSize>
      <FileType>0</FileType>
    </extensions>
  </wpt>
  <wpt lat="29.3789834" lon="119.8803303">
    <ele>351.8</ele>
    <time>2026-08-12T06:10:12Z</time>
    <name><![CDATA[二瀑
        ]]>
    </name>
    <cmt>二瀑
        </cmt>
    <desc><![CDATA[]]>
    </desc>
    <sym>Flag, Blue</sym>
    <type>user</type>
    <extensions>
      <PosType>0</PosType>
      <Speed>0.0</Speed>
      <Accuracy>2.0</Accuracy>
      <Time>1786515012144</Time>
      <description><![CDATA[]]>
      </description>
      <FileId>1657601187</FileId>
      <FileSize>1392515</FileSize>
      <FileType>0</FileType>
    </extensions>
  </wpt>
  <wpt lat="29.3789094" lon="119.8802481">
    <ele>354.1</ele>
    <time>2026-08-12T06:10:42Z</time>
    <name><![CDATA[左边下
        ]]>
    </name>
    <cmt>左边下
        </cmt>
    <desc><![CDATA[]]>
    </desc>
    <sym>Flag, Blue</sym>
    <type>user</type>
    <extensions>
      <PosType>0</PosType>
      <Speed>0.7993636</Speed>
      <Accuracy>1.7</Accuracy>
      <Time>1786515042268</Time>
      <description><![CDATA[]]>
      </description>
      <FileId>1657601183</FileId>
      <FileSize>2856154</FileSize>
      <FileType>0</FileType>
    </extensions>
  </wpt>
  <wpt lat="29.3788967" lon="119.8800233">
    <ele>341.9</ele>
    <time>2026-08-12T06:14:10Z</time>
    <name><![CDATA[下
        ]]>
    </name>
    <cmt>下
        </cmt>
    <desc><![CDATA[]]>
    </desc>
    <sym>Flag, Blue</sym>
    <type>user</type>
    <extensions>
      <PosType>0</PosType>
      <Speed>0.0</Speed>
      <Accuracy>1.6</Accuracy>
      <Time>1786515250281</Time>
      <description><![CDATA[]]>
      </description>
      <FileId>1657601180</FileId>
      <FileSize>2772033</FileSize>
      <FileType>0</FileType>
    </extensions>
  </wpt>
  <wpt lat="29.3789933" lon="119.8800083">
    <ele>344.6</ele>
    <time>2026-08-12T06:16:12Z</time>
    <name><![CDATA[三瀑
        ]]>
    </name>
    <cmt>三瀑
        </cmt>
    <desc><![CDATA[]]>
    </desc>
    <sym>Flag, Blue</sym>
    <type>user</type>
    <extensions>
      <PosType>0</PosType>
      <Speed>0.4514114</Speed>
      <Accuracy>1.8</Accuracy>
      <Time>1786515372249</Time>
      <description><![CDATA[]]>
      </description>
      <FileId>1657601179</FileId>
      <FileSize>1160314</FileSize>
      <FileType>0</FileType>
    </extensions>
  </wpt>
  <wpt lat="29.3788467" lon="119.8802533">
    <ele>349.8</ele>
    <time>2026-08-12T06:23:36Z</time>
    <name><![CDATA[原路返回
        ]]>
    </name>
    <cmt>原路返回
        </cmt>
    <desc><![CDATA[]]>
    </desc>
    <sym>Flag, Blue</sym>
    <type>user</type>
    <extensions>
      <PosType>0</PosType>
      <Speed>0.3633939</Speed>
      <Accuracy>1.6</Accuracy>
      <Time>1786515816234</Time>
      <description><![CDATA[]]>
      </description>
    </extensions>
  </wpt>
</gpx>