<?xml version='1.0' encoding='UTF-8' standalone='yes' ?>
<gpx version="1.1" creator="GPSBabel - http://www.gpsbabel.org" xmlns:xsi="http://www.w3.org/2001/XMLSchema-instance" xmlns="http://www.topografix.com/GPX/1/1" xsi:schemaLocation="http://www.topografix.com/GPX/1/1 http://www.topografix.com/GPX/1/1/gpx.xsd">
  <metadata>
    <link href="http://www.garmin.com">
      <text>Garmin International</text>
    </link>
    <time>1970-01-01T00:00:00Z</time>
    <bounds minlat="28.9976242" minlon="119.3603974" maxlat="29.0066933" maxlon="119.3695686" />
  </metadata>
  <extensions>
    <name><![CDATA[九峰山环线]]>
    </name>
    <description><![CDATA[]]>
    </description>
    <TrackId>89863284</TrackId>
    <TrackTypeId>8</TrackTypeId>
    <TrackTags>合并获得,徒步,拆分获得</TrackTags>
    <BeginTime>0</BeginTime>
    <EndTime>0</EndTime>
    <TimeUsed>0</TimeUsed>
    <PauseTime>0</PauseTime>
    <PosStartName>九峰山风景区公交站</PosStartName>
    <PosEndName>九峰山风景区公交站</PosEndName>
    <ProductVersion>and_9.2.3</ProductVersion>
    <StartDistrictId>9654</StartDistrictId>
    <EndDistrictId>9654</EndDistrictId>
    <CreaterId>64771087</CreaterId>
    <CreaterName><![CDATA[步履赴山野]]>
    </CreaterName>
    <CreaterIcon>1523534626</CreaterIcon>
    <OriginCreaterId>64771087</OriginCreaterId>
    <OriginCreaterNickname><![CDATA[步履赴山野]]>
    </OriginCreaterNickname>
    <OriginCreaterName><![CDATA[null]]>
    </OriginCreaterName>
    <OriginCreaterIcon>1523534626</OriginCreaterIcon>
    <ThumbnailId>1678830437</ThumbnailId>
    <Distance>4522.0</Distance>
    <ElevationGain>315.09000000000003</ElevationGain>
    <ElevationLoss>307.85</ElevationLoss>
    <SportAvgSpeed>0.0</SportAvgSpeed>
  </extensions>
  <rte>
    <rtept lat="29.0066333" lon="119.3695333">
      <ele>110.2</ele>
    </rtept>
    <rtept lat="29.0066394" lon="119.3694294">
      <ele>110.2</ele>
    </rtept>
    <rtept lat="29.0066123" lon="119.3693205">
      <ele>110.29</ele>
    </rtept>
    <rtept lat="29.0065976" lon="119.36928">
      <ele>110.29</ele>
    </rtept>
    <rtept lat="29.0065291" lon="119.36923">
      <ele>109.91</ele>
    </rtept>
    <rtept lat="29.0064584" lon="119.369151">
      <ele>109.6</ele>
    </rtept>
    <rtept lat="29.0063809" lon="119.3690817">
      <ele>109.39</ele>
    </rtept>
    <rtept lat="29.0063039" lon="119.3690143">
      <ele>109.05</ele>
    </rtept>
    <rtept lat="29.0062307" lon="119.3689365">
      <ele>109.5</ele>
    </rtept>
    <rtept lat="29.0061434" lon="119.3688797">
      <ele>109.2</ele>
    </rtept>
    <rtept lat="29.0060636" lon="119.3688224">
      <ele>108.77</ele>
    </rtept>
    <rtept lat="29.0059785" lon="119.3687765">
      <ele>108.05</ele>
    </rtept>
    <rtept lat="29.0059054" lon="119.3687156">
      <ele>107.0</ele>
    </rtept>
    <rtept lat="29.0058244" lon="119.3686395">
      <ele>106.44</ele>
    </rtept>
    <rtept lat="29.00576" lon="119.3685558">
      <ele>105.69</ele>
    </rtept>
    <rtept lat="29.0056982" lon="119.3684641">
      <ele>105.61</ele>
    </rtept>
    <rtept lat="29.0056565" lon="119.3683491">
      <ele>107.11</ele>
    </rtept>
    <rtept lat="29.0056091" lon="119.3682466">
      <ele>109.64</ele>
    </rtept>
    <rtept lat="29.0055719" lon="119.3681366">
      <ele>111.35</ele>
    </rtept>
    <rtept lat="29.0055543" lon="119.3681207">
      <ele>111.8</ele>
    </rtept>
    <rtept lat="29.0054517" lon="119.36813">
      <ele>112.23</ele>
    </rtept>
    <rtept lat="29.0053783" lon="119.3680583">
      <ele>109.85</ele>
    </rtept>
    <rtept lat="29.0053008" lon="119.3679782">
      <ele>107.76</ele>
    </rtept>
    <rtept lat="29.0052276" lon="119.3678901">
      <ele>106.88</ele>
    </rtept>
    <rtept lat="29.0051646" lon="119.3677895">
      <ele>106.89</ele>
    </rtept>
    <rtept lat="29.0050913" lon="119.367716">
      <ele>107.49</ele>
    </rtept>
    <rtept lat="29.0050126" lon="119.3676609">
      <ele>109.56</ele>
    </rtept>
    <rtept lat="29.0049457" lon="119.3675891">
      <ele>111.04</ele>
    </rtept>
    <rtept lat="29.0048975" lon="119.3676398">
      <ele>112.44</ele>
    </rtept>
    <rtept lat="29.0048142" lon="119.3676391">
      <ele>113.41</ele>
    </rtept>
    <rtept lat="29.0047233" lon="119.3676141">
      <ele>114.44</ele>
    </rtept>
    <rtept lat="29.0046269" lon="119.3675833">
      <ele>114.51</ele>
    </rtept>
    <rtept lat="29.0045197" lon="119.3675564">
      <ele>114.03</ele>
    </rtept>
    <rtept lat="29.0044257" lon="119.3675266">
      <ele>113.03</ele>
    </rtept>
    <rtept lat="29.0043375" lon="119.3674748">
      <ele>111.21</ele>
    </rtept>
    <rtept lat="29.0042464" lon="119.367429">
      <ele>109.74</ele>
    </rtept>
    <rtept lat="29.0041612" lon="119.3674506">
      <ele>108.91</ele>
    </rtept>
    <rtept lat="29.0040719" lon="119.3674634">
      <ele>109.51</ele>
    </rtept>
    <rtept lat="29.0039607" lon="119.3674682">
      <ele>111.53</ele>
    </rtept>
    <rtept lat="29.0038541" lon="119.3674876">
      <ele>113.19</ele>
    </rtept>
    <rtept lat="29.0037491" lon="119.3674531">
      <ele>113.84</ele>
    </rtept>
    <rtept lat="29.0036513" lon="119.3674005">
      <ele>114.34</ele>
    </rtept>
    <rtept lat="29.0035589" lon="119.3673688">
      <ele>114.88</ele>
    </rtept>
    <rtept lat="29.003458" lon="119.3673645">
      <ele>115.58</ele>
    </rtept>
    <rtept lat="29.003361" lon="119.3673565">
      <ele>116.32</ele>
    </rtept>
    <rtept lat="29.0032695" lon="119.3673357">
      <ele>116.91</ele>
    </rtept>
    <rtept lat="29.0031674" lon="119.3673285">
      <ele>117.29</ele>
    </rtept>
    <rtept lat="29.0030785" lon="119.3673603">
      <ele>118.07</ele>
    </rtept>
    <rtept lat="29.0029912" lon="119.367406">
      <ele>118.73</ele>
    </rtept>
    <rtept lat="29.0030278" lon="119.3674643">
      <ele>119.53</ele>
    </rtept>
    <rtept lat="29.0029742" lon="119.3674926">
      <ele>120.55</ele>
    </rtept>
    <rtept lat="29.0028931" lon="119.3674342">
      <ele>121.52</ele>
    </rtept>
    <rtept lat="29.0028157" lon="119.36736">
      <ele>122.03</ele>
    </rtept>
    <rtept lat="29.0027631" lon="119.3674128">
      <ele>123.48</ele>
    </rtept>
    <rtept lat="29.0026793" lon="119.3674555">
      <ele>123.06</ele>
    </rtept>
    <rtept lat="29.0025881" lon="119.3675107">
      <ele>123.16</ele>
    </rtept>
    <rtept lat="29.002533" lon="119.3676189">
      <ele>136.92</ele>
    </rtept>
    <rtept lat="29.0024866" lon="119.3677295">
      <ele>137.68</ele>
    </rtept>
    <rtept lat="29.0023981" lon="119.3678051">
      <ele>137.48</ele>
    </rtept>
    <rtept lat="29.0023375" lon="119.3679033">
      <ele>137.36</ele>
    </rtept>
    <rtept lat="29.0023155" lon="119.3680101">
      <ele>136.64</ele>
    </rtept>
    <rtept lat="29.0023165" lon="119.3681297">
      <ele>136.37</ele>
    </rtept>
    <rtept lat="29.0023585" lon="119.3682364">
      <ele>136.77</ele>
    </rtept>
    <rtept lat="29.0023985" lon="119.3683444">
      <ele>137.86</ele>
    </rtept>
    <rtept lat="29.0023956" lon="119.3684328">
      <ele>139.64</ele>
    </rtept>
    <rtept lat="29.0024231" lon="119.3683825">
      <ele>142.72</ele>
    </rtept>
    <rtept lat="29.0024555" lon="119.3682763">
      <ele>145.34</ele>
    </rtept>
    <rtept lat="29.0024602" lon="119.3682454">
      <ele>146.91</ele>
    </rtept>
    <rtept lat="29.0025567" lon="119.3682517">
      <ele>147.51</ele>
    </rtept>
    <rtept lat="29.0025567" lon="119.3683467">
      <ele>149.23</ele>
    </rtept>
    <rtept lat="29.0025217" lon="119.36824">
      <ele>152.48</ele>
    </rtept>
    <rtept lat="29.0024283" lon="119.3682133">
      <ele>154.04</ele>
    </rtept>
    <rtept lat="29.0024267" lon="119.3683037">
      <ele>151.61</ele>
    </rtept>
    <rtept lat="29.0023936" lon="119.3683994">
      <ele>149.24</ele>
    </rtept>
    <rtept lat="29.0023939" lon="119.3685073">
      <ele>148.28</ele>
    </rtept>
    <rtept lat="29.0024346" lon="119.3686055">
      <ele>147.64</ele>
    </rtept>
    <rtept lat="29.0024019" lon="119.3686966">
      <ele>146.63</ele>
    </rtept>
    <rtept lat="29.0023426" lon="119.3687769">
      <ele>145.11</ele>
    </rtept>
    <rtept lat="29.0023849" lon="119.3688256">
      <ele>144.16</ele>
    </rtept>
    <rtept lat="29.0024769" lon="119.3688597">
      <ele>145.86</ele>
    </rtept>
    <rtept lat="29.0025804" lon="119.3688642">
      <ele>149.27</ele>
    </rtept>
    <rtept lat="29.0026519" lon="119.3689261">
      <ele>153.24</ele>
    </rtept>
    <rtept lat="29.0027234" lon="119.3690091">
      <ele>157.18</ele>
    </rtept>
    <rtept lat="29.0027925" lon="119.3689828">
      <ele>160.89</ele>
    </rtept>
    <rtept lat="29.0028758" lon="119.3689246">
      <ele>164.98</ele>
    </rtept>
    <rtept lat="29.002933" lon="119.3688244">
      <ele>169.25</ele>
    </rtept>
    <rtept lat="29.0029651" lon="119.3687121">
      <ele>173.83</ele>
    </rtept>
    <rtept lat="29.0029326" lon="119.3686074">
      <ele>178.51</ele>
    </rtept>
    <rtept lat="29.0028835" lon="119.3685011">
      <ele>181.73</ele>
    </rtept>
    <rtept lat="29.0029042" lon="119.3685395">
      <ele>183.44</ele>
    </rtept>
    <rtept lat="29.0029817" lon="119.3686683">
      <ele>184.28</ele>
    </rtept>
    <rtept lat="29.0029483" lon="119.3687783">
      <ele>183.13</ele>
    </rtept>
    <rtept lat="29.002885" lon="119.36886">
      <ele>185.96</ele>
    </rtept>
    <rtept lat="29.0028062" lon="119.3689191">
      <ele>187.7</ele>
    </rtept>
    <rtept lat="29.0027529" lon="119.3690077">
      <ele>186.84</ele>
    </rtept>
    <rtept lat="29.0026949" lon="119.3690903">
      <ele>185.49</ele>
    </rtept>
    <rtept lat="29.0026123" lon="119.3691301">
      <ele>183.86</ele>
    </rtept>
    <rtept lat="29.0025278" lon="119.3691754">
      <ele>181.25</ele>
    </rtept>
    <rtept lat="29.0024376" lon="119.3691835">
      <ele>180.5</ele>
    </rtept>
    <rtept lat="29.0023511" lon="119.3692227">
      <ele>181.4</ele>
    </rtept>
    <rtept lat="29.0022565" lon="119.3692571">
      <ele>182.86</ele>
    </rtept>
    <rtept lat="29.0021618" lon="119.3692767">
      <ele>185.25</ele>
    </rtept>
    <rtept lat="29.002065" lon="119.3692811">
      <ele>188.28</ele>
    </rtept>
    <rtept lat="29.0019702" lon="119.3692694">
      <ele>191.47</ele>
    </rtept>
    <rtept lat="29.0018739" lon="119.3692356">
      <ele>193.42</ele>
    </rtept>
    <rtept lat="29.0018222" lon="119.3692166">
      <ele>195.26</ele>
    </rtept>
    <rtept lat="29.001857" lon="119.3691299">
      <ele>196.91</ele>
    </rtept>
    <rtept lat="29.0019048" lon="119.3690288">
      <ele>198.46</ele>
    </rtept>
    <rtept lat="29.0019287" lon="119.3689187">
      <ele>200.15</ele>
    </rtept>
    <rtept lat="29.0019263" lon="119.3689697">
      <ele>201.42</ele>
    </rtept>
    <rtept lat="29.0018834" lon="119.3690779">
      <ele>199.69</ele>
    </rtept>
    <rtept lat="29.0018518" lon="119.3692054">
      <ele>197.37</ele>
    </rtept>
    <rtept lat="29.0017758" lon="119.3692813">
      <ele>196.65</ele>
    </rtept>
    <rtept lat="29.0016868" lon="119.3692709">
      <ele>198.26</ele>
    </rtept>
    <rtept lat="29.0015873" lon="119.3692706">
      <ele>195.66</ele>
    </rtept>
    <rtept lat="29.0015839" lon="119.3693413">
      <ele>192.1</ele>
    </rtept>
    <rtept lat="29.0015146" lon="119.3693824">
      <ele>189.74</ele>
    </rtept>
    <rtept lat="29.0014846" lon="119.3694011">
      <ele>188.0</ele>
    </rtept>
    <rtept lat="29.0013975" lon="119.3693993">
      <ele>186.71</ele>
    </rtept>
    <rtept lat="29.0012957" lon="119.3694025">
      <ele>184.73</ele>
    </rtept>
    <rtept lat="29.0011909" lon="119.3693705">
      <ele>184.03</ele>
    </rtept>
    <rtept lat="29.0010983" lon="119.3693877">
      <ele>183.8</ele>
    </rtept>
    <rtept lat="29.001024" lon="119.3694503">
      <ele>184.1</ele>
    </rtept>
    <rtept lat="29.0009425" lon="119.3694515">
      <ele>187.11</ele>
    </rtept>
    <rtept lat="29.0008687" lon="119.369392">
      <ele>190.89</ele>
    </rtept>
    <rtept lat="29.0008176" lon="119.3694371">
      <ele>194.29</ele>
    </rtept>
    <rtept lat="29.0007442" lon="119.3694208">
      <ele>196.71</ele>
    </rtept>
    <rtept lat="29.0006612" lon="119.3693859">
      <ele>198.6</ele>
    </rtept>
    <rtept lat="29.0005876" lon="119.3694298">
      <ele>201.52</ele>
    </rtept>
    <rtept lat="29.000502" lon="119.3694553">
      <ele>205.13</ele>
    </rtept>
    <rtept lat="29.0004055" lon="119.3694308">
      <ele>211.35</ele>
    </rtept>
    <rtept lat="29.0003245" lon="119.3695387">
      <ele>215.24</ele>
    </rtept>
    <rtept lat="29.0002888" lon="119.3695683">
      <ele>217.94</ele>
    </rtept>
    <rtept lat="29.0002519" lon="119.3695044">
      <ele>220.2</ele>
    </rtept>
    <rtept lat="29.0002117" lon="119.3695553">
      <ele>224.33</ele>
    </rtept>
    <rtept lat="29.000134" lon="119.3695686">
      <ele>230.9</ele>
    </rtept>
    <rtept lat="29.0000371" lon="119.369565">
      <ele>235.46</ele>
    </rtept>
    <rtept lat="28.9999386" lon="119.3695567">
      <ele>240.98</ele>
    </rtept>
    <rtept lat="28.9998403" lon="119.3695654">
      <ele>245.81</ele>
    </rtept>
    <rtept lat="28.999757" lon="119.3695085">
      <ele>247.4</ele>
    </rtept>
    <rtept lat="28.999686" lon="119.3694309">
      <ele>250.58</ele>
    </rtept>
    <rtept lat="28.9996015" lon="119.3693941">
      <ele>252.27</ele>
    </rtept>
    <rtept lat="28.9995023" lon="119.3693977">
      <ele>249.96</ele>
    </rtept>
    <rtept lat="28.9994093" lon="119.3693879">
      <ele>245.89</ele>
    </rtept>
    <rtept lat="28.9993282" lon="119.3693316">
      <ele>243.01</ele>
    </rtept>
    <rtept lat="28.9992304" lon="119.369303">
      <ele>241.59</ele>
    </rtept>
    <rtept lat="28.9991572" lon="119.3692377">
      <ele>241.72</ele>
    </rtept>
    <rtept lat="28.9991486" lon="119.3691362">
      <ele>242.92</ele>
    </rtept>
    <rtept lat="28.9985275" lon="119.3690155">
      <ele>228.28</ele>
    </rtept>
    <rtept lat="28.9984533" lon="119.368995">
      <ele>227.77</ele>
    </rtept>
    <rtept lat="28.99836" lon="119.3689667">
      <ele>227.31</ele>
    </rtept>
    <rtept lat="28.99835" lon="119.3688517">
      <ele>226.83</ele>
    </rtept>
    <rtept lat="28.9983992" lon="119.3687564">
      <ele>228.67</ele>
    </rtept>
    <rtept lat="28.9984409" lon="119.3686531">
      <ele>229.8</ele>
    </rtept>
    <rtept lat="28.9984543" lon="119.3685473">
      <ele>230.7</ele>
    </rtept>
    <rtept lat="28.9984906" lon="119.3684544">
      <ele>231.22</ele>
    </rtept>
    <rtept lat="28.9984887" lon="119.3683551">
      <ele>231.64</ele>
    </rtept>
    <rtept lat="28.9985334" lon="119.3682665">
      <ele>231.45</ele>
    </rtept>
    <rtept lat="28.9986233" lon="119.36822">
      <ele>230.65</ele>
    </rtept>
    <rtept lat="28.9985267" lon="119.3682333">
      <ele>229.34</ele>
    </rtept>
    <rtept lat="28.9985668" lon="119.3681592">
      <ele>227.04</ele>
    </rtept>
    <rtept lat="28.9986363" lon="119.3680864">
      <ele>226.47</ele>
    </rtept>
    <rtept lat="28.9986028" lon="119.3679984">
      <ele>226.87</ele>
    </rtept>
    <rtept lat="28.9985621" lon="119.3679011">
      <ele>226.24</ele>
    </rtept>
    <rtept lat="28.9985251" lon="119.3677997">
      <ele>225.49</ele>
    </rtept>
    <rtept lat="28.9985066" lon="119.367761">
      <ele>224.55</ele>
    </rtept>
    <rtept lat="28.9984381" lon="119.3677349">
      <ele>223.92</ele>
    </rtept>
    <rtept lat="28.9984159" lon="119.3676555">
      <ele>223.57</ele>
    </rtept>
    <rtept lat="28.9983804" lon="119.3675507">
      <ele>224.4</ele>
    </rtept>
    <rtept lat="28.9983289" lon="119.3674558">
      <ele>227.58</ele>
    </rtept>
    <rtept lat="28.9983078" lon="119.3673531">
      <ele>231.46</ele>
    </rtept>
    <rtept lat="28.9982939" lon="119.3672432">
      <ele>233.93</ele>
    </rtept>
    <rtept lat="28.9982725" lon="119.3671378">
      <ele>235.81</ele>
    </rtept>
    <rtept lat="28.9982713" lon="119.367031">
      <ele>236.71</ele>
    </rtept>
    <rtept lat="28.9982686" lon="119.3669894">
      <ele>226.44</ele>
    </rtept>
    <rtept lat="28.998265" lon="119.3668583">
      <ele>227.93</ele>
    </rtept>
    <rtept lat="28.9982233" lon="119.36674">
      <ele>227.83</ele>
    </rtept>
    <rtept lat="28.9982028" lon="119.3666344">
      <ele>228.63</ele>
    </rtept>
    <rtept lat="28.9982517" lon="119.3665477">
      <ele>235.07</ele>
    </rtept>
    <rtept lat="28.998321" lon="119.3664758">
      <ele>242.48</ele>
    </rtept>
    <rtept lat="28.9983242" lon="119.3663835">
      <ele>248.34</ele>
    </rtept>
    <rtept lat="28.9983199" lon="119.3662747">
      <ele>249.83</ele>
    </rtept>
    <rtept lat="28.9983084" lon="119.3661615">
      <ele>250.25</ele>
    </rtept>
    <rtept lat="28.9982967" lon="119.3662717">
      <ele>250.53</ele>
    </rtept>
    <rtept lat="28.9983283" lon="119.36637">
      <ele>250.9</ele>
    </rtept>
    <rtept lat="28.9983487" lon="119.366474">
      <ele>250.47</ele>
    </rtept>
    <rtept lat="28.9983131" lon="119.3665751">
      <ele>250.53</ele>
    </rtept>
    <rtept lat="28.998205" lon="119.3666533">
      <ele>252.45</ele>
    </rtept>
    <rtept lat="28.9982" lon="119.3665367">
      <ele>250.32</ele>
    </rtept>
    <rtept lat="28.9981667" lon="119.3664383">
      <ele>247.43</ele>
    </rtept>
    <rtept lat="28.9980685" lon="119.3663879">
      <ele>245.61</ele>
    </rtept>
    <rtept lat="28.9981144" lon="119.3663062">
      <ele>244.53</ele>
    </rtept>
    <rtept lat="28.9981525" lon="119.3662575">
      <ele>242.88</ele>
    </rtept>
    <rtept lat="28.9981092" lon="119.3662072">
      <ele>240.65</ele>
    </rtept>
    <rtept lat="28.9980234" lon="119.3662125">
      <ele>237.06</ele>
    </rtept>
    <rtept lat="28.9980239" lon="119.3661386">
      <ele>230.8</ele>
    </rtept>
    <rtept lat="28.9980697" lon="119.3660259">
      <ele>224.82</ele>
    </rtept>
    <rtept lat="28.9981082" lon="119.3659116">
      <ele>222.92</ele>
    </rtept>
    <rtept lat="28.9981677" lon="119.3658177">
      <ele>221.4</ele>
    </rtept>
    <rtept lat="28.9981831" lon="119.3657145">
      <ele>219.64</ele>
    </rtept>
    <rtept lat="28.9981878" lon="119.3656064">
      <ele>217.51</ele>
    </rtept>
    <rtept lat="28.9981186" lon="119.3655785">
      <ele>214.58</ele>
    </rtept>
    <rtept lat="28.9980963" lon="119.3654964">
      <ele>211.71</ele>
    </rtept>
    <rtept lat="28.9980471" lon="119.3654092">
      <ele>208.69</ele>
    </rtept>
    <rtept lat="28.9979917" lon="119.3653134">
      <ele>203.06</ele>
    </rtept>
    <rtept lat="28.9979843" lon="119.3652102">
      <ele>199.42</ele>
    </rtept>
    <rtept lat="28.9979881" lon="119.3650963">
      <ele>196.14</ele>
    </rtept>
    <rtept lat="28.9979721" lon="119.3650029">
      <ele>211.34</ele>
    </rtept>
    <rtept lat="28.9980054" lon="119.3649116">
      <ele>195.49</ele>
    </rtept>
    <rtept lat="28.9979968" lon="119.3648175">
      <ele>185.39</ele>
    </rtept>
    <rtept lat="28.9979747" lon="119.3647067">
      <ele>178.38</ele>
    </rtept>
    <rtept lat="28.9979481" lon="119.3645998">
      <ele>173.57</ele>
    </rtept>
    <rtept lat="28.9979286" lon="119.3644913">
      <ele>169.76</ele>
    </rtept>
    <rtept lat="28.9978948" lon="119.3643912">
      <ele>165.73</ele>
    </rtept>
    <rtept lat="28.997906" lon="119.3642769">
      <ele>161.76</ele>
    </rtept>
    <rtept lat="28.9979006" lon="119.3641683">
      <ele>158.9</ele>
    </rtept>
    <rtept lat="28.9979009" lon="119.3640625">
      <ele>156.66</ele>
    </rtept>
    <rtept lat="28.9978918" lon="119.3639588">
      <ele>154.53</ele>
    </rtept>
    <rtept lat="28.9978714" lon="119.3638546">
      <ele>151.68</ele>
    </rtept>
    <rtept lat="28.9978947" lon="119.3637361">
      <ele>148.37</ele>
    </rtept>
    <rtept lat="28.9979122" lon="119.3636275">
      <ele>145.85</ele>
    </rtept>
    <rtept lat="28.9978693" lon="119.3635406">
      <ele>144.15</ele>
    </rtept>
    <rtept lat="28.9978587" lon="119.3634404">
      <ele>142.49</ele>
    </rtept>
    <rtept lat="28.997879" lon="119.3633302">
      <ele>140.95</ele>
    </rtept>
    <rtept lat="28.9978892" lon="119.3632226">
      <ele>139.68</ele>
    </rtept>
    <rtept lat="28.9978713" lon="119.3631066">
      <ele>138.83</ele>
    </rtept>
    <rtept lat="28.9978641" lon="119.3629852">
      <ele>138.56</ele>
    </rtept>
    <rtept lat="28.9978432" lon="119.3628611">
      <ele>138.4</ele>
    </rtept>
    <rtept lat="28.9977787" lon="119.3627817">
      <ele>137.54</ele>
    </rtept>
    <rtept lat="28.9977266" lon="119.3626802">
      <ele>135.12</ele>
    </rtept>
    <rtept lat="28.9977257" lon="119.3625723">
      <ele>132.74</ele>
    </rtept>
    <rtept lat="28.9977405" lon="119.3624645">
      <ele>131.13</ele>
    </rtept>
    <rtept lat="28.9977412" lon="119.3623546">
      <ele>129.96</ele>
    </rtept>
    <rtept lat="28.9977309" lon="119.3622455">
      <ele>129.29</ele>
    </rtept>
    <rtept lat="28.9977099" lon="119.362128">
      <ele>129.55</ele>
    </rtept>
    <rtept lat="28.9976929" lon="119.3620063">
      <ele>129.83</ele>
    </rtept>
    <rtept lat="28.9976569" lon="119.3619049">
      <ele>129.86</ele>
    </rtept>
    <rtept lat="28.9976343" lon="119.3617988">
      <ele>130.01</ele>
    </rtept>
    <rtept lat="28.9976277" lon="119.361689">
      <ele>130.91</ele>
    </rtept>
    <rtept lat="28.9976242" lon="119.3615813">
      <ele>132.15</ele>
    </rtept>
    <rtept lat="28.9976336" lon="119.3614645">
      <ele>133.68</ele>
    </rtept>
    <rtept lat="28.9976369" lon="119.361353">
      <ele>135.88</ele>
    </rtept>
    <rtept lat="28.997657" lon="119.3612491">
      <ele>137.57</ele>
    </rtept>
    <rtept lat="28.9976805" lon="119.3611452">
      <ele>138.4</ele>
    </rtept>
    <rtept lat="28.9976804" lon="119.3610298">
      <ele>138.53</ele>
    </rtept>
    <rtept lat="28.9976722" lon="119.3609123">
      <ele>137.87</ele>
    </rtept>
    <rtept lat="28.9977371" lon="119.3608973">
      <ele>136.81</ele>
    </rtept>
    <rtept lat="28.9978158" lon="119.360855">
      <ele>134.65</ele>
    </rtept>
    <rtept lat="28.997851" lon="119.3607685">
      <ele>132.65</ele>
    </rtept>
    <rtept lat="28.9978927" lon="119.3606683">
      <ele>130.56</ele>
    </rtept>
    <rtept lat="28.9979378" lon="119.360566">
      <ele>128.95</ele>
    </rtept>
    <rtept lat="28.9979805" lon="119.3604658">
      <ele>127.33</ele>
    </rtept>
    <rtept lat="28.9980636" lon="119.3604225">
      <ele>125.34</ele>
    </rtept>
    <rtept lat="28.9981715" lon="119.3604116">
      <ele>123.56</ele>
    </rtept>
    <rtept lat="28.9982826" lon="119.3603985">
      <ele>121.99</ele>
    </rtept>
    <rtept lat="28.9983309" lon="119.3603974">
      <ele>120.4</ele>
    </rtept>
    <rtept lat="28.9984313" lon="119.3604092">
      <ele>119.2</ele>
    </rtept>
    <rtept lat="28.9985382" lon="119.3604203">
      <ele>118.21</ele>
    </rtept>
    <rtept lat="28.9986486" lon="119.3604072">
      <ele>117.56</ele>
    </rtept>
    <rtept lat="28.9987553" lon="119.3603982">
      <ele>117.49</ele>
    </rtept>
    <rtept lat="28.9988587" lon="119.3604193">
      <ele>116.94</ele>
    </rtept>
    <rtept lat="28.9989619" lon="119.3604314">
      <ele>117.35</ele>
    </rtept>
    <rtept lat="28.9990576" lon="119.3604539">
      <ele>117.84</ele>
    </rtept>
    <rtept lat="28.9991544" lon="119.3604861">
      <ele>118.26</ele>
    </rtept>
    <rtept lat="28.9992432" lon="119.3605462">
      <ele>117.93</ele>
    </rtept>
    <rtept lat="28.9993055" lon="119.3606343">
      <ele>117.49</ele>
    </rtept>
    <rtept lat="28.9993498" lon="119.3607381">
      <ele>117.88</ele>
    </rtept>
    <rtept lat="28.9994069" lon="119.3608413">
      <ele>118.62</ele>
    </rtept>
    <rtept lat="28.9994642" lon="119.3609459">
      <ele>118.74</ele>
    </rtept>
    <rtept lat="28.9995383" lon="119.3610372">
      <ele>118.29</ele>
    </rtept>
    <rtept lat="28.9995948" lon="119.3611317">
      <ele>117.99</ele>
    </rtept>
    <rtept lat="28.9996165" lon="119.361164">
      <ele>117.82</ele>
    </rtept>
    <rtept lat="28.9996248" lon="119.3612612">
      <ele>116.82</ele>
    </rtept>
    <rtept lat="28.9996341" lon="119.3613692">
      <ele>116.47</ele>
    </rtept>
    <rtept lat="28.9997007" lon="119.3614331">
      <ele>116.44</ele>
    </rtept>
    <rtept lat="28.9997918" lon="119.361448">
      <ele>115.82</ele>
    </rtept>
    <rtept lat="28.9998591" lon="119.3615219">
      <ele>116.63</ele>
    </rtept>
    <rtept lat="28.9999137" lon="119.3615882">
      <ele>118.08</ele>
    </rtept>
    <rtept lat="28.9999773" lon="119.3616717">
      <ele>119.51</ele>
    </rtept>
    <rtept lat="29.0000361" lon="119.3617586">
      <ele>120.62</ele>
    </rtept>
    <rtept lat="29.0001179" lon="119.3617732">
      <ele>122.94</ele>
    </rtept>
    <rtept lat="29.0001846" lon="119.3618418">
      <ele>127.01</ele>
    </rtept>
    <rtept lat="29.0002583" lon="119.3618123">
      <ele>129.5</ele>
    </rtept>
    <rtept lat="29.0003374" lon="119.3618324">
      <ele>132.34</ele>
    </rtept>
    <rtept lat="29.0003529" lon="119.3619253">
      <ele>135.63</ele>
    </rtept>
    <rtept lat="29.0003837" lon="119.3620273">
      <ele>138.85</ele>
    </rtept>
    <rtept lat="29.0004333" lon="119.3621259">
      <ele>142.53</ele>
    </rtept>
    <rtept lat="29.0005144" lon="119.3622094">
      <ele>145.91</ele>
    </rtept>
    <rtept lat="29.0005928" lon="119.3622836">
      <ele>148.83</ele>
    </rtept>
    <rtept lat="29.0006455" lon="119.3623784">
      <ele>151.49</ele>
    </rtept>
    <rtept lat="29.0006817" lon="119.3624764">
      <ele>153.34</ele>
    </rtept>
    <rtept lat="29.0007191" lon="119.3625922">
      <ele>154.61</ele>
    </rtept>
    <rtept lat="29.0007795" lon="119.3626938">
      <ele>154.65</ele>
    </rtept>
    <rtept lat="29.0008315" lon="119.3627941">
      <ele>154.89</ele>
    </rtept>
    <rtept lat="29.0008733" lon="119.3628926">
      <ele>155.8</ele>
    </rtept>
    <rtept lat="29.0009539" lon="119.3629493">
      <ele>157.52</ele>
    </rtept>
    <rtept lat="29.001033" lon="119.3630035">
      <ele>159.36</ele>
    </rtept>
    <rtept lat="29.0010971" lon="119.3630741">
      <ele>161.66</ele>
    </rtept>
    <rtept lat="29.0011749" lon="119.3631345">
      <ele>164.69</ele>
    </rtept>
    <rtept lat="29.001228" lon="119.3632162">
      <ele>166.84</ele>
    </rtept>
    <rtept lat="29.0013016" lon="119.3632685">
      <ele>168.72</ele>
    </rtept>
    <rtept lat="29.00138" lon="119.3633229">
      <ele>173.14</ele>
    </rtept>
    <rtept lat="29.0014357" lon="119.3634018">
      <ele>178.63</ele>
    </rtept>
    <rtept lat="29.0014626" lon="119.3635051">
      <ele>183.09</ele>
    </rtept>
    <rtept lat="29.0014761" lon="119.3636125">
      <ele>191.01</ele>
    </rtept>
    <rtept lat="29.0014455" lon="119.363717">
      <ele>198.02</ele>
    </rtept>
    <rtept lat="29.0013705" lon="119.3637829">
      <ele>203.17</ele>
    </rtept>
    <rtept lat="29.0012867" lon="119.363855">
      <ele>208.95</ele>
    </rtept>
    <rtept lat="29.0013417" lon="119.3639517">
      <ele>211.94</ele>
    </rtept>
    <rtept lat="29.0013938" lon="119.3640512">
      <ele>212.14</ele>
    </rtept>
    <rtept lat="29.0014507" lon="119.364146">
      <ele>211.39</ele>
    </rtept>
    <rtept lat="29.0013948" lon="119.3641993">
      <ele>210.58</ele>
    </rtept>
    <rtept lat="29.0013571" lon="119.364284">
      <ele>207.49</ele>
    </rtept>
    <rtept lat="29.0014017" lon="119.3643561">
      <ele>202.93</ele>
    </rtept>
    <rtept lat="29.0013535" lon="119.3644068">
      <ele>199.31</ele>
    </rtept>
    <rtept lat="29.0013381" lon="119.3644954">
      <ele>195.35</ele>
    </rtept>
    <rtept lat="29.0013381" lon="119.3646053">
      <ele>190.98</ele>
    </rtept>
    <rtept lat="29.0012961" lon="119.364698">
      <ele>186.86</ele>
    </rtept>
    <rtept lat="29.0013231" lon="119.3647876">
      <ele>181.89</ele>
    </rtept>
    <rtept lat="29.0013295" lon="119.3648947">
      <ele>178.19</ele>
    </rtept>
    <rtept lat="29.0013519" lon="119.3650021">
      <ele>174.11</ele>
    </rtept>
    <rtept lat="29.001356" lon="119.3651087">
      <ele>169.5</ele>
    </rtept>
    <rtept lat="29.0014024" lon="119.3651958">
      <ele>164.38</ele>
    </rtept>
    <rtept lat="29.0014973" lon="119.3652154">
      <ele>160.73</ele>
    </rtept>
    <rtept lat="29.0015978" lon="119.3652063">
      <ele>158.22</ele>
    </rtept>
    <rtept lat="29.001684" lon="119.3652548">
      <ele>157.53</ele>
    </rtept>
    <rtept lat="29.0017189" lon="119.3653482">
      <ele>158.33</ele>
    </rtept>
    <rtept lat="29.0017396" lon="119.3654568">
      <ele>160.81</ele>
    </rtept>
    <rtept lat="29.0017703" lon="119.3655629">
      <ele>164.16</ele>
    </rtept>
    <rtept lat="29.0018179" lon="119.3656557">
      <ele>167.71</ele>
    </rtept>
    <rtept lat="29.0019062" lon="119.3656998">
      <ele>171.53</ele>
    </rtept>
    <rtept lat="29.0019812" lon="119.3657613">
      <ele>175.82</ele>
    </rtept>
    <rtept lat="29.0020613" lon="119.3658181">
      <ele>180.37</ele>
    </rtept>
    <rtept lat="29.0021101" lon="119.365751">
      <ele>185.42</ele>
    </rtept>
    <rtept lat="29.0021831" lon="119.365688">
      <ele>187.9</ele>
    </rtept>
    <rtept lat="29.0022714" lon="119.3656548">
      <ele>193.28</ele>
    </rtept>
    <rtept lat="29.0023572" lon="119.3656848">
      <ele>196.86</ele>
    </rtept>
    <rtept lat="29.002465" lon="119.3657467">
      <ele>198.64</ele>
    </rtept>
    <rtept lat="29.00254" lon="119.3658117">
      <ele>199.4</ele>
    </rtept>
    <rtept lat="29.0026333" lon="119.36585">
      <ele>200.13</ele>
    </rtept>
    <rtept lat="29.0027295" lon="119.3658319">
      <ele>200.29</ele>
    </rtept>
    <rtept lat="29.002821" lon="119.3658232">
      <ele>199.43</ele>
    </rtept>
    <rtept lat="29.0029161" lon="119.3658534">
      <ele>199.94</ele>
    </rtept>
    <rtept lat="29.0029613" lon="119.3657905">
      <ele>202.07</ele>
    </rtept>
    <rtept lat="29.0030281" lon="119.3657334">
      <ele>205.61</ele>
    </rtept>
    <rtept lat="29.0030805" lon="119.3657839">
      <ele>208.45</ele>
    </rtept>
    <rtept lat="29.0030217" lon="119.36573">
      <ele>211.44</ele>
    </rtept>
    <rtept lat="29.0029683" lon="119.3658233">
      <ele>212.93</ele>
    </rtept>
    <rtept lat="29.0028783" lon="119.36582">
      <ele>211.41</ele>
    </rtept>
    <rtept lat="29.0027841" lon="119.3658251">
      <ele>208.52</ele>
    </rtept>
    <rtept lat="29.0026865" lon="119.3658369">
      <ele>206.28</ele>
    </rtept>
    <rtept lat="29.0025942" lon="119.365827">
      <ele>204.35</ele>
    </rtept>
    <rtept lat="29.0025051" lon="119.3657751">
      <ele>202.82</ele>
    </rtept>
    <rtept lat="29.0024197" lon="119.3657213">
      <ele>201.82</ele>
    </rtept>
    <rtept lat="29.002329" lon="119.3656794">
      <ele>201.47</ele>
    </rtept>
    <rtept lat="29.0022286" lon="119.3656624">
      <ele>201.61</ele>
    </rtept>
    <rtept lat="29.0021347" lon="119.3656571">
      <ele>201.0</ele>
    </rtept>
    <rtept lat="29.0020652" lon="119.3657212">
      <ele>198.94</ele>
    </rtept>
    <rtept lat="29.0020407" lon="119.3658243">
      <ele>196.43</ele>
    </rtept>
    <rtept lat="29.002054" lon="119.365941">
      <ele>193.02</ele>
    </rtept>
    <rtept lat="29.0020728" lon="119.3660681">
      <ele>190.21</ele>
    </rtept>
    <rtept lat="29.0020874" lon="119.3661859">
      <ele>186.94</ele>
    </rtept>
    <rtept lat="29.0020981" lon="119.3662993">
      <ele>183.57</ele>
    </rtept>
    <rtept lat="29.0021077" lon="119.3664129">
      <ele>179.28</ele>
    </rtept>
    <rtept lat="29.0021491" lon="119.3665152">
      <ele>175.03</ele>
    </rtept>
    <rtept lat="29.0022159" lon="119.3666045">
      <ele>171.62</ele>
    </rtept>
    <rtept lat="29.0022537" lon="119.3667097">
      <ele>168.86</ele>
    </rtept>
    <rtept lat="29.0022712" lon="119.3668242">
      <ele>167.89</ele>
    </rtept>
    <rtept lat="29.0023304" lon="119.3669042">
      <ele>167.76</ele>
    </rtept>
    <rtept lat="29.0024098" lon="119.3669634">
      <ele>166.14</ele>
    </rtept>
    <rtept lat="29.0025014" lon="119.3670166">
      <ele>163.16</ele>
    </rtept>
    <rtept lat="29.0025466" lon="119.3671045">
      <ele>160.55</ele>
    </rtept>
    <rtept lat="29.0025919" lon="119.3672015">
      <ele>157.73</ele>
    </rtept>
    <rtept lat="29.0026702" lon="119.3672418">
      <ele>154.02</ele>
    </rtept>
    <rtept lat="29.0027689" lon="119.3672453">
      <ele>148.68</ele>
    </rtept>
    <rtept lat="29.0028537" lon="119.3673016">
      <ele>143.83</ele>
    </rtept>
    <rtept lat="29.0029429" lon="119.367313">
      <ele>139.17</ele>
    </rtept>
    <rtept lat="29.0030434" lon="119.3673331">
      <ele>134.58</ele>
    </rtept>
    <rtept lat="29.0031441" lon="119.3673383">
      <ele>131.58</ele>
    </rtept>
    <rtept lat="29.0032451" lon="119.3673072">
      <ele>129.05</ele>
    </rtept>
    <rtept lat="29.0033484" lon="119.3673002">
      <ele>127.22</ele>
    </rtept>
    <rtept lat="29.0034536" lon="119.3673147">
      <ele>125.71</ele>
    </rtept>
    <rtept lat="29.0035491" lon="119.3673508">
      <ele>124.93</ele>
    </rtept>
    <rtept lat="29.0036396" lon="119.3673661">
      <ele>125.39</ele>
    </rtept>
    <rtept lat="29.003735" lon="119.3673708">
      <ele>126.08</ele>
    </rtept>
    <rtept lat="29.0038313" lon="119.3673955">
      <ele>125.83</ele>
    </rtept>
    <rtept lat="29.003933" lon="119.3674346">
      <ele>125.56</ele>
    </rtept>
    <rtept lat="29.0040492" lon="119.3674393">
      <ele>125.58</ele>
    </rtept>
    <rtept lat="29.004149" lon="119.3674252">
      <ele>125.46</ele>
    </rtept>
    <rtept lat="29.0042431" lon="119.3674106">
      <ele>125.78</ele>
    </rtept>
    <rtept lat="29.0043431" lon="119.367415">
      <ele>126.56</ele>
    </rtept>
    <rtept lat="29.0044406" lon="119.3674599">
      <ele>126.84</ele>
    </rtept>
    <rtept lat="29.0045348" lon="119.3675001">
      <ele>127.47</ele>
    </rtept>
    <rtept lat="29.0046328" lon="119.3675425">
      <ele>128.77</ele>
    </rtept>
    <rtept lat="29.004725" lon="119.367557">
      <ele>129.64</ele>
    </rtept>
    <rtept lat="29.004815" lon="119.3675544">
      <ele>129.15</ele>
    </rtept>
    <rtept lat="29.0049044" lon="119.3676043">
      <ele>129.04</ele>
    </rtept>
    <rtept lat="29.0049926" lon="119.3676899">
      <ele>128.68</ele>
    </rtept>
    <rtept lat="29.0050818" lon="119.367754">
      <ele>128.52</ele>
    </rtept>
    <rtept lat="29.0051628" lon="119.3678323">
      <ele>127.86</ele>
    </rtept>
    <rtept lat="29.0052421" lon="119.3678952">
      <ele>124.65</ele>
    </rtept>
    <rtept lat="29.0053199" lon="119.3679628">
      <ele>122.18</ele>
    </rtept>
    <rtept lat="29.0054001" lon="119.3680136">
      <ele>119.43</ele>
    </rtept>
    <rtept lat="29.0054676" lon="119.368102">
      <ele>117.44</ele>
    </rtept>
    <rtept lat="29.005563" lon="119.3681812">
      <ele>116.61</ele>
    </rtept>
    <rtept lat="29.0056405" lon="119.3682568">
      <ele>116.9</ele>
    </rtept>
    <rtept lat="29.0057129" lon="119.3683519">
      <ele>116.52</ele>
    </rtept>
    <rtept lat="29.0057624" lon="119.3684455">
      <ele>115.86</ele>
    </rtept>
    <rtept lat="29.0058116" lon="119.3685536">
      <ele>115.02</ele>
    </rtept>
    <rtept lat="29.0058722" lon="119.3686416">
      <ele>114.45</ele>
    </rtept>
    <rtept lat="29.005939" lon="119.3687162">
      <ele>114.43</ele>
    </rtept>
    <rtept lat="29.0060217" lon="119.3687676">
      <ele>114.93</ele>
    </rtept>
    <rtept lat="29.0061047" lon="119.3688254">
      <ele>115.74</ele>
    </rtept>
    <rtept lat="29.0061792" lon="119.3688898">
      <ele>116.71</ele>
    </rtept>
    <rtept lat="29.0062625" lon="119.3689509">
      <ele>117.78</ele>
    </rtept>
    <rtept lat="29.0063367" lon="119.3690159">
      <ele>117.66</ele>
    </rtept>
    <rtept lat="29.0064134" lon="119.3690975">
      <ele>117.59</ele>
    </rtept>
    <rtept lat="29.0065001" lon="119.3691774">
      <ele>117.16</ele>
    </rtept>
    <rtept lat="29.0065729" lon="119.3692533">
      <ele>117.27</ele>
    </rtept>
    <rtept lat="29.0066476" lon="119.3693335">
      <ele>117.97</ele>
    </rtept>
    <rtept lat="29.0066821" lon="119.3694354">
      <ele>118.37</ele>
    </rtept>
    <rtept lat="29.0066933" lon="119.3695587">
      <ele>118.12</ele>
    </rtept>
    <rtept lat="29.0066933" lon="119.3695587">
      <ele>118.12</ele>
    </rtept>
  </rte>
  <wpt lat="29.0066333" lon="119.3695333">
    <ele>110.2</ele>
    <time>2026-09-16T02:51:43Z</time>
    <name><![CDATA[免费停车
        ]]>
    </name>
    <cmt>免费停车
        </cmt>
    <desc><![CDATA[]]>
    </desc>
    <sym>Flag, Blue</sym>
    <type>user</type>
    <extensions>
      <PosType>0</PosType>
      <Speed>0.78649557</Speed>
      <Accuracy>1.1</Accuracy>
      <Time>1789527103700</Time>
      <description><![CDATA[]]>
      </description>
      <FileId>1678830363</FileId>
      <FileSize>1340484</FileSize>
      <FileType>0</FileType>
    </extensions>
  </wpt>
  <wpt lat="29.0066123" lon="119.3693205">
    <ele>110.3</ele>
    <time>2026-09-16T02:52:07Z</time>
    <name><![CDATA[公路直行，野路左转
        ]]>
    </name>
    <cmt>公路直行，野路左转
        </cmt>
    <desc><![CDATA[]]>
    </desc>
    <sym>Flag, Blue</sym>
    <type>user</type>
    <extensions>
      <PosType>0</PosType>
      <Speed>1.317689</Speed>
      <Accuracy>1.4</Accuracy>
      <Time>1789527127747</Time>
      <description><![CDATA[]]>
      </description>
      <FileId>1678830362</FileId>
      <FileSize>1813130</FileSize>
      <FileType>0</FileType>
    </extensions>
  </wpt>
  <wpt lat="29.0055719" lon="119.3681366">
    <ele>112.4</ele>
    <time>2026-09-16T02:54:41Z</time>
    <name><![CDATA[左转
        ]]>
    </name>
    <cmt>左转
        </cmt>
    <desc><![CDATA[]]>
    </desc>
    <sym>Flag, Blue</sym>
    <type>user</type>
    <extensions>
      <PosType>0</PosType>
      <Speed>1.1622428</Speed>
      <Accuracy>1.3</Accuracy>
      <Time>1789527281780</Time>
      <description><![CDATA[]]>
      </description>
    </extensions>
  </wpt>
  <wpt lat="29.0050913" lon="119.367716">
    <ele>112.3</ele>
    <time>2026-09-16T02:58:03Z</time>
    <name><![CDATA[工作日免费，假期20
        ]]>
    </name>
    <cmt>工作日免费，假期20
        </cmt>
    <desc><![CDATA[]]>
    </desc>
    <sym>Flag, Blue</sym>
    <type>user</type>
    <extensions>
      <PosType>0</PosType>
      <Speed>1.0886375</Speed>
      <Accuracy>1.5</Accuracy>
      <Time>1789527483760</Time>
      <description><![CDATA[]]>
      </description>
      <FileId>1678830361</FileId>
      <FileSize>1312175</FileSize>
      <FileType>0</FileType>
    </extensions>
  </wpt>
  <wpt lat="29.0028931" lon="119.3674342">
    <ele>122.7</ele>
    <time>2026-09-16T03:02:51Z</time>
    <name><![CDATA[厕所，下山方向
        ]]>
    </name>
    <cmt>厕所，下山方向
        </cmt>
    <desc><![CDATA[]]>
    </desc>
    <sym>Flag, Blue</sym>
    <type>user</type>
    <extensions>
      <PosType>0</PosType>
      <Speed>1.3449692</Speed>
      <Accuracy>1.5</Accuracy>
      <Time>1789527771715</Time>
      <description><![CDATA[]]>
      </description>
      <FileId>1678830360</FileId>
      <FileSize>1272128</FileSize>
      <FileType>0</FileType>
    </extensions>
  </wpt>
  <wpt lat="29.0027631" lon="119.3674128">
    <ele>122.5</ele>
    <time>2026-09-16T03:03:21Z</time>
    <name><![CDATA[摩崖石刻
        ]]>
    </name>
    <cmt>摩崖石刻
        </cmt>
    <desc><![CDATA[]]>
    </desc>
    <sym>Flag, Blue</sym>
    <type>user</type>
    <extensions>
      <PosType>0</PosType>
      <Speed>0.6253875</Speed>
      <Accuracy>1.6</Accuracy>
      <Time>1789527801746</Time>
      <description><![CDATA[]]>
      </description>
      <FileId>1678830359</FileId>
      <FileSize>1139448</FileSize>
      <FileType>0</FileType>
    </extensions>
  </wpt>
  <wpt lat="29.0025881" lon="119.3675107">
    <ele>123.8</ele>
    <time>2026-09-16T03:04:01Z</time>
    <name><![CDATA[左转
        ]]>
    </name>
    <cmt>左转
        </cmt>
    <desc><![CDATA[]]>
    </desc>
    <sym>Flag, Blue</sym>
    <type>user</type>
    <extensions>
      <PosType>0</PosType>
      <Speed>0.99186975</Speed>
      <Accuracy>1.7</Accuracy>
      <Time>1789527841705</Time>
      <description><![CDATA[]]>
      </description>
    </extensions>
  </wpt>
  <wpt lat="29.0023985" lon="119.3683444">
    <ele>142.0</ele>
    <time>2026-09-16T03:09:53Z</time>
    <name><![CDATA[左转点将台
        ]]>
    </name>
    <cmt>左转点将台
        </cmt>
    <desc><![CDATA[]]>
    </desc>
    <sym>Flag, Blue</sym>
    <type>user</type>
    <extensions>
      <PosType>0</PosType>
      <Speed>1.2152592</Speed>
      <Accuracy>1.4</Accuracy>
      <Time>1789528193762</Time>
      <description><![CDATA[]]>
      </description>
    </extensions>
  </wpt>
  <wpt lat="29.0025567" lon="119.3683467">
    <ele>156.8</ele>
    <time>2026-09-16T03:12:53Z</time>
    <name><![CDATA[点将台
        ]]>
    </name>
    <cmt>点将台
        </cmt>
    <desc><![CDATA[]]>
    </desc>
    <sym>Flag, Blue</sym>
    <type>user</type>
    <extensions>
      <PosType>0</PosType>
      <Speed>0.0</Speed>
      <Accuracy>1.4</Accuracy>
      <Time>1789528373761</Time>
      <description><![CDATA[]]>
      </description>
      <FileId>1678830357</FileId>
      <FileSize>1337930</FileSize>
      <FileType>0</FileType>
    </extensions>
  </wpt>
  <wpt lat="29.0023426" lon="119.3687769">
    <ele>142.9</ele>
    <time>2026-09-16T03:18:29Z</time>
    <name><![CDATA[左转天门
        ]]>
    </name>
    <cmt>左转天门
        </cmt>
    <desc><![CDATA[]]>
    </desc>
    <sym>Flag, Blue</sym>
    <type>user</type>
    <extensions>
      <PosType>0</PosType>
      <Speed>0.6001661</Speed>
      <Accuracy>1.5</Accuracy>
      <Time>1789528709722</Time>
      <description><![CDATA[]]>
      </description>
    </extensions>
  </wpt>
  <wpt lat="29.0029651" lon="119.3687121">
    <ele>184.7</ele>
    <time>2026-09-16T03:21:19Z</time>
    <name><![CDATA[望兰亭
        ]]>
    </name>
    <cmt>望兰亭
        </cmt>
    <desc><![CDATA[]]>
    </desc>
    <sym>Flag, Blue</sym>
    <type>user</type>
    <extensions>
      <PosType>0</PosType>
      <Speed>0.5888422</Speed>
      <Accuracy>1.4</Accuracy>
      <Time>1789528879734</Time>
      <description><![CDATA[]]>
      </description>
      <FileId>1678830341</FileId>
      <FileSize>678521</FileSize>
      <FileType>0</FileType>
    </extensions>
  </wpt>
  <wpt lat="29.0029817" lon="119.3686683">
    <ele>181.6</ele>
    <time>2026-09-16T03:32:45Z</time>
    <name><![CDATA[停车场野路直接到这
        ]]>
    </name>
    <cmt>停车场野路直接到这
        </cmt>
    <desc><![CDATA[]]>
    </desc>
    <sym>Flag, Blue</sym>
    <type>user</type>
    <extensions>
      <PosType>0</PosType>
      <Speed>0.59501886</Speed>
      <Accuracy>1.4</Accuracy>
      <Time>1789529565831</Time>
      <description><![CDATA[]]>
      </description>
    </extensions>
  </wpt>
  <wpt lat="29.0019263" lon="119.3689697">
    <ele>197.4</ele>
    <time>2026-09-16T03:40:15Z</time>
    <name><![CDATA[拍照就行，没路
        ]]>
    </name>
    <cmt>拍照就行，没路
        </cmt>
    <desc><![CDATA[]]>
    </desc>
    <sym>Flag, Blue</sym>
    <type>user</type>
    <extensions>
      <PosType>0</PosType>
      <Speed>0.7767158</Speed>
      <Accuracy>1.5</Accuracy>
      <Time>1789530015737</Time>
      <description><![CDATA[]]>
      </description>
      <FileId>1678830339</FileId>
      <FileSize>1107116</FileSize>
      <FileType>0</FileType>
    </extensions>
  </wpt>
  <wpt lat="29.0005876" lon="119.3694298">
    <ele>209.9</ele>
    <time>2026-09-16T03:46:27Z</time>
    <name><![CDATA[
        ]]>
    </name>
    <cmt>
        </cmt>
    <desc><![CDATA[]]>
    </desc>
    <sym>Flag, Blue</sym>
    <type>user</type>
    <extensions>
      <PosType>0</PosType>
      <Speed>0.6614181</Speed>
      <Accuracy>2.2</Accuracy>
      <Time>1789530387721</Time>
      <description><![CDATA[]]>
      </description>
      <FileId>1678830337</FileId>
      <FileSize>1486466</FileSize>
      <FileType>0</FileType>
    </extensions>
  </wpt>
  <wpt lat="28.9991483" lon="119.3691617">
    <ele>245.1</ele>
    <time>2026-09-16T03:55:07Z</time>
    <name><![CDATA[直行仙人桥
        ]]>
    </name>
    <cmt>直行仙人桥
        </cmt>
    <desc><![CDATA[]]>
    </desc>
    <sym>Flag, Blue</sym>
    <type>user</type>
    <extensions>
      <PosType>0</PosType>
      <Speed>0.0</Speed>
      <Accuracy>1.2</Accuracy>
      <Time>1789530907748</Time>
      <description><![CDATA[]]>
      </description>
    </extensions>
  </wpt>
  <wpt lat="28.9983084" lon="119.3661615">
    <ele>250.9</ele>
    <time>2026-09-16T04:54:27Z</time>
    <name><![CDATA[野景点
        ]]>
    </name>
    <cmt>野景点
        </cmt>
    <desc><![CDATA[]]>
    </desc>
    <sym>Flag, Blue</sym>
    <type>user</type>
    <extensions>
      <PosType>0</PosType>
      <Speed>0.44574943</Speed>
      <Accuracy>1.3</Accuracy>
      <Time>1789534467776</Time>
      <description><![CDATA[]]>
      </description>
      <FileId>1678830336</FileId>
      <FileSize>1268097</FileSize>
      <FileType>0</FileType>
    </extensions>
  </wpt>
  <wpt lat="28.998205" lon="119.3666533">
    <ele>247.5</ele>
    <time>2026-09-16T05:10:22Z</time>
    <name><![CDATA[直行，右转野景点
        ]]>
    </name>
    <cmt>直行，右转野景点
        </cmt>
    <desc><![CDATA[]]>
    </desc>
    <sym>Flag, Blue</sym>
    <type>user</type>
    <extensions>
      <PosType>0</PosType>
      <Speed>0.25375804</Speed>
      <Accuracy>1.5</Accuracy>
      <Time>1789535422769</Time>
      <description><![CDATA[]]>
      </description>
      <FileId>1678830334</FileId>
      <FileSize>2505634</FileSize>
      <FileType>0</FileType>
    </extensions>
  </wpt>
  <wpt lat="29.0023572" lon="119.3656848">
    <ele>201.0</ele>
    <time>2026-09-16T06:20:14Z</time>
    <name><![CDATA[古天街
        ]]>
    </name>
    <cmt>古天街
        </cmt>
    <desc><![CDATA[]]>
    </desc>
    <sym>Flag, Blue</sym>
    <type>user</type>
    <extensions>
      <PosType>0</PosType>
      <Speed>0.76539195</Speed>
      <Accuracy>1.4</Accuracy>
      <Time>1789539614725</Time>
      <description><![CDATA[]]>
      </description>
      <FileId>1678830331</FileId>
      <FileSize>741404</FileSize>
      <FileType>0</FileType>
    </extensions>
  </wpt>
  <wpt lat="29.0030805" lon="119.3657839">
    <ele>215.4</ele>
    <time>2026-09-16T06:30:52Z</time>
    <name><![CDATA[亭子
        ]]>
    </name>
    <cmt>亭子
        </cmt>
    <desc><![CDATA[]]>
    </desc>
    <sym>Flag, Blue</sym>
    <type>user</type>
    <extensions>
      <PosType>0</PosType>
      <Speed>0.8920136</Speed>
      <Accuracy>1.3</Accuracy>
      <Time>1789540252811</Time>
      <description><![CDATA[]]>
      </description>
      <FileId>1678830330</FileId>
      <FileSize>961338</FileSize>
      <FileType>0</FileType>
    </extensions>
  </wpt>
  <wpt lat="29.0020652" lon="119.3657212">
    <ele>193.1</ele>
    <time>2026-09-16T06:41:12Z</time>
    <name><![CDATA[左转
        ]]>
    </name>
    <cmt>左转
        </cmt>
    <desc><![CDATA[]]>
    </desc>
    <sym>Flag, Blue</sym>
    <type>user</type>
    <extensions>
      <PosType>0</PosType>
      <Speed>0.0</Speed>
      <Accuracy>1.4</Accuracy>
      <Time>1789540872769</Time>
      <description><![CDATA[]]>
      </description>
    </extensions>
  </wpt>
</gpx>