<?xml version='1.0' encoding='UTF-8' standalone='yes' ?>
<gpx version="1.1" creator="GPSBabel - http://www.gpsbabel.org" xmlns:xsi="http://www.w3.org/2001/XMLSchema-instance" xmlns="http://www.topografix.com/GPX/1/1" xsi:schemaLocation="http://www.topografix.com/GPX/1/1 http://www.topografix.com/GPX/1/1/gpx.xsd">
  <metadata>
    <link href="http://www.garmin.com">
      <text>Garmin International</text>
    </link>
    <time>2026-05-28T03:52:31Z</time>
    <bounds minlat="28.7857283" minlon="119.7391124" maxlat="28.79908" maxlon="119.7477754" />
  </metadata>
  <extensions>
    <name><![CDATA[仰天垄260527]]>
    </name>
    <description><![CDATA[]]>
    </description>
    <TrackId>84917515</TrackId>
    <TrackTypeId>8</TrackTypeId>
    <TrackTags>徒步</TrackTags>
    <BeginTime>1779940351000</BeginTime>
    <EndTime>1779950724000</EndTime>
    <TimeUsed>10373000</TimeUsed>
    <PauseTime>4632</PauseTime>
    <PosStartName>舍庙</PosStartName>
    <PosEndName>金华市武义县王宅镇上四保村SSB04号住宅楼</PosEndName>
    <ProductVersion>and_9.0.2</ProductVersion>
    <StartDistrictId>9656</StartDistrictId>
    <EndDistrictId>9656</EndDistrictId>
    <CreaterId>64771087</CreaterId>
    <CreaterName><![CDATA[步履赴山野]]>
    </CreaterName>
    <CreaterIcon>1523534626</CreaterIcon>
    <OriginCreaterId>64771087</OriginCreaterId>
    <OriginCreaterNickname><![CDATA[步履赴山野]]>
    </OriginCreaterNickname>
    <OriginCreaterName><![CDATA[null]]>
    </OriginCreaterName>
    <OriginCreaterIcon>1523534626</OriginCreaterIcon>
    <ThumbnailId>1618557377</ThumbnailId>
    <Distance>4916.0</Distance>
    <ElevationGain>367.49999999999994</ElevationGain>
    <ElevationLoss>366.05999999999983</ElevationLoss>
    <SportAvgSpeed>0.4741344057232536</SportAvgSpeed>
  </extensions>
  <trk>
    <trkseg>
      <trkpt lat="28.79908" lon="119.742385">
        <ele>169.1</ele>
        <time>2026-05-28T03:52:33Z</time>
        <speed>0.37832084</speed>
      </trkpt>
      <trkpt lat="28.7990183" lon="119.7423235">
        <ele>169.1</ele>
        <time>2026-05-28T03:52:47Z</time>
        <speed>1.3238655</speed>
      </trkpt>
      <trkpt lat="28.7989187" lon="119.7422858">
        <ele>168.33</ele>
        <time>2026-05-28T03:52:57Z</time>
        <speed>1.1653311</speed>
      </trkpt>
      <trkpt lat="28.7988108" lon="119.7422915">
        <ele>166.34</ele>
        <time>2026-05-28T03:53:13Z</time>
        <speed>0.8075992</speed>
      </trkpt>
      <trkpt lat="28.7987114" lon="119.7423133">
        <ele>163.22</ele>
        <time>2026-05-28T03:53:21Z</time>
        <speed>1.2023911</speed>
      </trkpt>
      <trkpt lat="28.7986067" lon="119.7423278">
        <ele>160.59</ele>
        <time>2026-05-28T03:53:27Z</time>
        <speed>1.8833686</speed>
      </trkpt>
      <trkpt lat="28.7985106" lon="119.7423215">
        <ele>158.19</ele>
        <time>2026-05-28T03:53:35Z</time>
        <speed>1.9317524</speed>
      </trkpt>
      <trkpt lat="28.7984808" lon="119.7422594">
        <ele>157.63</ele>
        <time>2026-05-28T03:54:01Z</time>
        <speed>0.0</speed>
      </trkpt>
      <trkpt lat="28.79842" lon="119.7422803">
        <ele>158.61</ele>
        <time>2026-05-28T03:54:25Z</time>
        <speed>1.3073944</speed>
      </trkpt>
      <trkpt lat="28.7983441" lon="119.7422312">
        <ele>158.52</ele>
        <time>2026-05-28T03:54:35Z</time>
        <speed>1.491665</speed>
      </trkpt>
      <trkpt lat="28.7982624" lon="119.7421788">
        <ele>157.78</ele>
        <time>2026-05-28T03:54:43Z</time>
        <speed>1.701157</speed>
      </trkpt>
      <trkpt lat="28.7981981" lon="119.7420875">
        <ele>155.94</ele>
        <time>2026-05-28T03:54:53Z</time>
        <speed>1.2610694</speed>
      </trkpt>
      <trkpt lat="28.7981721" lon="119.7420411">
        <ele>154.5</ele>
        <time>2026-05-28T03:55:01Z</time>
        <speed>0.0</speed>
      </trkpt>
      <trkpt lat="28.7981019" lon="119.7420215">
        <ele>154.54</ele>
        <time>2026-05-28T03:55:29Z</time>
        <speed>0.4287636</speed>
      </trkpt>
      <trkpt lat="28.7980206" lon="119.7419845">
        <ele>156.72</ele>
        <time>2026-05-28T03:55:35Z</time>
        <speed>1.1293006</speed>
      </trkpt>
      <trkpt lat="28.7979365" lon="119.7419291">
        <ele>157.57</ele>
        <time>2026-05-28T03:55:43Z</time>
        <speed>1.3707052</speed>
      </trkpt>
      <trkpt lat="28.7978387" lon="119.741872">
        <ele>158.06</ele>
        <time>2026-05-28T03:55:51Z</time>
        <speed>1.4715909</speed>
      </trkpt>
      <trkpt lat="28.7977593" lon="119.7417751">
        <ele>158.29</ele>
        <time>2026-05-28T03:56:01Z</time>
        <speed>1.2240094</speed>
      </trkpt>
      <trkpt lat="28.7976753" lon="119.7416705">
        <ele>158.68</ele>
        <time>2026-05-28T03:56:09Z</time>
        <speed>1.5395342</speed>
      </trkpt>
      <trkpt lat="28.7975954" lon="119.7416008">
        <ele>159.55</ele>
        <time>2026-05-28T03:56:17Z</time>
        <speed>1.256437</speed>
      </trkpt>
      <trkpt lat="28.7974996" lon="119.7415755">
        <ele>160.13</ele>
        <time>2026-05-28T03:56:23Z</time>
        <speed>1.2940117</speed>
      </trkpt>
      <trkpt lat="28.7973915" lon="119.741563">
        <ele>160.89</ele>
        <time>2026-05-28T03:56:29Z</time>
        <speed>1.8241756</speed>
      </trkpt>
      <trkpt lat="28.7972835" lon="119.7415183">
        <ele>162.23</ele>
        <time>2026-05-28T03:56:37Z</time>
        <speed>1.9724156</speed>
      </trkpt>
      <trkpt lat="28.7972003" lon="119.7414422">
        <ele>162.73</ele>
        <time>2026-05-28T03:56:45Z</time>
        <speed>1.9348408</speed>
      </trkpt>
      <trkpt lat="28.797123" lon="119.7413514">
        <ele>161.51</ele>
        <time>2026-05-28T03:56:55Z</time>
        <speed>1.4721055</speed>
      </trkpt>
      <trkpt lat="28.7970355" lon="119.7412772">
        <ele>161.03</ele>
        <time>2026-05-28T03:57:03Z</time>
        <speed>1.4293836</speed>
      </trkpt>
      <trkpt lat="28.7969497" lon="119.7412197">
        <ele>161.19</ele>
        <time>2026-05-28T03:57:09Z</time>
        <speed>1.4880619</speed>
      </trkpt>
      <trkpt lat="28.7968534" lon="119.7411547">
        <ele>161.67</ele>
        <time>2026-05-28T03:57:17Z</time>
        <speed>1.6949803</speed>
      </trkpt>
      <trkpt lat="28.7967643" lon="119.7410986">
        <ele>162.59</ele>
        <time>2026-05-28T03:57:25Z</time>
        <speed>1.4386486</speed>
      </trkpt>
      <trkpt lat="28.7966686" lon="119.7410682">
        <ele>163.41</ele>
        <time>2026-05-28T03:57:33Z</time>
        <speed>1.3856323</speed>
      </trkpt>
      <trkpt lat="28.7965589" lon="119.7410341">
        <ele>163.58</ele>
        <time>2026-05-28T03:57:41Z</time>
        <speed>1.4679878</speed>
      </trkpt>
      <trkpt lat="28.7964658" lon="119.7409971">
        <ele>163.67</ele>
        <time>2026-05-28T03:57:47Z</time>
        <speed>1.6290958</speed>
      </trkpt>
      <trkpt lat="28.7963634" lon="119.740947">
        <ele>163.3</ele>
        <time>2026-05-28T03:57:55Z</time>
        <speed>1.4422517</speed>
      </trkpt>
      <trkpt lat="28.7962747" lon="119.7408994">
        <ele>163.13</ele>
        <time>2026-05-28T03:58:01Z</time>
        <speed>1.5776236</speed>
      </trkpt>
      <trkpt lat="28.7962013" lon="119.7408371">
        <ele>163.46</ele>
        <time>2026-05-28T03:58:07Z</time>
        <speed>1.5179158</speed>
      </trkpt>
      <trkpt lat="28.7961317" lon="119.7407508">
        <ele>164.34</ele>
        <time>2026-05-28T03:58:15Z</time>
        <speed>1.4298984</speed>
      </trkpt>
      <trkpt lat="28.796056" lon="119.740683">
        <ele>165.4</ele>
        <time>2026-05-28T03:58:21Z</time>
        <speed>1.6831417</speed>
      </trkpt>
      <trkpt lat="28.7959673" lon="119.7406249">
        <ele>166.86</ele>
        <time>2026-05-28T03:58:29Z</time>
        <speed>1.5292398</speed>
      </trkpt>
      <trkpt lat="28.7958787" lon="119.7405841">
        <ele>168.56</ele>
        <time>2026-05-28T03:58:35Z</time>
        <speed>1.61211</speed>
      </trkpt>
      <trkpt lat="28.7957833" lon="119.7405591">
        <ele>170.77</ele>
        <time>2026-05-28T03:58:41Z</time>
        <speed>1.7634383</speed>
      </trkpt>
      <trkpt lat="28.7956796" lon="119.7405699">
        <ele>173.1</ele>
        <time>2026-05-28T03:58:49Z</time>
        <speed>1.4921798</speed>
      </trkpt>
      <trkpt lat="28.795582" lon="119.7405923">
        <ele>175.3</ele>
        <time>2026-05-28T03:58:57Z</time>
        <speed>1.3403367</speed>
      </trkpt>
      <trkpt lat="28.79547" lon="119.7406048">
        <ele>176.46</ele>
        <time>2026-05-28T03:59:05Z</time>
        <speed>1.2775406</speed>
      </trkpt>
      <trkpt lat="28.795354" lon="119.7406042">
        <ele>176.52</ele>
        <time>2026-05-28T03:59:13Z</time>
        <speed>1.6517437</speed>
      </trkpt>
      <trkpt lat="28.7952523" lon="119.7405906">
        <ele>176.0</ele>
        <time>2026-05-28T03:59:19Z</time>
        <speed>1.821602</speed>
      </trkpt>
      <trkpt lat="28.7951391" lon="119.7405915">
        <ele>175.14</ele>
        <time>2026-05-28T03:59:27Z</time>
        <speed>1.8303522</speed>
      </trkpt>
      <trkpt lat="28.7950412" lon="119.7405961">
        <ele>172.63</ele>
        <time>2026-05-28T03:59:35Z</time>
        <speed>1.5477697</speed>
      </trkpt>
      <trkpt lat="28.7949368" lon="119.7405956">
        <ele>170.59</ele>
        <time>2026-05-28T03:59:43Z</time>
        <speed>1.7377023</speed>
      </trkpt>
      <trkpt lat="28.7948369" lon="119.7405915">
        <ele>169.13</ele>
        <time>2026-05-28T03:59:57Z</time>
        <speed>0.79884887</speed>
      </trkpt>
      <trkpt lat="28.7947199" lon="119.7405699">
        <ele>168.3</ele>
        <time>2026-05-28T04:00:05Z</time>
        <speed>1.3475428</speed>
      </trkpt>
      <trkpt lat="28.7946227" lon="119.740586">
        <ele>168.3</ele>
        <time>2026-05-28T04:00:11Z</time>
        <speed>1.6543173</speed>
      </trkpt>
      <trkpt lat="28.7945549" lon="119.7406533">
        <ele>168.69</ele>
        <time>2026-05-28T04:00:22Z</time>
        <speed>1.1529778</speed>
      </trkpt>
      <trkpt lat="28.7944695" lon="119.7407378">
        <ele>170.28</ele>
        <time>2026-05-28T04:00:30Z</time>
        <speed>1.6054186</speed>
      </trkpt>
      <trkpt lat="28.7943621" lon="119.7407949">
        <ele>172.27</ele>
        <time>2026-05-28T04:00:40Z</time>
        <speed>1.287835</speed>
      </trkpt>
      <trkpt lat="28.7942577" lon="119.7408066">
        <ele>175.16</ele>
        <time>2026-05-28T04:00:50Z</time>
        <speed>1.0021641</speed>
      </trkpt>
      <trkpt lat="28.7941532" lon="119.7408118">
        <ele>177.63</ele>
        <time>2026-05-28T04:01:00Z</time>
        <speed>1.024812</speed>
      </trkpt>
      <trkpt lat="28.7940628" lon="119.7408433">
        <ele>179.81</ele>
        <time>2026-05-28T04:01:06Z</time>
        <speed>1.2348186</speed>
      </trkpt>
      <trkpt lat="28.7939716" lon="119.7408448">
        <ele>181.74</ele>
        <time>2026-05-28T04:01:16Z</time>
        <speed>0.9959875</speed>
      </trkpt>
      <trkpt lat="28.7938719" lon="119.740831">
        <ele>183.79</ele>
        <time>2026-05-28T04:01:56Z</time>
        <speed>0.42310166</speed>
      </trkpt>
      <trkpt lat="28.7937967" lon="119.7408817">
        <ele>185.34</ele>
        <time>2026-05-28T04:03:44Z</time>
        <speed>0.4025128</speed>
      </trkpt>
      <trkpt lat="28.79382" lon="119.7409883">
        <ele>187.6</ele>
        <time>2026-05-28T04:06:46Z</time>
        <speed>0.8194378</speed>
      </trkpt>
      <trkpt lat="28.79376" lon="119.74107">
        <ele>190.96</ele>
        <time>2026-05-28T04:08:02Z</time>
        <speed>0.57443</speed>
      </trkpt>
      <trkpt lat="28.79368" lon="119.7411483">
        <ele>193.9</ele>
        <time>2026-05-28T04:08:24Z</time>
        <speed>0.74789137</speed>
      </trkpt>
      <trkpt lat="28.7936592" lon="119.7412492">
        <ele>197.6</ele>
        <time>2026-05-28T04:08:40Z</time>
        <speed>0.6506089</speed>
      </trkpt>
      <trkpt lat="28.7936232" lon="119.7413451">
        <ele>201.3</ele>
        <time>2026-05-28T04:08:58Z</time>
        <speed>0.4143514</speed>
      </trkpt>
      <trkpt lat="28.7936141" lon="119.7414521">
        <ele>206.07</ele>
        <time>2026-05-28T04:09:14Z</time>
        <speed>0.50031</speed>
      </trkpt>
      <trkpt lat="28.7935555" lon="119.7415304">
        <ele>209.05</ele>
        <time>2026-05-28T04:09:26Z</time>
        <speed>0.77723056</speed>
      </trkpt>
      <trkpt lat="28.7935059" lon="119.7416212">
        <ele>210.97</ele>
        <time>2026-05-28T04:09:42Z</time>
        <speed>0.75149447</speed>
      </trkpt>
      <trkpt lat="28.7934526" lon="119.7417104">
        <ele>213.05</ele>
        <time>2026-05-28T04:10:02Z</time>
        <speed>0.46479416</speed>
      </trkpt>
      <trkpt lat="28.793415" lon="119.7418067">
        <ele>216.21</ele>
        <time>2026-05-28T04:11:06Z</time>
        <speed>0.7659067</speed>
      </trkpt>
      <trkpt lat="28.79333" lon="119.74177">
        <ele>219.35</ele>
        <time>2026-05-28T04:11:38Z</time>
        <speed>0.36390862</speed>
      </trkpt>
      <trkpt lat="28.793295" lon="119.7418967">
        <ele>223.03</ele>
        <time>2026-05-28T04:13:12Z</time>
        <speed>0.53737</speed>
      </trkpt>
      <trkpt lat="28.7933117" lon="119.7420067">
        <ele>226.8</ele>
        <time>2026-05-28T04:13:30Z</time>
        <speed>0.66862416</speed>
      </trkpt>
      <trkpt lat="28.7932818" lon="119.742104">
        <ele>229.9</ele>
        <time>2026-05-28T04:13:52Z</time>
        <speed>0.6866394</speed>
      </trkpt>
      <trkpt lat="28.7932656" lon="119.7422196">
        <ele>233.3</ele>
        <time>2026-05-28T04:14:16Z</time>
        <speed>0.0</speed>
      </trkpt>
      <trkpt lat="28.7932157" lon="119.7423071">
        <ele>237.3</ele>
        <time>2026-05-28T04:14:30Z</time>
        <speed>0.7633331</speed>
      </trkpt>
      <trkpt lat="28.7931427" lon="119.7423715">
        <ele>240.74</ele>
        <time>2026-05-28T04:14:48Z</time>
        <speed>0.0</speed>
      </trkpt>
      <trkpt lat="28.7930557" lon="119.7424148">
        <ele>243.99</ele>
        <time>2026-05-28T04:15:20Z</time>
        <speed>0.27846473</speed>
      </trkpt>
      <trkpt lat="28.7929996" lon="119.7425011">
        <ele>248.04</ele>
        <time>2026-05-28T04:15:40Z</time>
        <speed>0.8595861</speed>
      </trkpt>
      <trkpt lat="28.7929694" lon="119.7426065">
        <ele>252.28</ele>
        <time>2026-05-28T04:15:52Z</time>
        <speed>0.8292175</speed>
      </trkpt>
      <trkpt lat="28.7929406" lon="119.7427227">
        <ele>257.28</ele>
        <time>2026-05-28T04:16:24Z</time>
        <speed>1.3439398</speed>
      </trkpt>
      <trkpt lat="28.7929293" lon="119.7428036">
        <ele>266.41</ele>
        <time>2026-05-28T04:16:46Z</time>
        <speed>0.0</speed>
      </trkpt>
      <trkpt lat="28.7929472" lon="119.7429089">
        <ele>272.68</ele>
        <time>2026-05-28T04:17:10Z</time>
        <speed>0.97333974</speed>
      </trkpt>
      <trkpt lat="28.7929555" lon="119.7430206">
        <ele>275.57</ele>
        <time>2026-05-28T04:17:36Z</time>
        <speed>0.51575166</speed>
      </trkpt>
      <trkpt lat="28.7929704" lon="119.7431275">
        <ele>281.39</ele>
        <time>2026-05-28T04:17:52Z</time>
        <speed>0.5996514</speed>
      </trkpt>
      <trkpt lat="28.7929457" lon="119.7432321">
        <ele>285.96</ele>
        <time>2026-05-28T04:18:18Z</time>
        <speed>0.546635</speed>
      </trkpt>
      <trkpt lat="28.7929408" lon="119.7433406">
        <ele>290.23</ele>
        <time>2026-05-28T04:18:52Z</time>
        <speed>0.29133278</speed>
      </trkpt>
      <trkpt lat="28.7928948" lon="119.743438">
        <ele>295.21</ele>
        <time>2026-05-28T04:19:12Z</time>
        <speed>0.54303193</speed>
      </trkpt>
      <trkpt lat="28.7928424" lon="119.7435301">
        <ele>300.19</ele>
        <time>2026-05-28T04:19:24Z</time>
        <speed>0.7566417</speed>
      </trkpt>
      <trkpt lat="28.7928212" lon="119.7436369">
        <ele>304.03</ele>
        <time>2026-05-28T04:19:34Z</time>
        <speed>0.90745527</speed>
      </trkpt>
      <trkpt lat="28.7927483" lon="119.743705">
        <ele>306.81</ele>
        <time>2026-05-28T04:20:40Z</time>
        <speed>0.0</speed>
      </trkpt>
      <trkpt lat="28.792735" lon="119.7438067">
        <ele>308.14</ele>
        <time>2026-05-28T04:22:00Z</time>
        <speed>0.6964192</speed>
      </trkpt>
      <trkpt lat="28.79267" lon="119.743885">
        <ele>310.75</ele>
        <time>2026-05-28T04:23:58Z</time>
        <speed>0.0</speed>
      </trkpt>
      <trkpt lat="28.7926017" lon="119.7439667">
        <ele>311.16</ele>
        <time>2026-05-28T04:24:30Z</time>
        <speed>0.47457388</speed>
      </trkpt>
      <trkpt lat="28.7925136" lon="119.7439778">
        <ele>311.48</ele>
        <time>2026-05-28T04:24:44Z</time>
        <speed>0.78803974</speed>
      </trkpt>
      <trkpt lat="28.7924217" lon="119.7439917">
        <ele>312.91</ele>
        <time>2026-05-28T04:27:40Z</time>
        <speed>0.0</speed>
      </trkpt>
      <trkpt lat="28.7923633" lon="119.7438817">
        <ele>315.74</ele>
        <time>2026-05-28T04:28:48Z</time>
        <speed>0.4097189</speed>
      </trkpt>
      <trkpt lat="28.7924117" lon="119.7437883">
        <ele>321.36</ele>
        <time>2026-05-28T04:29:12Z</time>
        <speed>0.58420974</speed>
      </trkpt>
      <trkpt lat="28.7924346" lon="119.7436837">
        <ele>326.11</ele>
        <time>2026-05-28T04:29:36Z</time>
        <speed>0.0</speed>
      </trkpt>
      <trkpt lat="28.7923784" lon="119.7437109">
        <ele>329.85</ele>
        <time>2026-05-28T04:30:02Z</time>
        <speed>0.7926722</speed>
      </trkpt>
      <trkpt lat="28.7922736" lon="119.7437391">
        <ele>333.1</ele>
        <time>2026-05-28T04:30:14Z</time>
        <speed>0.89819026</speed>
      </trkpt>
      <trkpt lat="28.7921877" lon="119.7438114">
        <ele>336.45</ele>
        <time>2026-05-28T04:30:30Z</time>
        <speed>0.6202403</speed>
      </trkpt>
      <trkpt lat="28.7921399" lon="119.7439215">
        <ele>340.17</ele>
        <time>2026-05-28T04:30:46Z</time>
        <speed>0.49670693</speed>
      </trkpt>
      <trkpt lat="28.7921241" lon="119.744036">
        <ele>344.01</ele>
        <time>2026-05-28T04:31:02Z</time>
        <speed>0.46582362</speed>
      </trkpt>
      <trkpt lat="28.7920676" lon="119.7441188">
        <ele>347.84</ele>
        <time>2026-05-28T04:31:16Z</time>
        <speed>0.6171519</speed>
      </trkpt>
      <trkpt lat="28.7920076" lon="119.7442088">
        <ele>351.56</ele>
        <time>2026-05-28T04:31:28Z</time>
        <speed>0.787525</speed>
      </trkpt>
      <trkpt lat="28.7919261" lon="119.7442804">
        <ele>354.89</ele>
        <time>2026-05-28T04:31:40Z</time>
        <speed>0.8220114</speed>
      </trkpt>
      <trkpt lat="28.7918537" lon="119.7443627">
        <ele>356.83</ele>
        <time>2026-05-28T04:31:48Z</time>
        <speed>0.96253055</speed>
      </trkpt>
      <trkpt lat="28.7918036" lon="119.7444598">
        <ele>358.15</ele>
        <time>2026-05-28T04:31:58Z</time>
        <speed>0.9604717</speed>
      </trkpt>
      <trkpt lat="28.79174" lon="119.7445467">
        <ele>358.65</ele>
        <time>2026-05-28T04:33:30Z</time>
        <speed>0.6047986</speed>
      </trkpt>
      <trkpt lat="28.7916917" lon="119.744635">
        <ele>361.51</ele>
        <time>2026-05-28T04:33:42Z</time>
        <speed>0.70774305</speed>
      </trkpt>
      <trkpt lat="28.7916208" lon="119.7447121">
        <ele>363.31</ele>
        <time>2026-05-28T04:34:24Z</time>
        <speed>0.66193277</speed>
      </trkpt>
      <trkpt lat="28.7915665" lon="119.7447987">
        <ele>365.46</ele>
        <time>2026-05-28T04:34:40Z</time>
        <speed>0.3870711</speed>
      </trkpt>
      <trkpt lat="28.7915185" lon="119.7449008">
        <ele>366.81</ele>
        <time>2026-05-28T04:34:52Z</time>
        <speed>0.6830364</speed>
      </trkpt>
      <trkpt lat="28.7914551" lon="119.7449796">
        <ele>367.36</ele>
        <time>2026-05-28T04:35:04Z</time>
        <speed>0.6222992</speed>
      </trkpt>
      <trkpt lat="28.791383" lon="119.7450652">
        <ele>366.91</ele>
        <time>2026-05-28T04:35:24Z</time>
        <speed>0.68200696</speed>
      </trkpt>
      <trkpt lat="28.7912971" lon="119.745139">
        <ele>366.69</ele>
        <time>2026-05-28T04:36:02Z</time>
        <speed>0.6480353</speed>
      </trkpt>
      <trkpt lat="28.7912381" lon="119.7452261">
        <ele>367.38</ele>
        <time>2026-05-28T04:36:10Z</time>
        <speed>0.9429711</speed>
      </trkpt>
      <trkpt lat="28.7911627" lon="119.7452836">
        <ele>368.55</ele>
        <time>2026-05-28T04:36:22Z</time>
        <speed>0.37626195</speed>
      </trkpt>
      <trkpt lat="28.7910816" lon="119.7453537">
        <ele>370.38</ele>
        <time>2026-05-28T04:36:38Z</time>
        <speed>0.6145783</speed>
      </trkpt>
      <trkpt lat="28.7909789" lon="119.7453798">
        <ele>372.75</ele>
        <time>2026-05-28T04:36:52Z</time>
        <speed>0.4838389</speed>
      </trkpt>
      <trkpt lat="28.7908826" lon="119.7453785">
        <ele>374.28</ele>
        <time>2026-05-28T04:37:04Z</time>
        <speed>0.47405916</speed>
      </trkpt>
      <trkpt lat="28.7907951" lon="119.745331">
        <ele>376.22</ele>
        <time>2026-05-28T04:37:26Z</time>
        <speed>0.5878128</speed>
      </trkpt>
      <trkpt lat="28.7907" lon="119.7453018">
        <ele>378.36</ele>
        <time>2026-05-28T04:37:36Z</time>
        <speed>0.8292175</speed>
      </trkpt>
      <trkpt lat="28.7906257" lon="119.7452396">
        <ele>380.7</ele>
        <time>2026-05-28T04:37:50Z</time>
        <speed>0.5661944</speed>
      </trkpt>
      <trkpt lat="28.7905642" lon="119.7451576">
        <ele>384.14</ele>
        <time>2026-05-28T04:38:08Z</time>
        <speed>0.6320789</speed>
      </trkpt>
      <trkpt lat="28.790494" lon="119.7450733">
        <ele>388.94</ele>
        <time>2026-05-28T04:38:30Z</time>
        <speed>0.79318696</speed>
      </trkpt>
      <trkpt lat="28.790408" lon="119.7450106">
        <ele>395.29</ele>
        <time>2026-05-28T04:38:54Z</time>
        <speed>0.42927834</speed>
      </trkpt>
      <trkpt lat="28.7903787" lon="119.7449071">
        <ele>400.5</ele>
        <time>2026-05-28T04:39:04Z</time>
        <speed>0.9084847</speed>
      </trkpt>
      <trkpt lat="28.790295" lon="119.7448583">
        <ele>404.37</ele>
        <time>2026-05-28T04:40:08Z</time>
        <speed>0.32324556</speed>
      </trkpt>
      <trkpt lat="28.7901983" lon="119.74483">
        <ele>407.7</ele>
        <time>2026-05-28T04:40:32Z</time>
        <speed>0.41795444</speed>
      </trkpt>
      <trkpt lat="28.7901073" lon="119.7448101">
        <ele>411.14</ele>
        <time>2026-05-28T04:40:50Z</time>
        <speed>0.46685305</speed>
      </trkpt>
      <trkpt lat="28.7900096" lon="119.7448085">
        <ele>414.48</ele>
        <time>2026-05-28T04:41:08Z</time>
        <speed>0.620755</speed>
      </trkpt>
      <trkpt lat="28.7899185" lon="119.7448314">
        <ele>418.62</ele>
        <time>2026-05-28T04:41:32Z</time>
        <speed>0.47045612</speed>
      </trkpt>
      <trkpt lat="28.78983" lon="119.7448587">
        <ele>423.26</ele>
        <time>2026-05-28T04:41:48Z</time>
        <speed>0.63825554</speed>
      </trkpt>
      <trkpt lat="28.7897472" lon="119.7449034">
        <ele>427.58</ele>
        <time>2026-05-28T04:42:16Z</time>
        <speed>0.66347694</speed>
      </trkpt>
      <trkpt lat="28.78966" lon="119.744913">
        <ele>430.47</ele>
        <time>2026-05-28T04:42:34Z</time>
        <speed>0.43854332</speed>
      </trkpt>
      <trkpt lat="28.7895757" lon="119.7449495">
        <ele>433.36</ele>
        <time>2026-05-28T04:43:04Z</time>
        <speed>0.35515833</speed>
      </trkpt>
      <trkpt lat="28.7894837" lon="119.7449455">
        <ele>436.52</ele>
        <time>2026-05-28T04:43:56Z</time>
        <speed>0.87966025</speed>
      </trkpt>
      <trkpt lat="28.789519" lon="119.7449896">
        <ele>440.04</ele>
        <time>2026-05-28T04:44:22Z</time>
        <speed>0.6681094</speed>
      </trkpt>
      <trkpt lat="28.7894767" lon="119.7449517">
        <ele>443.76</ele>
        <time>2026-05-28T04:46:40Z</time>
        <speed>0.50906026</speed>
      </trkpt>
      <trkpt lat="28.7893917" lon="119.7450017">
        <ele>447.78</ele>
        <time>2026-05-28T04:47:18Z</time>
        <speed>0.51729584</speed>
      </trkpt>
      <trkpt lat="28.7893335" lon="119.7450813">
        <ele>453.17</ele>
        <time>2026-05-28T04:47:36Z</time>
        <speed>0.46891195</speed>
      </trkpt>
      <trkpt lat="28.7892839" lon="119.7451726">
        <ele>457.14</ele>
        <time>2026-05-28T04:47:46Z</time>
        <speed>0.69178665</speed>
      </trkpt>
      <trkpt lat="28.7892672" lon="119.745289">
        <ele>459.87</ele>
        <time>2026-05-28T04:48:00Z</time>
        <speed>0.6011956</speed>
      </trkpt>
      <trkpt lat="28.7892367" lon="119.7454062">
        <ele>461.91</ele>
        <time>2026-05-28T04:48:12Z</time>
        <speed>0.7365675</speed>
      </trkpt>
      <trkpt lat="28.7892103" lon="119.7455218">
        <ele>462.76</ele>
        <time>2026-05-28T04:48:20Z</time>
        <speed>0.99444336</speed>
      </trkpt>
      <trkpt lat="28.789221" lon="119.7456368">
        <ele>463.94</ele>
        <time>2026-05-28T04:48:30Z</time>
        <speed>0.70259583</speed>
      </trkpt>
      <trkpt lat="28.7892224" lon="119.7457536">
        <ele>465.08</ele>
        <time>2026-05-28T04:48:40Z</time>
        <speed>0.74789137</speed>
      </trkpt>
      <trkpt lat="28.789208" lon="119.7458633">
        <ele>465.74</ele>
        <time>2026-05-28T04:48:50Z</time>
        <speed>0.8292175</speed>
      </trkpt>
      <trkpt lat="28.789157" lon="119.7459576">
        <ele>467.57</ele>
        <time>2026-05-28T04:49:00Z</time>
        <speed>0.9126025</speed>
      </trkpt>
      <trkpt lat="28.7890944" lon="119.7460441">
        <ele>469.22</ele>
        <time>2026-05-28T04:49:08Z</time>
        <speed>0.99753165</speed>
      </trkpt>
      <trkpt lat="28.7890424" lon="119.7461437">
        <ele>469.77</ele>
        <time>2026-05-28T04:49:42Z</time>
        <speed>0.66090333</speed>
      </trkpt>
      <trkpt lat="28.7889773" lon="119.7462315">
        <ele>470.51</ele>
        <time>2026-05-28T04:49:52Z</time>
        <speed>0.8014225</speed>
      </trkpt>
      <trkpt lat="28.788914" lon="119.7463149">
        <ele>470.68</ele>
        <time>2026-05-28T04:50:02Z</time>
        <speed>0.8199525</speed>
      </trkpt>
      <trkpt lat="28.7888286" lon="119.7463582">
        <ele>470.17</ele>
        <time>2026-05-28T04:50:10Z</time>
        <speed>0.8081139</speed>
      </trkpt>
      <trkpt lat="28.7887442" lon="119.7464314">
        <ele>469.45</ele>
        <time>2026-05-28T04:50:22Z</time>
        <speed>0.67994803</speed>
      </trkpt>
      <trkpt lat="28.7886641" lon="119.7464966">
        <ele>468.91</ele>
        <time>2026-05-28T04:50:30Z</time>
        <speed>1.0670192</speed>
      </trkpt>
      <trkpt lat="28.7885726" lon="119.7465561">
        <ele>469.47</ele>
        <time>2026-05-28T04:50:44Z</time>
        <speed>0.8637039</speed>
      </trkpt>
      <trkpt lat="28.7884832" lon="119.7466187">
        <ele>471.89</ele>
        <time>2026-05-28T04:50:56Z</time>
        <speed>0.77826</speed>
      </trkpt>
      <trkpt lat="28.788389" lon="119.7466467">
        <ele>472.63</ele>
        <time>2026-05-28T04:51:52Z</time>
        <speed>0.3844975</speed>
      </trkpt>
      <trkpt lat="28.7882872" lon="119.7466833">
        <ele>473.73</ele>
        <time>2026-05-28T04:52:06Z</time>
        <speed>0.7592153</speed>
      </trkpt>
      <trkpt lat="28.7881929" lon="119.7467126">
        <ele>474.71</ele>
        <time>2026-05-28T04:52:16Z</time>
        <speed>0.8235555</speed>
      </trkpt>
      <trkpt lat="28.788105" lon="119.7467533">
        <ele>475.39</ele>
        <time>2026-05-28T04:53:28Z</time>
        <speed>0.6866394</speed>
      </trkpt>
      <trkpt lat="28.7880267" lon="119.74681">
        <ele>475.7</ele>
        <time>2026-05-28T04:53:38Z</time>
        <speed>0.8909842</speed>
      </trkpt>
      <trkpt lat="28.7879779" lon="119.7468963">
        <ele>475.78</ele>
        <time>2026-05-28T04:53:52Z</time>
        <speed>0.81634945</speed>
      </trkpt>
      <trkpt lat="28.7878917" lon="119.7469417">
        <ele>475.27</ele>
        <time>2026-05-28T04:55:12Z</time>
        <speed>0.44317582</speed>
      </trkpt>
      <trkpt lat="28.7877817" lon="119.746945">
        <ele>476.36</ele>
        <time>2026-05-28T04:55:22Z</time>
        <speed>0.8436297</speed>
      </trkpt>
      <trkpt lat="28.7876717" lon="119.746954">
        <ele>477.93</ele>
        <time>2026-05-28T04:55:40Z</time>
        <speed>0.58987164</speed>
      </trkpt>
      <trkpt lat="28.7875964" lon="119.7470283">
        <ele>480.41</ele>
        <time>2026-05-28T04:56:02Z</time>
        <speed>0.2805236</speed>
      </trkpt>
      <trkpt lat="28.7875182" lon="119.7471004">
        <ele>482.38</ele>
        <time>2026-05-28T04:56:30Z</time>
        <speed>0.9198086</speed>
      </trkpt>
      <trkpt lat="28.7874333" lon="119.7471067">
        <ele>482.26</ele>
        <time>2026-05-28T05:01:32Z</time>
        <speed>0.25839055</speed>
      </trkpt>
      <trkpt lat="28.787365" lon="119.7471767">
        <ele>482.49</ele>
        <time>2026-05-28T05:03:00Z</time>
        <speed>0.4864125</speed>
      </trkpt>
      <trkpt lat="28.7873483" lon="119.7470617">
        <ele>482.88</ele>
        <time>2026-05-28T05:04:30Z</time>
        <speed>0.7792894</speed>
      </trkpt>
      <trkpt lat="28.7874333" lon="119.7470217">
        <ele>484.83</ele>
        <time>2026-05-28T05:12:30Z</time>
        <speed>0.0</speed>
      </trkpt>
      <trkpt lat="28.787395" lon="119.7471183">
        <ele>487.01</ele>
        <time>2026-05-28T05:14:48Z</time>
        <speed>0.30265668</speed>
      </trkpt>
      <trkpt lat="28.787305" lon="119.7471767">
        <ele>485.97</ele>
        <time>2026-05-28T05:16:46Z</time>
        <speed>0.5070014</speed>
      </trkpt>
      <trkpt lat="28.78721" lon="119.7471733">
        <ele>483.58</ele>
        <time>2026-05-28T05:17:06Z</time>
        <speed>0.0</speed>
      </trkpt>
      <trkpt lat="28.7871192" lon="119.7472095">
        <ele>480.49</ele>
        <time>2026-05-28T05:17:22Z</time>
        <speed>0.48486835</speed>
      </trkpt>
      <trkpt lat="28.7870279" lon="119.7471947">
        <ele>478.56</ele>
        <time>2026-05-28T05:17:36Z</time>
        <speed>0.5579589</speed>
      </trkpt>
      <trkpt lat="28.7869315" lon="119.7472232">
        <ele>477.76</ele>
        <time>2026-05-28T05:18:04Z</time>
        <speed>0.8101728</speed>
      </trkpt>
      <trkpt lat="28.7868619" lon="119.7473058">
        <ele>477.35</ele>
        <time>2026-05-28T05:18:14Z</time>
        <speed>1.1287858</speed>
      </trkpt>
      <trkpt lat="28.7868186" lon="119.7474119">
        <ele>475.91</ele>
        <time>2026-05-28T05:18:24Z</time>
        <speed>0.94245636</speed>
      </trkpt>
      <trkpt lat="28.7867736" lon="119.7475116">
        <ele>474.44</ele>
        <time>2026-05-28T05:18:32Z</time>
        <speed>1.1195208</speed>
      </trkpt>
      <trkpt lat="28.7867196" lon="119.7476032">
        <ele>473.31</ele>
        <time>2026-05-28T05:18:46Z</time>
        <speed>0.55178225</speed>
      </trkpt>
      <trkpt lat="28.7866663" lon="119.7475578">
        <ele>473.22</ele>
        <time>2026-05-28T05:19:12Z</time>
        <speed>0.6490647</speed>
      </trkpt>
      <trkpt lat="28.786608" lon="119.7475884">
        <ele>472.91</ele>
        <time>2026-05-28T05:19:40Z</time>
        <speed>0.35309944</speed>
      </trkpt>
      <trkpt lat="28.7865643" lon="119.7476755">
        <ele>475.61</ele>
        <time>2026-05-28T05:20:32Z</time>
        <speed>0.37935027</speed>
      </trkpt>
      <trkpt lat="28.7865285" lon="119.7477754">
        <ele>478.36</ele>
        <time>2026-05-28T05:21:10Z</time>
        <speed>0.3402314</speed>
      </trkpt>
      <trkpt lat="28.786495" lon="119.7476933">
        <ele>480.79</ele>
        <time>2026-05-28T05:27:52Z</time>
        <speed>0.9604717</speed>
      </trkpt>
      <trkpt lat="28.7863933" lon="119.7476583">
        <ele>484.36</ele>
        <time>2026-05-28T05:28:06Z</time>
        <speed>0.8178936</speed>
      </trkpt>
      <trkpt lat="28.7863001" lon="119.7476092">
        <ele>487.65</ele>
        <time>2026-05-28T05:28:16Z</time>
        <speed>0.8827486</speed>
      </trkpt>
      <trkpt lat="28.7862097" lon="119.7475628">
        <ele>490.17</ele>
        <time>2026-05-28T05:28:26Z</time>
        <speed>0.9429711</speed>
      </trkpt>
      <trkpt lat="28.786315" lon="119.7475317">
        <ele>492.12</ele>
        <time>2026-05-28T05:30:04Z</time>
        <speed>0.49516279</speed>
      </trkpt>
      <trkpt lat="28.7864217" lon="119.74753">
        <ele>496.5</ele>
        <time>2026-05-28T05:30:16Z</time>
        <speed>0.81377584</speed>
      </trkpt>
      <trkpt lat="28.7865058" lon="119.7474691">
        <ele>499.38</ele>
        <time>2026-05-28T05:30:24Z</time>
        <speed>1.1648164</speed>
      </trkpt>
      <trkpt lat="28.7865704" lon="119.7473797">
        <ele>501.58</ele>
        <time>2026-05-28T05:30:32Z</time>
        <speed>1.5534316</speed>
      </trkpt>
      <trkpt lat="28.7866339" lon="119.7472886">
        <ele>503.57</ele>
        <time>2026-05-28T05:30:42Z</time>
        <speed>1.1920967</speed>
      </trkpt>
      <trkpt lat="28.7866941" lon="119.7471973">
        <ele>504.79</ele>
        <time>2026-05-28T05:30:56Z</time>
        <speed>0.77826</speed>
      </trkpt>
      <trkpt lat="28.7867465" lon="119.747105">
        <ele>505.22</ele>
        <time>2026-05-28T05:31:46Z</time>
        <speed>0.7180375</speed>
      </trkpt>
      <trkpt lat="28.78684" lon="119.7470783">
        <ele>504.78</ele>
        <time>2026-05-28T05:33:16Z</time>
        <speed>0.4359697</speed>
      </trkpt>
      <trkpt lat="28.786735" lon="119.7471267">
        <ele>509.01</ele>
        <time>2026-05-28T05:36:26Z</time>
        <speed>0.24243417</speed>
      </trkpt>
      <trkpt lat="28.7866933" lon="119.7472217">
        <ele>512.49</ele>
        <time>2026-05-28T05:38:58Z</time>
        <speed>0.37111473</speed>
      </trkpt>
      <trkpt lat="28.78664" lon="119.747305">
        <ele>510.69</ele>
        <time>2026-05-28T05:39:14Z</time>
        <speed>0.45913222</speed>
      </trkpt>
      <trkpt lat="28.7865712" lon="119.7473869">
        <ele>510.0</ele>
        <time>2026-05-28T05:39:28Z</time>
        <speed>0.94348586</speed>
      </trkpt>
      <trkpt lat="28.7865008" lon="119.7474763">
        <ele>508.97</ele>
        <time>2026-05-28T05:39:36Z</time>
        <speed>1.5709323</speed>
      </trkpt>
      <trkpt lat="28.7864262" lon="119.747553">
        <ele>508.04</ele>
        <time>2026-05-28T05:39:46Z</time>
        <speed>1.1056234</speed>
      </trkpt>
      <trkpt lat="28.7863241" lon="119.7475648">
        <ele>508.02</ele>
        <time>2026-05-28T05:39:58Z</time>
        <speed>1.0052525</speed>
      </trkpt>
      <trkpt lat="28.7862285" lon="119.7475859">
        <ele>507.28</ele>
        <time>2026-05-28T05:40:08Z</time>
        <speed>0.9203233</speed>
      </trkpt>
      <trkpt lat="28.7861221" lon="119.7476217">
        <ele>507.2</ele>
        <time>2026-05-28T05:40:24Z</time>
        <speed>0.86473334</speed>
      </trkpt>
      <trkpt lat="28.7860236" lon="119.7476794">
        <ele>506.04</ele>
        <time>2026-05-28T05:40:34Z</time>
        <speed>0.96407473</speed>
      </trkpt>
      <trkpt lat="28.7859301" lon="119.7476863">
        <ele>504.86</ele>
        <time>2026-05-28T05:40:44Z</time>
        <speed>1.0011348</speed>
      </trkpt>
      <trkpt lat="28.7858248" lon="119.7476985">
        <ele>504.15</ele>
        <time>2026-05-28T05:41:02Z</time>
        <speed>0.68921304</speed>
      </trkpt>
      <trkpt lat="28.7857283" lon="119.747725">
        <ele>503.4</ele>
        <time>2026-05-28T05:42:36Z</time>
        <speed>0.0</speed>
      </trkpt>
      <trkpt lat="28.78576" lon="119.7476283">
        <ele>505.38</ele>
        <time>2026-05-28T05:43:34Z</time>
        <speed>0.324275</speed>
      </trkpt>
      <trkpt lat="28.785795" lon="119.7474717">
        <ele>506.93</ele>
        <time>2026-05-28T05:45:24Z</time>
        <speed>0.43185195</speed>
      </trkpt>
      <trkpt lat="28.7858617" lon="119.7474">
        <ele>504.73</ele>
        <time>2026-05-28T05:45:48Z</time>
        <speed>0.5677386</speed>
      </trkpt>
      <trkpt lat="28.7859509" lon="119.7473678">
        <ele>502.74</ele>
        <time>2026-05-28T05:45:56Z</time>
        <speed>0.9198086</speed>
      </trkpt>
      <trkpt lat="28.786039" lon="119.7473336">
        <ele>501.6</ele>
        <time>2026-05-28T05:46:12Z</time>
        <speed>0.59604836</speed>
      </trkpt>
      <trkpt lat="28.7860741" lon="119.7472363">
        <ele>500.78</ele>
        <time>2026-05-28T05:46:26Z</time>
        <speed>0.50236887</speed>
      </trkpt>
      <trkpt lat="28.7860637" lon="119.7471233">
        <ele>500.19</ele>
        <time>2026-05-28T05:46:38Z</time>
        <speed>0.6181814</speed>
      </trkpt>
      <trkpt lat="28.7860465" lon="119.7470123">
        <ele>499.29</ele>
        <time>2026-05-28T05:47:18Z</time>
        <speed>0.7375969</speed>
      </trkpt>
      <trkpt lat="28.7859367" lon="119.74701">
        <ele>498.22</ele>
        <time>2026-05-28T05:48:32Z</time>
        <speed>0.0</speed>
      </trkpt>
      <trkpt lat="28.785855" lon="119.7469433">
        <ele>496.23</ele>
        <time>2026-05-28T05:48:44Z</time>
        <speed>0.0</speed>
      </trkpt>
      <trkpt lat="28.7858791" lon="119.7468442">
        <ele>494.88</ele>
        <time>2026-05-28T05:48:54Z</time>
        <speed>1.013488</speed>
      </trkpt>
      <trkpt lat="28.7859129" lon="119.7467394">
        <ele>494.16</ele>
        <time>2026-05-28T05:49:08Z</time>
        <speed>0.9517214</speed>
      </trkpt>
      <trkpt lat="28.7859503" lon="119.7466351">
        <ele>492.03</ele>
        <time>2026-05-28T05:49:28Z</time>
        <speed>0.806055</speed>
      </trkpt>
      <trkpt lat="28.7859973" lon="119.7465403">
        <ele>486.47</ele>
        <time>2026-05-28T05:49:46Z</time>
        <speed>0.6356819</speed>
      </trkpt>
      <trkpt lat="28.7860311" lon="119.7464309">
        <ele>479.73</ele>
        <time>2026-05-28T05:50:00Z</time>
        <speed>0.7242142</speed>
      </trkpt>
      <trkpt lat="28.7860309" lon="119.7463258">
        <ele>473.78</ele>
        <time>2026-05-28T05:50:10Z</time>
        <speed>0.8544389</speed>
      </trkpt>
      <trkpt lat="28.7860458" lon="119.7462205">
        <ele>469.4</ele>
        <time>2026-05-28T05:50:24Z</time>
        <speed>0.64597636</speed>
      </trkpt>
      <trkpt lat="28.786058" lon="119.746114">
        <ele>465.14</ele>
        <time>2026-05-28T05:50:52Z</time>
        <speed>0.4488378</speed>
      </trkpt>
      <trkpt lat="28.7860931" lon="119.7460096">
        <ele>460.48</ele>
        <time>2026-05-28T05:51:06Z</time>
        <speed>0.49207443</speed>
      </trkpt>
      <trkpt lat="28.7861168" lon="119.7459062">
        <ele>456.01</ele>
        <time>2026-05-28T05:51:18Z</time>
        <speed>0.81634945</speed>
      </trkpt>
      <trkpt lat="28.7861239" lon="119.7458005">
        <ele>452.78</ele>
        <time>2026-05-28T05:52:02Z</time>
        <speed>0.5728858</speed>
      </trkpt>
      <trkpt lat="28.7861575" lon="119.7457064">
        <ele>448.19</ele>
        <time>2026-05-28T05:52:24Z</time>
        <speed>0.7293614</speed>
      </trkpt>
      <trkpt lat="28.7861642" lon="119.7455991">
        <ele>445.1</ele>
        <time>2026-05-28T05:52:38Z</time>
        <speed>0.7000222</speed>
      </trkpt>
      <trkpt lat="28.7861788" lon="119.7454827">
        <ele>442.73</ele>
        <time>2026-05-28T05:52:58Z</time>
        <speed>0.42927834</speed>
      </trkpt>
      <trkpt lat="28.7862136" lon="119.7453796">
        <ele>442.24</ele>
        <time>2026-05-28T05:53:16Z</time>
        <speed>0.0</speed>
      </trkpt>
      <trkpt lat="28.7862282" lon="119.745272">
        <ele>442.61</ele>
        <time>2026-05-28T05:54:12Z</time>
        <speed>0.40611583</speed>
      </trkpt>
      <trkpt lat="28.7862245" lon="119.7451663">
        <ele>442.95</ele>
        <time>2026-05-28T05:54:56Z</time>
        <speed>0.62899053</speed>
      </trkpt>
      <trkpt lat="28.7861845" lon="119.745065">
        <ele>446.59</ele>
        <time>2026-05-28T05:55:14Z</time>
        <speed>0.6531825</speed>
      </trkpt>
      <trkpt lat="28.7861" lon="119.7450366">
        <ele>448.87</ele>
        <time>2026-05-28T05:55:32Z</time>
        <speed>0.46633834</speed>
      </trkpt>
      <trkpt lat="28.7860231" lon="119.7449745">
        <ele>448.93</ele>
        <time>2026-05-28T05:55:50Z</time>
        <speed>0.6650211</speed>
      </trkpt>
      <trkpt lat="28.7859568" lon="119.7448922">
        <ele>447.93</ele>
        <time>2026-05-28T05:56:12Z</time>
        <speed>0.7339939</speed>
      </trkpt>
      <trkpt lat="28.7859021" lon="119.7447884">
        <ele>443.36</ele>
        <time>2026-05-28T05:56:28Z</time>
        <speed>0.6748008</speed>
      </trkpt>
      <trkpt lat="28.7859095" lon="119.7446551">
        <ele>438.08</ele>
        <time>2026-05-28T05:56:42Z</time>
        <speed>0.67274195</speed>
      </trkpt>
      <trkpt lat="28.7859643" lon="119.7445565">
        <ele>432.5</ele>
        <time>2026-05-28T05:56:58Z</time>
        <speed>1.0078261</speed>
      </trkpt>
      <trkpt lat="28.7860326" lon="119.7444594">
        <ele>426.22</ele>
        <time>2026-05-28T05:57:06Z</time>
        <speed>1.2744522</speed>
      </trkpt>
      <trkpt lat="28.7860476" lon="119.7443496">
        <ele>421.18</ele>
        <time>2026-05-28T05:57:18Z</time>
        <speed>0.8173789</speed>
      </trkpt>
      <trkpt lat="28.7860624" lon="119.7442399">
        <ele>416.63</ele>
        <time>2026-05-28T05:57:44Z</time>
        <speed>0.34229028</speed>
      </trkpt>
      <trkpt lat="28.7860697" lon="119.7441307">
        <ele>410.42</ele>
        <time>2026-05-28T05:58:34Z</time>
        <speed>0.94091225</speed>
      </trkpt>
      <trkpt lat="28.7860924" lon="119.7440219">
        <ele>406.8</ele>
        <time>2026-05-28T05:58:42Z</time>
        <speed>1.0448861</speed>
      </trkpt>
      <trkpt lat="28.7860977" lon="119.7439096">
        <ele>404.56</ele>
        <time>2026-05-28T05:58:48Z</time>
        <speed>1.1184914</speed>
      </trkpt>
      <trkpt lat="28.7860987" lon="119.7437973">
        <ele>403.55</ele>
        <time>2026-05-28T05:59:00Z</time>
        <speed>0.93679446</speed>
      </trkpt>
      <trkpt lat="28.7861383" lon="119.7436833">
        <ele>402.32</ele>
        <time>2026-05-28T06:00:22Z</time>
        <speed>0.9100289</speed>
      </trkpt>
      <trkpt lat="28.7861567" lon="119.74356">
        <ele>400.94</ele>
        <time>2026-05-28T06:00:46Z</time>
        <speed>0.43699917</speed>
      </trkpt>
      <trkpt lat="28.7861694" lon="119.7434381">
        <ele>400.1</ele>
        <time>2026-05-28T06:00:58Z</time>
        <speed>0.80708444</speed>
      </trkpt>
      <trkpt lat="28.7861283" lon="119.7433473">
        <ele>397.74</ele>
        <time>2026-05-28T06:01:10Z</time>
        <speed>0.0</speed>
      </trkpt>
      <trkpt lat="28.7861369" lon="119.7432411">
        <ele>394.28</ele>
        <time>2026-05-28T06:01:28Z</time>
        <speed>0.7391411</speed>
      </trkpt>
      <trkpt lat="28.7861412" lon="119.743136">
        <ele>388.61</ele>
        <time>2026-05-28T06:01:38Z</time>
        <speed>0.99701697</speed>
      </trkpt>
      <trkpt lat="28.7861694" lon="119.7430337">
        <ele>384.78</ele>
        <time>2026-05-28T06:02:00Z</time>
        <speed>0.972825</speed>
      </trkpt>
      <trkpt lat="28.7862459" lon="119.7429474">
        <ele>379.63</ele>
        <time>2026-05-28T06:02:24Z</time>
        <speed>0.8734836</speed>
      </trkpt>
      <trkpt lat="28.7863098" lon="119.7428566">
        <ele>378.97</ele>
        <time>2026-05-28T06:02:36Z</time>
        <speed>1.0464302</speed>
      </trkpt>
      <trkpt lat="28.7863356" lon="119.7427946">
        <ele>380.66</ele>
        <time>2026-05-28T06:02:48Z</time>
        <speed>0.0</speed>
      </trkpt>
      <trkpt lat="28.7863389" lon="119.7427002">
        <ele>381.97</ele>
        <time>2026-05-28T06:03:14Z</time>
        <speed>0.51317805</speed>
      </trkpt>
      <trkpt lat="28.7863542" lon="119.7425922">
        <ele>381.68</ele>
        <time>2026-05-28T06:03:24Z</time>
        <speed>0.82818806</speed>
      </trkpt>
      <trkpt lat="28.7864034" lon="119.742504">
        <ele>380.1</ele>
        <time>2026-05-28T06:03:38Z</time>
        <speed>0.86473334</speed>
      </trkpt>
      <trkpt lat="28.7864054" lon="119.7424041">
        <ele>377.99</ele>
        <time>2026-05-28T06:03:48Z</time>
        <speed>0.89510196</speed>
      </trkpt>
      <trkpt lat="28.7863859" lon="119.742302">
        <ele>377.61</ele>
        <time>2026-05-28T06:04:42Z</time>
        <speed>0.70053697</speed>
      </trkpt>
      <trkpt lat="28.7863854" lon="119.7421908">
        <ele>376.66</ele>
        <time>2026-05-28T06:04:50Z</time>
        <speed>0.74531776</speed>
      </trkpt>
      <trkpt lat="28.7864027" lon="119.7420853">
        <ele>375.26</ele>
        <time>2026-05-28T06:04:56Z</time>
        <speed>1.2945263</speed>
      </trkpt>
      <trkpt lat="28.7864691" lon="119.7420064">
        <ele>373.94</ele>
        <time>2026-05-28T06:05:10Z</time>
        <speed>0.93422085</speed>
      </trkpt>
      <trkpt lat="28.7865362" lon="119.7419297">
        <ele>371.3</ele>
        <time>2026-05-28T06:05:18Z</time>
        <speed>0.8142906</speed>
      </trkpt>
      <trkpt lat="28.7865829" lon="119.7418286">
        <ele>368.37</ele>
        <time>2026-05-28T06:05:28Z</time>
        <speed>0.9429711</speed>
      </trkpt>
      <trkpt lat="28.7866679" lon="119.7417828">
        <ele>365.2</ele>
        <time>2026-05-28T06:05:38Z</time>
        <speed>0.77208334</speed>
      </trkpt>
      <trkpt lat="28.7867597" lon="119.741807">
        <ele>363.39</ele>
        <time>2026-05-28T06:06:06Z</time>
        <speed>0.49258918</speed>
      </trkpt>
      <trkpt lat="28.7868457" lon="119.7417877">
        <ele>363.27</ele>
        <time>2026-05-28T06:06:20Z</time>
        <speed>0.0</speed>
      </trkpt>
      <trkpt lat="28.7869093" lon="119.7417199">
        <ele>363.24</ele>
        <time>2026-05-28T06:06:38Z</time>
        <speed>0.48589778</speed>
      </trkpt>
      <trkpt lat="28.7869418" lon="119.7416214">
        <ele>362.62</ele>
        <time>2026-05-28T06:06:46Z</time>
        <speed>0.98003113</speed>
      </trkpt>
      <trkpt lat="28.7869902" lon="119.7415204">
        <ele>361.49</ele>
        <time>2026-05-28T06:06:58Z</time>
        <speed>0.78649557</speed>
      </trkpt>
      <trkpt lat="28.7870383" lon="119.741615">
        <ele>359.43</ele>
        <time>2026-05-28T06:08:04Z</time>
        <speed>0.8750278</speed>
      </trkpt>
      <trkpt lat="28.7869483" lon="119.7415933">
        <ele>354.56</ele>
        <time>2026-05-28T06:08:34Z</time>
        <speed>0.68200696</speed>
      </trkpt>
      <trkpt lat="28.7868626" lon="119.7416422">
        <ele>349.93</ele>
        <time>2026-05-28T06:08:48Z</time>
        <speed>0.6989928</speed>
      </trkpt>
      <trkpt lat="28.7867827" lon="119.7417022">
        <ele>346.82</ele>
        <time>2026-05-28T06:09:10Z</time>
        <speed>0.0</speed>
      </trkpt>
      <trkpt lat="28.7867083" lon="119.7416317">
        <ele>346.9</ele>
        <time>2026-05-28T06:10:14Z</time>
        <speed>0.26250833</speed>
      </trkpt>
      <trkpt lat="28.78682" lon="119.74161">
        <ele>351.24</ele>
        <time>2026-05-28T06:11:20Z</time>
        <speed>0.87451303</speed>
      </trkpt>
      <trkpt lat="28.7869067" lon="119.74156">
        <ele>355.05</ele>
        <time>2026-05-28T06:11:28Z</time>
        <speed>0.99753165</speed>
      </trkpt>
      <trkpt lat="28.7869708" lon="119.741486">
        <ele>357.27</ele>
        <time>2026-05-28T06:11:38Z</time>
        <speed>0.7216405</speed>
      </trkpt>
      <trkpt lat="28.7869537" lon="119.7415455">
        <ele>357.45</ele>
        <time>2026-05-28T06:11:58Z</time>
        <speed>0.5646503</speed>
      </trkpt>
      <trkpt lat="28.786871" lon="119.7416126">
        <ele>355.15</ele>
        <time>2026-05-28T06:12:04Z</time>
        <speed>1.300703</speed>
      </trkpt>
      <trkpt lat="28.7868724" lon="119.7415838">
        <ele>352.59</ele>
        <time>2026-05-28T06:12:20Z</time>
        <speed>0.0</speed>
      </trkpt>
      <trkpt lat="28.7869506" lon="119.7415613">
        <ele>351.35</ele>
        <time>2026-05-28T06:12:32Z</time>
        <speed>0.64443225</speed>
      </trkpt>
      <trkpt lat="28.7870217" lon="119.7414815">
        <ele>349.35</ele>
        <time>2026-05-28T06:12:48Z</time>
        <speed>0.0</speed>
      </trkpt>
      <trkpt lat="28.7870516" lon="119.7413683">
        <ele>347.39</ele>
        <time>2026-05-28T06:13:16Z</time>
        <speed>0.7164933</speed>
      </trkpt>
      <trkpt lat="28.7870141" lon="119.7412543">
        <ele>346.58</ele>
        <time>2026-05-28T06:13:34Z</time>
        <speed>0.5245019</speed>
      </trkpt>
      <trkpt lat="28.7870258" lon="119.7411426">
        <ele>345.04</ele>
        <time>2026-05-28T06:13:58Z</time>
        <speed>0.40354222</speed>
      </trkpt>
      <trkpt lat="28.7870183" lon="119.7410238">
        <ele>342.48</ele>
        <time>2026-05-28T06:14:08Z</time>
        <speed>0.9126025</speed>
      </trkpt>
      <trkpt lat="28.7869621" lon="119.7410425">
        <ele>339.95</ele>
        <time>2026-05-28T06:14:30Z</time>
        <speed>0.49464807</speed>
      </trkpt>
      <trkpt lat="28.7869403" lon="119.7409719">
        <ele>337.52</ele>
        <time>2026-05-28T06:15:20Z</time>
        <speed>0.58935696</speed>
      </trkpt>
      <trkpt lat="28.7869529" lon="119.7408668">
        <ele>333.51</ele>
        <time>2026-05-28T06:15:32Z</time>
        <speed>1.0103997</speed>
      </trkpt>
      <trkpt lat="28.7869578" lon="119.7408829">
        <ele>331.96</ele>
        <time>2026-05-28T06:15:38Z</time>
        <speed>0.0</speed>
      </trkpt>
      <trkpt lat="28.7870192" lon="119.7408594">
        <ele>331.07</ele>
        <time>2026-05-28T06:16:14Z</time>
        <speed>0.3500111</speed>
      </trkpt>
      <trkpt lat="28.7871107" lon="119.7408299">
        <ele>330.22</ele>
        <time>2026-05-28T06:16:26Z</time>
        <speed>0.47354445</speed>
      </trkpt>
      <trkpt lat="28.7872185" lon="119.7408001">
        <ele>329.91</ele>
        <time>2026-05-28T06:16:46Z</time>
        <speed>0.58678335</speed>
      </trkpt>
      <trkpt lat="28.7873137" lon="119.7407488">
        <ele>330.77</ele>
        <time>2026-05-28T06:17:10Z</time>
        <speed>0.5553853</speed>
      </trkpt>
      <trkpt lat="28.7873428" lon="119.7406471">
        <ele>332.72</ele>
        <time>2026-05-28T06:17:36Z</time>
        <speed>0.46427944</speed>
      </trkpt>
      <trkpt lat="28.7873995" lon="119.740552">
        <ele>333.05</ele>
        <time>2026-05-28T06:17:46Z</time>
        <speed>1.1174619</speed>
      </trkpt>
      <trkpt lat="28.7874708" lon="119.7404802">
        <ele>332.0</ele>
        <time>2026-05-28T06:17:54Z</time>
        <speed>1.0402536</speed>
      </trkpt>
      <trkpt lat="28.7875038" lon="119.7403683">
        <ele>330.11</ele>
        <time>2026-05-28T06:18:14Z</time>
        <speed>0.54251724</speed>
      </trkpt>
      <trkpt lat="28.7875722" lon="119.7403038">
        <ele>325.63</ele>
        <time>2026-05-28T06:18:26Z</time>
        <speed>0.8426003</speed>
      </trkpt>
      <trkpt lat="28.7876327" lon="119.7402185">
        <ele>321.19</ele>
        <time>2026-05-28T06:18:36Z</time>
        <speed>1.3753377</speed>
      </trkpt>
      <trkpt lat="28.7877043" lon="119.7401353">
        <ele>317.58</ele>
        <time>2026-05-28T06:18:46Z</time>
        <speed>1.4592375</speed>
      </trkpt>
      <trkpt lat="28.7877711" lon="119.7400594">
        <ele>315.78</ele>
        <time>2026-05-28T06:19:04Z</time>
        <speed>0.0</speed>
      </trkpt>
      <trkpt lat="28.787823" lon="119.7399724">
        <ele>315.45</ele>
        <time>2026-05-28T06:19:22Z</time>
        <speed>0.6295053</speed>
      </trkpt>
      <trkpt lat="28.7879006" lon="119.7399237">
        <ele>314.87</ele>
        <time>2026-05-28T06:19:52Z</time>
        <speed>0.7556122</speed>
      </trkpt>
      <trkpt lat="28.7879859" lon="119.7398817">
        <ele>314.19</ele>
        <time>2026-05-28T06:20:08Z</time>
        <speed>0.6840658</speed>
      </trkpt>
      <trkpt lat="28.7880755" lon="119.7398304">
        <ele>313.55</ele>
        <time>2026-05-28T06:20:24Z</time>
        <speed>1.0479745</speed>
      </trkpt>
      <trkpt lat="28.788167" lon="119.7397617">
        <ele>313.14</ele>
        <time>2026-05-28T06:20:36Z</time>
        <speed>0.9270147</speed>
      </trkpt>
      <trkpt lat="28.7882547" lon="119.739699">
        <ele>313.51</ele>
        <time>2026-05-28T06:20:46Z</time>
        <speed>1.1138589</speed>
      </trkpt>
      <trkpt lat="28.7883217" lon="119.7396732">
        <ele>314.02</ele>
        <time>2026-05-28T06:21:06Z</time>
        <speed>0.0</speed>
      </trkpt>
      <trkpt lat="28.7884136" lon="119.7396559">
        <ele>313.45</ele>
        <time>2026-05-28T06:21:36Z</time>
        <speed>0.602225</speed>
      </trkpt>
      <trkpt lat="28.7884882" lon="119.7395897">
        <ele>311.37</ele>
        <time>2026-05-28T06:22:24Z</time>
        <speed>0.435455</speed>
      </trkpt>
      <trkpt lat="28.788577" lon="119.7395642">
        <ele>307.85</ele>
        <time>2026-05-28T06:22:38Z</time>
        <speed>0.36957055</speed>
      </trkpt>
      <trkpt lat="28.7886365" lon="119.7394766">
        <ele>303.87</ele>
        <time>2026-05-28T06:22:58Z</time>
        <speed>0.811717</speed>
      </trkpt>
      <trkpt lat="28.7887097" lon="119.7394026">
        <ele>300.44</ele>
        <time>2026-05-28T06:23:12Z</time>
        <speed>1.0567247</speed>
      </trkpt>
      <trkpt lat="28.7887468" lon="119.7393727">
        <ele>297.46</ele>
        <time>2026-05-28T06:23:14Z</time>
        <speed>0.0</speed>
      </trkpt>
      <trkpt lat="28.7887819" lon="119.7392895">
        <ele>295.67</ele>
        <time>2026-05-28T06:23:30Z</time>
        <speed>0.0</speed>
      </trkpt>
      <trkpt lat="28.7888521" lon="119.739231">
        <ele>294.0</ele>
        <time>2026-05-28T06:23:42Z</time>
        <speed>0.9120878</speed>
      </trkpt>
      <trkpt lat="28.7889387" lon="119.7391772">
        <ele>291.68</ele>
        <time>2026-05-28T06:23:52Z</time>
        <speed>1.096873</speed>
      </trkpt>
      <trkpt lat="28.7890262" lon="119.7391248">
        <ele>289.8</ele>
        <time>2026-05-28T06:24:00Z</time>
        <speed>1.1524631</speed>
      </trkpt>
      <trkpt lat="28.7890725" lon="119.7391124">
        <ele>288.77</ele>
        <time>2026-05-28T06:24:08Z</time>
        <speed>0.0</speed>
      </trkpt>
      <trkpt lat="28.7891515" lon="119.7391444">
        <ele>287.23</ele>
        <time>2026-05-28T06:24:34Z</time>
        <speed>0.46891195</speed>
      </trkpt>
      <trkpt lat="28.7892469" lon="119.7391802">
        <ele>280.34</ele>
        <time>2026-05-28T06:24:50Z</time>
        <speed>0.71186084</speed>
      </trkpt>
      <trkpt lat="28.7893486" lon="119.7392075">
        <ele>276.49</ele>
        <time>2026-05-28T06:25:06Z</time>
        <speed>0.5847244</speed>
      </trkpt>
      <trkpt lat="28.7894463" lon="119.7392183">
        <ele>274.13</ele>
        <time>2026-05-28T06:25:12Z</time>
        <speed>1.0824609</speed>
      </trkpt>
      <trkpt lat="28.7895402" lon="119.7392223">
        <ele>272.7</ele>
        <time>2026-05-28T06:25:26Z</time>
        <speed>0.7221553</speed>
      </trkpt>
      <trkpt lat="28.7896336" lon="119.7392369">
        <ele>271.58</ele>
        <time>2026-05-28T06:25:34Z</time>
        <speed>1.0665045</speed>
      </trkpt>
      <trkpt lat="28.7897218" lon="119.739216">
        <ele>270.56</ele>
        <time>2026-05-28T06:25:42Z</time>
        <speed>1.1658459</speed>
      </trkpt>
      <trkpt lat="28.7898195" lon="119.7391744">
        <ele>269.37</ele>
        <time>2026-05-28T06:25:50Z</time>
        <speed>1.2029058</speed>
      </trkpt>
      <trkpt lat="28.7899109" lon="119.7391307">
        <ele>268.61</ele>
        <time>2026-05-28T06:26:00Z</time>
        <speed>1.1529778</speed>
      </trkpt>
      <trkpt lat="28.7900022" lon="119.7391235">
        <ele>267.92</ele>
        <time>2026-05-28T06:26:10Z</time>
        <speed>0.9980464</speed>
      </trkpt>
      <trkpt lat="28.7901049" lon="119.7391259">
        <ele>266.66</ele>
        <time>2026-05-28T06:26:20Z</time>
        <speed>1.0829755</speed>
      </trkpt>
      <trkpt lat="28.7902067" lon="119.7391541">
        <ele>265.3</ele>
        <time>2026-05-28T06:26:32Z</time>
        <speed>0.94605947</speed>
      </trkpt>
      <trkpt lat="28.7903165" lon="119.7392144">
        <ele>263.28</ele>
        <time>2026-05-28T06:26:40Z</time>
        <speed>1.7433642</speed>
      </trkpt>
      <trkpt lat="28.7904189" lon="119.7392192">
        <ele>261.4</ele>
        <time>2026-05-28T06:26:48Z</time>
        <speed>1.6918919</speed>
      </trkpt>
      <trkpt lat="28.7905218" lon="119.7392222">
        <ele>260.45</ele>
        <time>2026-05-28T06:26:58Z</time>
        <speed>1.1601839</speed>
      </trkpt>
      <trkpt lat="28.7906162" lon="119.7392448">
        <ele>259.74</ele>
        <time>2026-05-28T06:27:06Z</time>
        <speed>1.226583</speed>
      </trkpt>
      <trkpt lat="28.7907025" lon="119.739308">
        <ele>259.64</ele>
        <time>2026-05-28T06:27:16Z</time>
        <speed>0.8621597</speed>
      </trkpt>
      <trkpt lat="28.7907901" lon="119.7393166">
        <ele>259.45</ele>
        <time>2026-05-28T06:27:26Z</time>
        <speed>0.9589275</speed>
      </trkpt>
      <trkpt lat="28.7908864" lon="119.7392839">
        <ele>259.38</ele>
        <time>2026-05-28T06:27:34Z</time>
        <speed>1.3104827</speed>
      </trkpt>
      <trkpt lat="28.7909787" lon="119.7392654">
        <ele>259.26</ele>
        <time>2026-05-28T06:27:42Z</time>
        <speed>1.1560661</speed>
      </trkpt>
      <trkpt lat="28.7910616" lon="119.7393027">
        <ele>259.58</ele>
        <time>2026-05-28T06:28:00Z</time>
        <speed>0.8842928</speed>
      </trkpt>
      <trkpt lat="28.7911462" lon="119.739345">
        <ele>259.59</ele>
        <time>2026-05-28T06:28:14Z</time>
        <speed>0.7643625</speed>
      </trkpt>
      <trkpt lat="28.7912269" lon="119.739319">
        <ele>259.72</ele>
        <time>2026-05-28T06:28:24Z</time>
        <speed>0.92804414</speed>
      </trkpt>
      <trkpt lat="28.7913027" lon="119.7392563">
        <ele>258.85</ele>
        <time>2026-05-28T06:28:34Z</time>
        <speed>1.0917258</speed>
      </trkpt>
      <trkpt lat="28.7913982" lon="119.7392295">
        <ele>257.28</ele>
        <time>2026-05-28T06:28:50Z</time>
        <speed>0.8101728</speed>
      </trkpt>
      <trkpt lat="28.7915052" lon="119.739213">
        <ele>253.68</ele>
        <time>2026-05-28T06:29:06Z</time>
        <speed>0.5728858</speed>
      </trkpt>
      <trkpt lat="28.7916117" lon="119.7391926">
        <ele>248.44</ele>
        <time>2026-05-28T06:29:22Z</time>
        <speed>0.4843536</speed>
      </trkpt>
      <trkpt lat="28.791717" lon="119.7391715">
        <ele>243.04</ele>
        <time>2026-05-28T06:29:34Z</time>
        <speed>0.81892306</speed>
      </trkpt>
      <trkpt lat="28.791815" lon="119.7392027">
        <ele>238.94</ele>
        <time>2026-05-28T06:29:42Z</time>
        <speed>1.3403367</speed>
      </trkpt>
      <trkpt lat="28.7919114" lon="119.7392491">
        <ele>235.61</ele>
        <time>2026-05-28T06:29:54Z</time>
        <speed>1.0551805</speed>
      </trkpt>
      <trkpt lat="28.7920013" lon="119.7393057">
        <ele>231.56</ele>
        <time>2026-05-28T06:30:08Z</time>
        <speed>0.7571564</speed>
      </trkpt>
      <trkpt lat="28.7920777" lon="119.7393863">
        <ele>226.93</ele>
        <time>2026-05-28T06:30:58Z</time>
        <speed>0.38604167</speed>
      </trkpt>
      <trkpt lat="28.7921534" lon="119.7394512">
        <ele>223.82</ele>
        <time>2026-05-28T06:31:10Z</time>
        <speed>0.7092872</speed>
      </trkpt>
      <trkpt lat="28.7922424" lon="119.7394894">
        <ele>221.58</ele>
        <time>2026-05-28T06:31:20Z</time>
        <speed>1.0742253</speed>
      </trkpt>
      <trkpt lat="28.7923093" lon="119.7395688">
        <ele>219.35</ele>
        <time>2026-05-28T06:31:32Z</time>
        <speed>0.9687072</speed>
      </trkpt>
      <trkpt lat="28.7923864" lon="119.739632">
        <ele>216.06</ele>
        <time>2026-05-28T06:31:46Z</time>
        <speed>0.7149492</speed>
      </trkpt>
      <trkpt lat="28.7924671" lon="119.7396939">
        <ele>211.52</ele>
        <time>2026-05-28T06:31:58Z</time>
        <speed>1.0176058</speed>
      </trkpt>
      <trkpt lat="28.7925514" lon="119.7397454">
        <ele>206.95</ele>
        <time>2026-05-28T06:32:06Z</time>
        <speed>1.0315033</speed>
      </trkpt>
      <trkpt lat="28.7926557" lon="119.7397607">
        <ele>203.49</ele>
        <time>2026-05-28T06:32:14Z</time>
        <speed>1.3773967</speed>
      </trkpt>
      <trkpt lat="28.7927582" lon="119.7397733">
        <ele>201.0</ele>
        <time>2026-05-28T06:32:26Z</time>
        <speed>0.8575272</speed>
      </trkpt>
      <trkpt lat="28.7928638" lon="119.7397384">
        <ele>199.49</ele>
        <time>2026-05-28T06:32:34Z</time>
        <speed>0.9676778</speed>
      </trkpt>
      <trkpt lat="28.7929574" lon="119.7397039">
        <ele>198.03</ele>
        <time>2026-05-28T06:32:44Z</time>
        <speed>0.99186975</speed>
      </trkpt>
      <trkpt lat="28.7930563" lon="119.7396728">
        <ele>197.07</ele>
        <time>2026-05-28T06:32:56Z</time>
        <speed>0.8194378</speed>
      </trkpt>
      <trkpt lat="28.7931561" lon="119.7396673">
        <ele>195.97</ele>
        <time>2026-05-28T06:33:04Z</time>
        <speed>1.31563</speed>
      </trkpt>
      <trkpt lat="28.7932375" lon="119.7397194">
        <ele>194.6</ele>
        <time>2026-05-28T06:33:12Z</time>
        <speed>1.1884936</speed>
      </trkpt>
      <trkpt lat="28.7933208" lon="119.739779">
        <ele>193.23</ele>
        <time>2026-05-28T06:33:22Z</time>
        <speed>1.0958436</speed>
      </trkpt>
      <trkpt lat="28.793392" lon="119.739849">
        <ele>192.05</ele>
        <time>2026-05-28T06:33:32Z</time>
        <speed>1.1040791</speed>
      </trkpt>
      <trkpt lat="28.7934529" lon="119.7399404">
        <ele>190.87</ele>
        <time>2026-05-28T06:33:44Z</time>
        <speed>0.7736275</speed>
      </trkpt>
      <trkpt lat="28.7935222" lon="119.7400403">
        <ele>189.68</ele>
        <time>2026-05-28T06:33:52Z</time>
        <speed>1.3562931</speed>
      </trkpt>
      <trkpt lat="28.7935705" lon="119.7401124">
        <ele>188.65</ele>
        <time>2026-05-28T06:34:16Z</time>
        <speed>0.0</speed>
      </trkpt>
      <trkpt lat="28.7936113" lon="119.7402115">
        <ele>186.7</ele>
        <time>2026-05-28T06:34:56Z</time>
        <speed>1.2729081</speed>
      </trkpt>
      <trkpt lat="28.7937006" lon="119.740201">
        <ele>186.27</ele>
        <time>2026-05-28T06:35:06Z</time>
        <speed>1.2240094</speed>
      </trkpt>
      <trkpt lat="28.7937912" lon="119.7402144">
        <ele>185.16</ele>
        <time>2026-05-28T06:35:16Z</time>
        <speed>1.0737106</speed>
      </trkpt>
      <trkpt lat="28.7938463" lon="119.7402858">
        <ele>184.45</ele>
        <time>2026-05-28T06:35:24Z</time>
        <speed>1.3084239</speed>
      </trkpt>
      <trkpt lat="28.793891" lon="119.7403825">
        <ele>183.82</ele>
        <time>2026-05-28T06:35:34Z</time>
        <speed>1.1339331</speed>
      </trkpt>
      <trkpt lat="28.7938906" lon="119.7404972">
        <ele>184.07</ele>
        <time>2026-05-28T06:35:44Z</time>
        <speed>1.0608425</speed>
      </trkpt>
      <trkpt lat="28.7938738" lon="119.7406085">
        <ele>184.43</ele>
        <time>2026-05-28T06:35:54Z</time>
        <speed>1.1329036</speed>
      </trkpt>
      <trkpt lat="28.7938579" lon="119.7407174">
        <ele>183.17</ele>
        <time>2026-05-28T06:36:02Z</time>
        <speed>1.2234948</speed>
      </trkpt>
      <trkpt lat="28.7939" lon="119.740813">
        <ele>181.55</ele>
        <time>2026-05-28T06:36:18Z</time>
        <speed>1.3182036</speed>
      </trkpt>
      <trkpt lat="28.7940034" lon="119.740852">
        <ele>180.67</ele>
        <time>2026-05-28T06:36:28Z</time>
        <speed>1.0608425</speed>
      </trkpt>
      <trkpt lat="28.7941117" lon="119.740847">
        <ele>180.29</ele>
        <time>2026-05-28T06:36:36Z</time>
        <speed>1.3372483</speed>
      </trkpt>
      <trkpt lat="28.7942109" lon="119.7408155">
        <ele>180.25</ele>
        <time>2026-05-28T06:36:44Z</time>
        <speed>1.0603278</speed>
      </trkpt>
      <trkpt lat="28.7943227" lon="119.7407911">
        <ele>180.79</ele>
        <time>2026-05-28T06:36:54Z</time>
        <speed>1.0737106</speed>
      </trkpt>
      <trkpt lat="28.7944195" lon="119.7407667">
        <ele>181.78</ele>
        <time>2026-05-28T06:37:02Z</time>
        <speed>0.9146614</speed>
      </trkpt>
      <trkpt lat="28.794522" lon="119.7407275">
        <ele>182.65</ele>
        <time>2026-05-28T06:37:10Z</time>
        <speed>1.1087117</speed>
      </trkpt>
      <trkpt lat="28.7946068" lon="119.7406676">
        <ele>183.62</ele>
        <time>2026-05-28T06:37:18Z</time>
        <speed>1.4417369</speed>
      </trkpt>
      <trkpt lat="28.7946825" lon="119.7406012">
        <ele>185.03</ele>
        <time>2026-05-28T06:37:26Z</time>
        <speed>1.1560661</speed>
      </trkpt>
      <trkpt lat="28.7947744" lon="119.7405619">
        <ele>186.14</ele>
        <time>2026-05-28T06:37:34Z</time>
        <speed>1.521519</speed>
      </trkpt>
      <trkpt lat="28.7948706" lon="119.7405501">
        <ele>186.03</ele>
        <time>2026-05-28T06:37:42Z</time>
        <speed>1.497327</speed>
      </trkpt>
      <trkpt lat="28.7949669" lon="119.7405437">
        <ele>184.64</ele>
        <time>2026-05-28T06:37:50Z</time>
        <speed>1.1684195</speed>
      </trkpt>
      <trkpt lat="28.7950728" lon="119.7405612">
        <ele>182.56</ele>
        <time>2026-05-28T06:37:58Z</time>
        <speed>1.3182036</speed>
      </trkpt>
      <trkpt lat="28.7951706" lon="119.7405849">
        <ele>180.73</ele>
        <time>2026-05-28T06:38:06Z</time>
        <speed>1.4329866</speed>
      </trkpt>
      <trkpt lat="28.7952673" lon="119.7406075">
        <ele>178.82</ele>
        <time>2026-05-28T06:38:14Z</time>
        <speed>1.2337892</speed>
      </trkpt>
      <trkpt lat="28.7953588" lon="119.7406083">
        <ele>177.57</ele>
        <time>2026-05-28T06:38:22Z</time>
        <speed>1.121065</speed>
      </trkpt>
      <trkpt lat="28.7954634" lon="119.7406168">
        <ele>176.85</ele>
        <time>2026-05-28T06:38:30Z</time>
        <speed>1.33416</speed>
      </trkpt>
      <trkpt lat="28.795562" lon="119.7406138">
        <ele>176.4</ele>
        <time>2026-05-28T06:38:38Z</time>
        <speed>1.3109975</speed>
      </trkpt>
      <trkpt lat="28.795669" lon="119.7406293">
        <ele>176.83</ele>
        <time>2026-05-28T06:38:46Z</time>
        <speed>1.4952681</speed>
      </trkpt>
      <trkpt lat="28.7957767" lon="119.7406133">
        <ele>176.52</ele>
        <time>2026-05-28T06:38:56Z</time>
        <speed>1.3001883</speed>
      </trkpt>
      <trkpt lat="28.7958729" lon="119.7405938">
        <ele>176.12</ele>
        <time>2026-05-28T06:39:04Z</time>
        <speed>1.4221776</speed>
      </trkpt>
      <trkpt lat="28.795971" lon="119.7406008">
        <ele>175.68</ele>
        <time>2026-05-28T06:39:12Z</time>
        <speed>1.6517437</speed>
      </trkpt>
      <trkpt lat="28.7960626" lon="119.7406485">
        <ele>175.69</ele>
        <time>2026-05-28T06:39:24Z</time>
        <speed>0.9517214</speed>
      </trkpt>
      <trkpt lat="28.7961596" lon="119.74072">
        <ele>175.48</ele>
        <time>2026-05-28T06:39:32Z</time>
        <speed>1.3295275</speed>
      </trkpt>
      <trkpt lat="28.7962477" lon="119.7408038">
        <ele>174.07</ele>
        <time>2026-05-28T06:39:42Z</time>
        <speed>1.4993858</speed>
      </trkpt>
      <trkpt lat="28.7963225" lon="119.7408817">
        <ele>172.75</ele>
        <time>2026-05-28T06:39:50Z</time>
        <speed>1.2595253</speed>
      </trkpt>
      <trkpt lat="28.7964029" lon="119.7409454">
        <ele>171.78</ele>
        <time>2026-05-28T06:40:00Z</time>
        <speed>1.0659897</speed>
      </trkpt>
      <trkpt lat="28.7964964" lon="119.7409931">
        <ele>170.54</ele>
        <time>2026-05-28T06:40:08Z</time>
        <speed>1.2610694</speed>
      </trkpt>
      <trkpt lat="28.7965985" lon="119.741049">
        <ele>170.01</ele>
        <time>2026-05-28T06:40:18Z</time>
        <speed>1.2363628</speed>
      </trkpt>
      <trkpt lat="28.796692" lon="119.7410827">
        <ele>169.79</ele>
        <time>2026-05-28T06:40:26Z</time>
        <speed>1.2193769</speed>
      </trkpt>
      <trkpt lat="28.7967928" lon="119.7411197">
        <ele>170.14</ele>
        <time>2026-05-28T06:40:36Z</time>
        <speed>1.1195208</speed>
      </trkpt>
      <trkpt lat="28.7969" lon="119.7411604">
        <ele>171.11</ele>
        <time>2026-05-28T06:40:46Z</time>
        <speed>1.4216628</speed>
      </trkpt>
      <trkpt lat="28.7969879" lon="119.7412204">
        <ele>172.18</ele>
        <time>2026-05-28T06:40:54Z</time>
        <speed>1.6290958</speed>
      </trkpt>
      <trkpt lat="28.7970695" lon="119.7413027">
        <ele>173.31</ele>
        <time>2026-05-28T06:41:02Z</time>
        <speed>1.6996127</speed>
      </trkpt>
      <trkpt lat="28.7971446" lon="119.7413757">
        <ele>174.38</ele>
        <time>2026-05-28T06:41:12Z</time>
        <speed>1.2183475</speed>
      </trkpt>
      <trkpt lat="28.7972292" lon="119.7414211">
        <ele>174.3</ele>
        <time>2026-05-28T06:41:20Z</time>
        <speed>1.2409953</speed>
      </trkpt>
      <trkpt lat="28.7973119" lon="119.741471">
        <ele>172.84</ele>
        <time>2026-05-28T06:41:28Z</time>
        <speed>1.4643847</speed>
      </trkpt>
      <trkpt lat="28.7973925" lon="119.7415451">
        <ele>170.97</ele>
        <time>2026-05-28T06:41:38Z</time>
        <speed>1.2234948</speed>
      </trkpt>
      <trkpt lat="28.7974811" lon="119.7415909">
        <ele>169.01</ele>
        <time>2026-05-28T06:41:46Z</time>
        <speed>1.2862909</speed>
      </trkpt>
      <trkpt lat="28.7975766" lon="119.7416152">
        <ele>167.71</ele>
        <time>2026-05-28T06:41:54Z</time>
        <speed>1.3382778</speed>
      </trkpt>
      <trkpt lat="28.7976817" lon="119.7415976">
        <ele>167.06</ele>
        <time>2026-05-28T06:42:02Z</time>
        <speed>1.4293836</speed>
      </trkpt>
      <trkpt lat="28.7977634" lon="119.7416428">
        <ele>167.16</ele>
        <time>2026-05-28T06:42:10Z</time>
        <speed>1.3887205</speed>
      </trkpt>
      <trkpt lat="28.7978233" lon="119.7417316">
        <ele>167.95</ele>
        <time>2026-05-28T06:42:18Z</time>
        <speed>1.4180597</speed>
      </trkpt>
      <trkpt lat="28.7978822" lon="119.7418159">
        <ele>168.4</ele>
        <time>2026-05-28T06:42:26Z</time>
        <speed>1.1704783</speed>
      </trkpt>
      <trkpt lat="28.7979525" lon="119.7418814">
        <ele>169.61</ele>
        <time>2026-05-28T06:42:34Z</time>
        <speed>1.1112853</speed>
      </trkpt>
      <trkpt lat="28.7980442" lon="119.741946">
        <ele>170.55</ele>
        <time>2026-05-28T06:42:44Z</time>
        <speed>1.4180597</speed>
      </trkpt>
      <trkpt lat="28.7981347" lon="119.7420056">
        <ele>171.69</ele>
        <time>2026-05-28T06:42:54Z</time>
        <speed>1.2183475</speed>
      </trkpt>
      <trkpt lat="28.7982249" lon="119.7420459">
        <ele>172.55</ele>
        <time>2026-05-28T06:43:12Z</time>
        <speed>0.6186961</speed>
      </trkpt>
      <trkpt lat="28.798179" lon="119.7420432">
        <ele>171.46</ele>
        <time>2026-05-28T06:43:52Z</time>
        <speed>0.6650211</speed>
      </trkpt>
      <trkpt lat="28.798231" lon="119.742075">
        <ele>171.47</ele>
        <time>2026-05-28T06:44:16Z</time>
        <speed>0.7417147</speed>
      </trkpt>
      <trkpt lat="28.798316" lon="119.742136">
        <ele>171.66</ele>
        <time>2026-05-28T06:44:26Z</time>
        <speed>1.0680486</speed>
      </trkpt>
      <trkpt lat="28.7984002" lon="119.7422026">
        <ele>172.15</ele>
        <time>2026-05-28T06:44:34Z</time>
        <speed>1.2085677</speed>
      </trkpt>
      <trkpt lat="28.7984804" lon="119.7422693">
        <ele>172.26</ele>
        <time>2026-05-28T06:44:42Z</time>
        <speed>1.1684195</speed>
      </trkpt>
      <trkpt lat="28.7985765" lon="119.7422973">
        <ele>172.4</ele>
        <time>2026-05-28T06:44:52Z</time>
        <speed>1.0186353</speed>
      </trkpt>
      <trkpt lat="28.7986842" lon="119.7422868">
        <ele>172.36</ele>
        <time>2026-05-28T06:45:02Z</time>
        <speed>1.2178328</speed>
      </trkpt>
      <trkpt lat="28.7987975" lon="119.7422564">
        <ele>171.04</ele>
        <time>2026-05-28T06:45:12Z</time>
        <speed>1.2595253</speed>
      </trkpt>
      <trkpt lat="28.7989041" lon="119.7422505">
        <ele>169.3</ele>
        <time>2026-05-28T06:45:20Z</time>
        <speed>1.4185745</speed>
      </trkpt>
      <trkpt lat="28.7989041" lon="119.7422505">
        <ele>169.3</ele>
        <time>2026-05-28T06:45:21Z</time>
        <speed>1.4185745</speed>
      </trkpt>
      <extensions>
        <PauseTimes>1779950721000:pause</PauseTimes>
      </extensions>
    </trkseg>
  </trk>
  <wpt lat="28.79908" lon="119.742385">
    <ele>169.1</ele>
    <time>2026-05-28T03:52:33Z</time>
    <name><![CDATA[停车
        ]]>
    </name>
    <cmt>停车
        </cmt>
    <desc><![CDATA[]]>
    </desc>
    <sym>Flag, Blue</sym>
    <type>user</type>
    <extensions>
      <PosType>0</PosType>
      <Speed>0.37832084</Speed>
      <Accuracy>3.2</Accuracy>
      <Time>1779940353014</Time>
      <description><![CDATA[]]>
      </description>
      <FileId>1618557327</FileId>
      <FileSize>1492915</FileSize>
      <FileType>0</FileType>
    </extensions>
  </wpt>
  <wpt lat="28.7981981" lon="119.7420875">
    <ele>152.6</ele>
    <time>2026-05-28T03:54:53Z</time>
    <name><![CDATA[
        ]]>
    </name>
    <cmt>
        </cmt>
    <desc><![CDATA[]]>
    </desc>
    <sym>Flag, Blue</sym>
    <type>user</type>
    <extensions>
      <PosType>0</PosType>
      <Speed>1.2610694</Speed>
      <Accuracy>1.4</Accuracy>
      <Time>1779940493306</Time>
      <description><![CDATA[]]>
      </description>
      <FileId>1618557326</FileId>
      <FileSize>1457253</FileSize>
      <FileType>0</FileType>
    </extensions>
  </wpt>
  <wpt lat="28.7946227" lon="119.740586">
    <ele>169.2</ele>
    <time>2026-05-28T04:00:11Z</time>
    <name><![CDATA[茶叶山
        ]]>
    </name>
    <cmt>茶叶山
        </cmt>
    <desc><![CDATA[]]>
    </desc>
    <sym>Flag, Blue</sym>
    <type>user</type>
    <extensions>
      <PosType>0</PosType>
      <Speed>1.6543173</Speed>
      <Accuracy>1.6</Accuracy>
      <Time>1779940811086</Time>
      <description><![CDATA[]]>
      </description>
    </extensions>
  </wpt>
  <wpt lat="28.7939716" lon="119.7408448">
    <ele>186.5</ele>
    <time>2026-05-28T04:01:16Z</time>
    <name><![CDATA[左转
        ]]>
    </name>
    <cmt>左转
        </cmt>
    <desc><![CDATA[]]>
    </desc>
    <sym>Flag, Blue</sym>
    <type>user</type>
    <extensions>
      <PosType>0</PosType>
      <Speed>0.9959875</Speed>
      <Accuracy>1.5</Accuracy>
      <Time>1779940876092</Time>
      <description><![CDATA[]]>
      </description>
      <FileId>1618557324</FileId>
      <FileSize>2171986</FileSize>
      <FileType>0</FileType>
    </extensions>
  </wpt>
  <wpt lat="28.7937967" lon="119.7408817">
    <ele>190.6</ele>
    <time>2026-05-28T04:03:44Z</time>
    <name><![CDATA[再左转
        ]]>
    </name>
    <cmt>再左转
        </cmt>
    <desc><![CDATA[]]>
    </desc>
    <sym>Flag, Blue</sym>
    <type>user</type>
    <extensions>
      <PosType>0</PosType>
      <Speed>0.4025128</Speed>
      <Accuracy>1.5</Accuracy>
      <Time>1779941024121</Time>
      <description><![CDATA[]]>
      </description>
      <FileId>1618557273</FileId>
      <FileSize>2820107</FileSize>
      <FileType>0</FileType>
    </extensions>
  </wpt>
  <wpt lat="28.79333" lon="119.74177">
    <ele>227.9</ele>
    <time>2026-05-28T04:11:38Z</time>
    <name><![CDATA[水潭
        ]]>
    </name>
    <cmt>水潭
        </cmt>
    <desc><![CDATA[]]>
    </desc>
    <sym>Flag, Blue</sym>
    <type>user</type>
    <extensions>
      <PosType>0</PosType>
      <Speed>0.36390862</Speed>
      <Accuracy>1.8</Accuracy>
      <Time>1779941498109</Time>
      <description><![CDATA[]]>
      </description>
      <FileId>1618557271</FileId>
      <FileSize>1446575</FileSize>
      <FileType>0</FileType>
    </extensions>
  </wpt>
  <wpt lat="28.7928212" lon="119.7436369">
    <ele>310.5</ele>
    <time>2026-05-28T04:19:34Z</time>
    <name><![CDATA[右转
        ]]>
    </name>
    <cmt>右转
        </cmt>
    <desc><![CDATA[]]>
    </desc>
    <sym>Flag, Blue</sym>
    <type>user</type>
    <extensions>
      <PosType>0</PosType>
      <Speed>0.90745527</Speed>
      <Accuracy>2.2</Accuracy>
      <Time>1779941974025</Time>
      <description><![CDATA[]]>
      </description>
      <FileId>1618557270</FileId>
      <FileSize>1538518</FileSize>
      <FileType>0</FileType>
    </extensions>
  </wpt>
  <wpt lat="28.792735" lon="119.7438067">
    <ele>314.2</ele>
    <time>2026-05-28T04:22:00Z</time>
    <name><![CDATA[水潭2
        ]]>
    </name>
    <cmt>水潭2
        </cmt>
    <desc><![CDATA[]]>
    </desc>
    <sym>Flag, Blue</sym>
    <type>user</type>
    <extensions>
      <PosType>0</PosType>
      <Speed>0.6964192</Speed>
      <Accuracy>1.7</Accuracy>
      <Time>1779942120117</Time>
      <description><![CDATA[]]>
      </description>
      <FileId>1618557268</FileId>
      <FileSize>2497263</FileSize>
      <FileType>0</FileType>
    </extensions>
  </wpt>
  <wpt lat="28.7918036" lon="119.7444598">
    <ele>359.3</ele>
    <time>2026-05-28T04:31:58Z</time>
    <name><![CDATA[进入竹林路段
        ]]>
    </name>
    <cmt>进入竹林路段
        </cmt>
    <desc><![CDATA[]]>
    </desc>
    <sym>Flag, Blue</sym>
    <type>user</type>
    <extensions>
      <PosType>0</PosType>
      <Speed>0.9604717</Speed>
      <Accuracy>1.7</Accuracy>
      <Time>1779942718133</Time>
      <description><![CDATA[]]>
      </description>
      <FileId>1618557267</FileId>
      <FileSize>1488939</FileSize>
      <FileType>0</FileType>
    </extensions>
  </wpt>
  <wpt lat="28.7908826" lon="119.7453785">
    <ele>378.8</ele>
    <time>2026-05-28T04:37:04Z</time>
    <name><![CDATA[穿出竹林，走上坡
        ]]>
    </name>
    <cmt>穿出竹林，走上坡
        </cmt>
    <desc><![CDATA[]]>
    </desc>
    <sym>Flag, Blue</sym>
    <type>user</type>
    <extensions>
      <PosType>0</PosType>
      <Speed>0.47405916</Speed>
      <Accuracy>1.9</Accuracy>
      <Time>1779943024131</Time>
      <description><![CDATA[]]>
      </description>
    </extensions>
  </wpt>
  <wpt lat="28.7895757" lon="119.7449495">
    <ele>440.7</ele>
    <time>2026-05-28T04:43:04Z</time>
    <name><![CDATA[石阶
        ]]>
    </name>
    <cmt>石阶
        </cmt>
    <desc><![CDATA[]]>
    </desc>
    <sym>Flag, Blue</sym>
    <type>user</type>
    <extensions>
      <PosType>0</PosType>
      <Speed>0.35515833</Speed>
      <Accuracy>1.7</Accuracy>
      <Time>1779943384100</Time>
      <description><![CDATA[]]>
      </description>
      <FileId>1618557263</FileId>
      <FileSize>1006529</FileSize>
      <FileType>0</FileType>
    </extensions>
  </wpt>
  <wpt lat="28.789519" lon="119.7449896">
    <ele>448.7</ele>
    <time>2026-05-28T04:44:22Z</time>
    <name><![CDATA[小瀑布
        ]]>
    </name>
    <cmt>小瀑布
        </cmt>
    <desc><![CDATA[]]>
    </desc>
    <sym>Flag, Blue</sym>
    <type>user</type>
    <extensions>
      <PosType>0</PosType>
      <Speed>0.6681094</Speed>
      <Accuracy>1.5</Accuracy>
      <Time>1779943462127</Time>
      <description><![CDATA[]]>
      </description>
      <FileId>1618557258</FileId>
      <FileSize>1816803</FileSize>
      <FileType>0</FileType>
    </extensions>
  </wpt>
  <wpt lat="28.7893917" lon="119.7450017">
    <ele>460.3</ele>
    <time>2026-05-28T04:47:18Z</time>
    <name><![CDATA[第二片竹林
        ]]>
    </name>
    <cmt>第二片竹林
        </cmt>
    <desc><![CDATA[]]>
    </desc>
    <sym>Flag, Blue</sym>
    <type>user</type>
    <extensions>
      <PosType>0</PosType>
      <Speed>0.51729584</Speed>
      <Accuracy>1.7</Accuracy>
      <Time>1779943638094</Time>
      <description><![CDATA[]]>
      </description>
    </extensions>
  </wpt>
  <wpt lat="28.7884832" lon="119.7466187">
    <ele>473.6</ele>
    <time>2026-05-28T04:50:56Z</time>
    <name><![CDATA[
        ]]>
    </name>
    <cmt>
        </cmt>
    <desc><![CDATA[]]>
    </desc>
    <sym>Flag, Blue</sym>
    <type>user</type>
    <extensions>
      <PosType>0</PosType>
      <Speed>0.77826</Speed>
      <Accuracy>1.6</Accuracy>
      <Time>1779943856117</Time>
      <description><![CDATA[]]>
      </description>
      <FileId>1618557257</FileId>
      <FileSize>1422947</FileSize>
      <FileType>0</FileType>
    </extensions>
  </wpt>
  <wpt lat="28.7881929" lon="119.7467126">
    <ele>476.3</ele>
    <time>2026-05-28T04:52:16Z</time>
    <name><![CDATA[大门岩古井
        ]]>
    </name>
    <cmt>大门岩古井
        </cmt>
    <desc><![CDATA[]]>
    </desc>
    <sym>Flag, Blue</sym>
    <type>user</type>
    <extensions>
      <PosType>0</PosType>
      <Speed>0.8235555</Speed>
      <Accuracy>1.5</Accuracy>
      <Time>1779943936142</Time>
      <description><![CDATA[]]>
      </description>
      <FileId>1618557253</FileId>
      <FileSize>1373640</FileSize>
      <FileType>0</FileType>
    </extensions>
  </wpt>
  <wpt lat="28.7879779" lon="119.7468963">
    <ele>474.6</ele>
    <time>2026-05-28T04:53:52Z</time>
    <name><![CDATA[右转
        ]]>
    </name>
    <cmt>右转
        </cmt>
    <desc><![CDATA[]]>
    </desc>
    <sym>Flag, Blue</sym>
    <type>user</type>
    <extensions>
      <PosType>0</PosType>
      <Speed>0.81634945</Speed>
      <Accuracy>1.5</Accuracy>
      <Time>1779944032107</Time>
      <description><![CDATA[]]>
      </description>
      <FileId>1618556792</FileId>
      <FileSize>2420420</FileSize>
      <FileType>0</FileType>
    </extensions>
  </wpt>
  <wpt lat="28.7875964" lon="119.7470283">
    <ele>485.0</ele>
    <time>2026-05-28T04:56:02Z</time>
    <name><![CDATA[小攀岩
        ]]>
    </name>
    <cmt>小攀岩
        </cmt>
    <desc><![CDATA[]]>
    </desc>
    <sym>Flag, Blue</sym>
    <type>user</type>
    <extensions>
      <PosType>0</PosType>
      <Speed>0.2805236</Speed>
      <Accuracy>1.5</Accuracy>
      <Time>1779944162123</Time>
      <description><![CDATA[]]>
      </description>
      <FileId>1618556788</FileId>
      <FileSize>1101300</FileSize>
      <FileType>0</FileType>
    </extensions>
  </wpt>
  <wpt lat="28.787455" lon="119.7471217">
    <ele>485.5</ele>
    <time>2026-05-28T05:00:53Z</time>
    <name><![CDATA[金龟驼蟾
        ]]>
    </name>
    <cmt>金龟驼蟾
        </cmt>
    <desc><![CDATA[]]>
    </desc>
    <sym>Flag, Blue</sym>
    <type>user</type>
    <extensions>
      <PosType>0</PosType>
      <Speed>0.0</Speed>
      <Accuracy>1.5</Accuracy>
      <Time>1779944453998</Time>
      <description><![CDATA[]]>
      </description>
      <FileId>1618556784</FileId>
      <FileSize>1085401</FileSize>
      <FileType>0</FileType>
    </extensions>
  </wpt>
  <wpt lat="28.7867196" lon="119.7476032">
    <ele>473.1</ele>
    <time>2026-05-28T05:18:46Z</time>
    <name><![CDATA[
        ]]>
    </name>
    <cmt>
        </cmt>
    <desc><![CDATA[]]>
    </desc>
    <sym>Flag, Blue</sym>
    <type>user</type>
    <extensions>
      <PosType>0</PosType>
      <Speed>0.55178225</Speed>
      <Accuracy>1.7</Accuracy>
      <Time>1779945526225</Time>
      <description><![CDATA[]]>
      </description>
      <FileId>1618556780</FileId>
      <FileSize>1298141</FileSize>
      <FileType>0</FileType>
    </extensions>
  </wpt>
  <wpt lat="28.7865285" lon="119.7477754">
    <ele>484.0</ele>
    <time>2026-05-28T05:21:10Z</time>
    <name><![CDATA[休息区
        ]]>
    </name>
    <cmt>休息区
        </cmt>
    <desc><![CDATA[]]>
    </desc>
    <sym>Flag, Blue</sym>
    <type>user</type>
    <extensions>
      <PosType>0</PosType>
      <Speed>0.3402314</Speed>
      <Accuracy>1.4</Accuracy>
      <Time>1779945670117</Time>
      <description><![CDATA[]]>
      </description>
      <FileId>1618556775</FileId>
      <FileSize>1069708</FileSize>
      <FileType>0</FileType>
    </extensions>
  </wpt>
  <wpt lat="28.7862097" lon="119.7475628">
    <ele>494.7</ele>
    <time>2026-05-28T05:28:26Z</time>
    <name><![CDATA[右转
        ]]>
    </name>
    <cmt>右转
        </cmt>
    <desc><![CDATA[]]>
    </desc>
    <sym>Flag, Blue</sym>
    <type>user</type>
    <extensions>
      <PosType>0</PosType>
      <Speed>0.9429711</Speed>
      <Accuracy>1.5</Accuracy>
      <Time>1779946106145</Time>
      <description><![CDATA[]]>
      </description>
      <FileId>1618556722</FileId>
      <FileSize>2587264</FileSize>
      <FileType>0</FileType>
    </extensions>
  </wpt>
  <wpt lat="28.7866941" lon="119.7471973">
    <ele>505.8</ele>
    <time>2026-05-28T05:30:56Z</time>
    <name><![CDATA[古皇神刀
        ]]>
    </name>
    <cmt>古皇神刀
        </cmt>
    <desc><![CDATA[]]>
    </desc>
    <sym>Flag, Blue</sym>
    <type>user</type>
    <extensions>
      <PosType>0</PosType>
      <Speed>0.77826</Speed>
      <Accuracy>1.3</Accuracy>
      <Time>1779946256153</Time>
      <description><![CDATA[]]>
      </description>
      <FileId>1618556719</FileId>
      <FileSize>824186</FileSize>
      <FileType>0</FileType>
    </extensions>
  </wpt>
  <wpt lat="28.786735" lon="119.7471267">
    <ele>517.1</ele>
    <time>2026-05-28T05:36:26Z</time>
    <name><![CDATA[山顶需要攀爬
        ]]>
    </name>
    <cmt>山顶需要攀爬
        </cmt>
    <desc><![CDATA[]]>
    </desc>
    <sym>Flag, Blue</sym>
    <type>user</type>
    <extensions>
      <PosType>0</PosType>
      <Speed>0.24243417</Speed>
      <Accuracy>1.3</Accuracy>
      <Time>1779946586095</Time>
      <description><![CDATA[]]>
      </description>
    </extensions>
  </wpt>
  <wpt lat="28.7867033" lon="119.7472033">
    <ele>508.1</ele>
    <time>2026-05-28T05:38:56Z</time>
    <name><![CDATA[返回路口
        ]]>
    </name>
    <cmt>返回路口
        </cmt>
    <desc><![CDATA[]]>
    </desc>
    <sym>Flag, Blue</sym>
    <type>user</type>
    <extensions>
      <PosType>0</PosType>
      <Speed>0.28361195</Speed>
      <Accuracy>1.3</Accuracy>
      <Time>1779946736100</Time>
      <description><![CDATA[]]>
      </description>
    </extensions>
  </wpt>
  <wpt lat="28.7858248" lon="119.7476985">
    <ele>502.4</ele>
    <time>2026-05-28T05:41:02Z</time>
    <name><![CDATA[右转
        ]]>
    </name>
    <cmt>右转
        </cmt>
    <desc><![CDATA[]]>
    </desc>
    <sym>Flag, Blue</sym>
    <type>user</type>
    <extensions>
      <PosType>0</PosType>
      <Speed>0.68921304</Speed>
      <Accuracy>1.5</Accuracy>
      <Time>1779946862149</Time>
      <description><![CDATA[]]>
      </description>
      <FileId>1618556716</FileId>
      <FileSize>2704417</FileSize>
      <FileType>0</FileType>
    </extensions>
  </wpt>
  <wpt lat="28.7860465" lon="119.7470123">
    <ele>496.8</ele>
    <time>2026-05-28T05:47:18Z</time>
    <name><![CDATA[下山
        ]]>
    </name>
    <cmt>下山
        </cmt>
    <desc><![CDATA[]]>
    </desc>
    <sym>Flag, Blue</sym>
    <type>user</type>
    <extensions>
      <PosType>0</PosType>
      <Speed>0.7375969</Speed>
      <Accuracy>1.6</Accuracy>
      <Time>1779947238124</Time>
      <description><![CDATA[]]>
      </description>
    </extensions>
  </wpt>
  <wpt lat="28.7862136" lon="119.7453796">
    <ele>443.1</ele>
    <time>2026-05-28T05:53:16Z</time>
    <name><![CDATA[升棺发财石
        ]]>
    </name>
    <cmt>升棺发财石
        </cmt>
    <desc><![CDATA[]]>
    </desc>
    <sym>Flag, Blue</sym>
    <type>user</type>
    <extensions>
      <PosType>0</PosType>
      <Speed>0.0</Speed>
      <Accuracy>1.5</Accuracy>
      <Time>1779947596086</Time>
      <description><![CDATA[]]>
      </description>
      <FileId>1618556714</FileId>
      <FileSize>1415479</FileSize>
      <FileType>0</FileType>
    </extensions>
  </wpt>
  <wpt lat="28.7859095" lon="119.7446551">
    <ele>425.1</ele>
    <time>2026-05-28T05:56:42Z</time>
    <name><![CDATA[水源
        ]]>
    </name>
    <cmt>水源
        </cmt>
    <desc><![CDATA[]]>
    </desc>
    <sym>Flag, Blue</sym>
    <type>user</type>
    <extensions>
      <PosType>0</PosType>
      <Speed>0.67274195</Speed>
      <Accuracy>1.8</Accuracy>
      <Time>1779947802099</Time>
      <description><![CDATA[]]>
      </description>
    </extensions>
  </wpt>
  <wpt lat="28.7860624" lon="119.7442399">
    <ele>402.2</ele>
    <time>2026-05-28T05:57:44Z</time>
    <name><![CDATA[水源
        ]]>
    </name>
    <cmt>水源
        </cmt>
    <desc><![CDATA[]]>
    </desc>
    <sym>Flag, Blue</sym>
    <type>user</type>
    <extensions>
      <PosType>0</PosType>
      <Speed>0.34229028</Speed>
      <Accuracy>1.7</Accuracy>
      <Time>1779947864094</Time>
      <description><![CDATA[]]>
      </description>
      <FileId>1618556712</FileId>
      <FileSize>1486177</FileSize>
      <FileType>0</FileType>
    </extensions>
  </wpt>
  <wpt lat="28.7861412" lon="119.743136">
    <ele>379.7</ele>
    <time>2026-05-28T06:01:38Z</time>
    <name><![CDATA[水源
        ]]>
    </name>
    <cmt>水源
        </cmt>
    <desc><![CDATA[]]>
    </desc>
    <sym>Flag, Blue</sym>
    <type>user</type>
    <extensions>
      <PosType>0</PosType>
      <Speed>0.99701697</Speed>
      <Accuracy>1.8</Accuracy>
      <Time>1779948098219</Time>
      <description><![CDATA[]]>
      </description>
      <FileId>1618556709</FileId>
      <FileSize>1411955</FileSize>
      <FileType>0</FileType>
    </extensions>
  </wpt>
  <wpt lat="28.7869902" lon="119.7415204">
    <ele>356.7</ele>
    <time>2026-05-28T06:06:58Z</time>
    <name><![CDATA[左边瀑布右边下山
        ]]>
    </name>
    <cmt>左边瀑布右边下山
        </cmt>
    <desc><![CDATA[]]>
    </desc>
    <sym>Flag, Blue</sym>
    <type>user</type>
    <extensions>
      <PosType>0</PosType>
      <Speed>0.78649557</Speed>
      <Accuracy>1.8</Accuracy>
      <Time>1779948418119</Time>
      <description><![CDATA[]]>
      </description>
      <FileId>1618556705</FileId>
      <FileSize>2303516</FileSize>
      <FileType>0</FileType>
    </extensions>
  </wpt>
  <wpt lat="28.786871" lon="119.7416126">
    <ele>349.2</ele>
    <time>2026-05-28T06:12:04Z</time>
    <name><![CDATA[瀑布
        ]]>
    </name>
    <cmt>瀑布
        </cmt>
    <desc><![CDATA[]]>
    </desc>
    <sym>Flag, Blue</sym>
    <type>user</type>
    <extensions>
      <PosType>0</PosType>
      <Speed>1.300703</Speed>
      <Accuracy>1.8</Accuracy>
      <Time>1779948724040</Time>
      <description><![CDATA[]]>
      </description>
      <FileId>1618556703</FileId>
      <FileSize>1550339</FileSize>
      <FileType>0</FileType>
    </extensions>
  </wpt>
  <wpt lat="28.7869621" lon="119.7410425">
    <ele>334.3</ele>
    <time>2026-05-28T06:14:30Z</time>
    <name><![CDATA[
        ]]>
    </name>
    <cmt>
        </cmt>
    <desc><![CDATA[]]>
    </desc>
    <sym>Flag, Blue</sym>
    <type>user</type>
    <extensions>
      <PosType>0</PosType>
      <Speed>0.49464807</Speed>
      <Accuracy>1.8</Accuracy>
      <Time>1779948870111</Time>
      <description><![CDATA[]]>
      </description>
      <FileId>1618556702</FileId>
      <FileSize>1516603</FileSize>
      <FileType>0</FileType>
    </extensions>
  </wpt>
  <wpt lat="28.7869529" lon="119.7408668">
    <ele>329.9</ele>
    <time>2026-05-28T06:15:32Z</time>
    <name><![CDATA[右转
        ]]>
    </name>
    <cmt>右转
        </cmt>
    <desc><![CDATA[]]>
    </desc>
    <sym>Flag, Blue</sym>
    <type>user</type>
    <extensions>
      <PosType>0</PosType>
      <Speed>1.0103997</Speed>
      <Accuracy>1.9</Accuracy>
      <Time>1779948932125</Time>
      <description><![CDATA[]]>
      </description>
      <FileId>1618556701</FileId>
      <FileSize>2640816</FileSize>
      <FileType>0</FileType>
    </extensions>
  </wpt>
  <wpt lat="28.787823" lon="119.7399724">
    <ele>314.1</ele>
    <time>2026-05-28T06:19:22Z</time>
    <name><![CDATA[
        ]]>
    </name>
    <cmt>
        </cmt>
    <desc><![CDATA[]]>
    </desc>
    <sym>Flag, Blue</sym>
    <type>user</type>
    <extensions>
      <PosType>0</PosType>
      <Speed>0.6295053</Speed>
      <Accuracy>1.7</Accuracy>
      <Time>1779949162098</Time>
      <description><![CDATA[]]>
      </description>
      <FileId>1618556699</FileId>
      <FileSize>1276343</FileSize>
      <FileType>0</FileType>
    </extensions>
  </wpt>
  <wpt lat="28.7935705" lon="119.7401124">
    <ele>184.1</ele>
    <time>2026-05-28T06:34:16Z</time>
    <name><![CDATA[浅水潭
        ]]>
    </name>
    <cmt>浅水潭
        </cmt>
    <desc><![CDATA[]]>
    </desc>
    <sym>Flag, Blue</sym>
    <type>user</type>
    <extensions>
      <PosType>0</PosType>
      <Speed>0.0</Speed>
      <Accuracy>1.4</Accuracy>
      <Time>1779950056120</Time>
      <description><![CDATA[]]>
      </description>
      <FileId>1618556695</FileId>
      <FileSize>1388987</FileSize>
      <FileType>0</FileType>
    </extensions>
  </wpt>
  <wpt lat="28.793891" lon="119.7403825">
    <ele>184.4</ele>
    <time>2026-05-28T06:35:34Z</time>
    <name><![CDATA[返回分岔口，完成闭环
        ]]>
    </name>
    <cmt>返回分岔口，完成闭环
        </cmt>
    <desc><![CDATA[]]>
    </desc>
    <sym>Flag, Blue</sym>
    <type>user</type>
    <extensions>
      <PosType>0</PosType>
      <Speed>1.1339331</Speed>
      <Accuracy>1.5</Accuracy>
      <Time>1779950134096</Time>
      <description><![CDATA[]]>
      </description>
      <FileId>1618556692</FileId>
      <FileSize>1336026</FileSize>
      <FileType>0</FileType>
    </extensions>
  </wpt>
</gpx>