<?xml version='1.0' encoding='UTF-8' standalone='yes' ?>
<gpx version="1.1" creator="GPSBabel - http://www.gpsbabel.org" xmlns:xsi="http://www.w3.org/2001/XMLSchema-instance" xmlns="http://www.topografix.com/GPX/1/1" xsi:schemaLocation="http://www.topografix.com/GPX/1/1 http://www.topografix.com/GPX/1/1/gpx.xsd">
  <metadata>
    <link href="http://www.garmin.com">
      <text>Garmin International</text>
    </link>
    <time>2026-03-22T02:01:15Z</time>
    <bounds minlat="29.1673797" minlon="119.6219949" maxlat="29.17775" maxlon="119.6321882" />
  </metadata>
  <extensions>
    <name><![CDATA[北山清风寨260322]]>
    </name>
    <description><![CDATA[详细视频在同名抖音。]]>
    </description>
    <TrackId>80841303</TrackId>
    <TrackTypeId>8</TrackTypeId>
    <TrackTags>徒步</TrackTags>
    <BeginTime>1774144875000</BeginTime>
    <EndTime>1774153960000</EndTime>
    <TimeUsed>9085000</TimeUsed>
    <PauseTime>4199</PauseTime>
    <PosStartName>地面停车场(出入口)</PosStartName>
    <PosEndName>智者寺(东门)</PosEndName>
    <ProductVersion>and_8.1.5</ProductVersion>
    <StartDistrictId>9654</StartDistrictId>
    <EndDistrictId>9654</EndDistrictId>
    <CreaterId>64771087</CreaterId>
    <CreaterName><![CDATA[步履赴山野]]>
    </CreaterName>
    <CreaterIcon>1523534626</CreaterIcon>
    <OriginCreaterId>64771087</OriginCreaterId>
    <OriginCreaterNickname><![CDATA[步履赴山野]]>
    </OriginCreaterNickname>
    <OriginCreaterName><![CDATA[null]]>
    </OriginCreaterName>
    <OriginCreaterIcon>1523534626</OriginCreaterIcon>
    <ThumbnailId>1575587423</ThumbnailId>
    <Distance>3631.0</Distance>
    <ElevationGain>278.85999999999996</ElevationGain>
    <ElevationLoss>264.4599999999999</ElevationLoss>
    <SportAvgSpeed>0.3998545943248839</SportAvgSpeed>
  </extensions>
  <trk>
    <trkseg>
      <trkpt lat="29.1673797" lon="119.6219949">
        <ele>102.3</ele>
        <time>2026-03-22T02:01:17Z</time>
        <speed>0.13382778</speed>
      </trkpt>
      <trkpt lat="29.1674543" lon="119.6220532">
        <ele>102.3</ele>
        <time>2026-03-22T02:01:51Z</time>
        <speed>0.7365675</speed>
      </trkpt>
      <trkpt lat="29.1675203" lon="119.6221145">
        <ele>101.4</ele>
        <time>2026-03-22T02:02:17Z</time>
        <speed>0.40199804</speed>
      </trkpt>
      <trkpt lat="29.1675858" lon="119.6221742">
        <ele>99.46</ele>
        <time>2026-03-22T02:02:41Z</time>
        <speed>0.19713861</speed>
      </trkpt>
      <trkpt lat="29.1676489" lon="119.6222427">
        <ele>98.62</ele>
        <time>2026-03-22T02:02:51Z</time>
        <speed>0.9419417</speed>
      </trkpt>
      <trkpt lat="29.1677183" lon="119.6223207">
        <ele>98.27</ele>
        <time>2026-03-22T02:03:05Z</time>
        <speed>0.7458325</speed>
      </trkpt>
      <trkpt lat="29.1677844" lon="119.6223974">
        <ele>98.15</ele>
        <time>2026-03-22T02:03:25Z</time>
        <speed>0.46530887</speed>
      </trkpt>
      <trkpt lat="29.1678518" lon="119.6224819">
        <ele>98.52</ele>
        <time>2026-03-22T02:03:49Z</time>
        <speed>0.50597197</speed>
      </trkpt>
      <trkpt lat="29.1679236" lon="119.6225529">
        <ele>98.85</ele>
        <time>2026-03-22T02:04:13Z</time>
        <speed>0.4889861</speed>
      </trkpt>
      <trkpt lat="29.1679983" lon="119.6226296">
        <ele>99.09</ele>
        <time>2026-03-22T02:04:25Z</time>
        <speed>0.8220114</speed>
      </trkpt>
      <trkpt lat="29.1680676" lon="119.6227089">
        <ele>99.74</ele>
        <time>2026-03-22T02:04:37Z</time>
        <speed>0.9337061</speed>
      </trkpt>
      <trkpt lat="29.1681346" lon="119.6227841">
        <ele>100.88</ele>
        <time>2026-03-22T02:04:47Z</time>
        <speed>0.98106056</speed>
      </trkpt>
      <trkpt lat="29.1682071" lon="119.6228501">
        <ele>101.45</ele>
        <time>2026-03-22T02:04:57Z</time>
        <speed>0.8812044</speed>
      </trkpt>
      <trkpt lat="29.1682456" lon="119.6229492">
        <ele>102.29</ele>
        <time>2026-03-22T02:05:09Z</time>
        <speed>0.92083806</speed>
      </trkpt>
      <trkpt lat="29.168284" lon="119.623056">
        <ele>101.65</ele>
        <time>2026-03-22T02:05:19Z</time>
        <speed>1.0093703</speed>
      </trkpt>
      <trkpt lat="29.1683053" lon="119.6231014">
        <ele>101.33</ele>
        <time>2026-03-22T02:05:23Z</time>
        <speed>0.0</speed>
      </trkpt>
      <trkpt lat="29.1683739" lon="119.6231319">
        <ele>101.01</ele>
        <time>2026-03-22T02:05:47Z</time>
        <speed>0.5420025</speed>
      </trkpt>
      <trkpt lat="29.1683367" lon="119.62322">
        <ele>100.75</ele>
        <time>2026-03-22T02:08:01Z</time>
        <speed>0.36854112</speed>
      </trkpt>
      <trkpt lat="29.1683017" lon="119.623325">
        <ele>101.55</ele>
        <time>2026-03-22T02:08:11Z</time>
        <speed>1.1745961</speed>
      </trkpt>
      <trkpt lat="29.1683047" lon="119.6234483">
        <ele>101.91</ele>
        <time>2026-03-22T02:08:29Z</time>
        <speed>0.64957947</speed>
      </trkpt>
      <trkpt lat="29.1683544" lon="119.6235376">
        <ele>102.04</ele>
        <time>2026-03-22T02:08:43Z</time>
        <speed>1.0623866</speed>
      </trkpt>
      <trkpt lat="29.1684189" lon="119.6236176">
        <ele>103.4</ele>
        <time>2026-03-22T02:08:53Z</time>
        <speed>0.88068974</speed>
      </trkpt>
      <trkpt lat="29.1684943" lon="119.6237012">
        <ele>105.25</ele>
        <time>2026-03-22T02:09:13Z</time>
        <speed>0.55435586</speed>
      </trkpt>
      <trkpt lat="29.1685725" lon="119.6237799">
        <ele>105.61</ele>
        <time>2026-03-22T02:09:23Z</time>
        <speed>1.0315033</speed>
      </trkpt>
      <trkpt lat="29.1686459" lon="119.6238509">
        <ele>107.93</ele>
        <time>2026-03-22T02:09:41Z</time>
        <speed>0.63413775</speed>
      </trkpt>
      <trkpt lat="29.1687226" lon="119.6239422">
        <ele>108.61</ele>
        <time>2026-03-22T02:09:51Z</time>
        <speed>0.8585567</speed>
      </trkpt>
      <trkpt lat="29.1687764" lon="119.6240391">
        <ele>108.9</ele>
        <time>2026-03-22T02:10:01Z</time>
        <speed>0.9265</speed>
      </trkpt>
      <trkpt lat="29.1688213" lon="119.6241348">
        <ele>108.64</ele>
        <time>2026-03-22T02:10:11Z</time>
        <speed>0.84054136</speed>
      </trkpt>
      <trkpt lat="29.1688202" lon="119.6242444">
        <ele>109.14</ele>
        <time>2026-03-22T02:10:25Z</time>
        <speed>0.7633331</speed>
      </trkpt>
      <trkpt lat="29.1688209" lon="119.62436">
        <ele>110.16</ele>
        <time>2026-03-22T02:10:37Z</time>
        <speed>0.8590714</speed>
      </trkpt>
      <trkpt lat="29.1688141" lon="119.6244694">
        <ele>109.87</ele>
        <time>2026-03-22T02:10:45Z</time>
        <speed>1.084005</speed>
      </trkpt>
      <trkpt lat="29.1687897" lon="119.6245782">
        <ele>108.77</ele>
        <time>2026-03-22T02:10:55Z</time>
        <speed>1.4633553</speed>
      </trkpt>
      <trkpt lat="29.1688053" lon="119.6246917">
        <ele>108.48</ele>
        <time>2026-03-22T02:11:09Z</time>
        <speed>0.7633331</speed>
      </trkpt>
      <trkpt lat="29.1688183" lon="119.6247982">
        <ele>108.96</ele>
        <time>2026-03-22T02:11:19Z</time>
        <speed>0.94503</speed>
      </trkpt>
      <trkpt lat="29.1688352" lon="119.624903">
        <ele>109.84</ele>
        <time>2026-03-22T02:11:33Z</time>
        <speed>1.0212089</speed>
      </trkpt>
      <trkpt lat="29.168838" lon="119.6250062">
        <ele>112.14</ele>
        <time>2026-03-22T02:11:45Z</time>
        <speed>0.47663277</speed>
      </trkpt>
      <trkpt lat="29.1688564" lon="119.6251291">
        <ele>113.33</ele>
        <time>2026-03-22T02:11:57Z</time>
        <speed>0.88738114</speed>
      </trkpt>
      <trkpt lat="29.1688648" lon="119.6252407">
        <ele>113.58</ele>
        <time>2026-03-22T02:12:43Z</time>
        <speed>0.46839723</speed>
      </trkpt>
      <trkpt lat="29.1689139" lon="119.6253433">
        <ele>112.42</ele>
        <time>2026-03-22T02:12:59Z</time>
        <speed>0.8776014</speed>
      </trkpt>
      <trkpt lat="29.168985" lon="119.6254567">
        <ele>111.34</ele>
        <time>2026-03-22T02:14:29Z</time>
        <speed>0.36957055</speed>
      </trkpt>
      <trkpt lat="29.1690533" lon="119.6255267">
        <ele>111.41</ele>
        <time>2026-03-22T02:15:03Z</time>
        <speed>0.9187792</speed>
      </trkpt>
      <trkpt lat="29.1690977" lon="119.6256178">
        <ele>110.8</ele>
        <time>2026-03-22T02:15:15Z</time>
        <speed>0.64700586</speed>
      </trkpt>
      <trkpt lat="29.1691455" lon="119.6257153">
        <ele>110.97</ele>
        <time>2026-03-22T02:15:29Z</time>
        <speed>0.65421194</speed>
      </trkpt>
      <trkpt lat="29.1691868" lon="119.6258136">
        <ele>112.92</ele>
        <time>2026-03-22T02:15:41Z</time>
        <speed>1.1174619</speed>
      </trkpt>
      <trkpt lat="29.1691997" lon="119.6259217">
        <ele>114.55</ele>
        <time>2026-03-22T02:15:49Z</time>
        <speed>0.82715863</speed>
      </trkpt>
      <trkpt lat="29.1692264" lon="119.6260305">
        <ele>116.25</ele>
        <time>2026-03-22T02:15:57Z</time>
        <speed>1.180258</speed>
      </trkpt>
      <trkpt lat="29.1692639" lon="119.6261412">
        <ele>117.56</ele>
        <time>2026-03-22T02:16:11Z</time>
        <speed>0.8317911</speed>
      </trkpt>
      <trkpt lat="29.1693092" lon="119.6262446">
        <ele>118.22</ele>
        <time>2026-03-22T02:16:21Z</time>
        <speed>0.9012786</speed>
      </trkpt>
      <trkpt lat="29.1693508" lon="119.626345">
        <ele>118.47</ele>
        <time>2026-03-22T02:16:33Z</time>
        <speed>0.7659067</speed>
      </trkpt>
      <trkpt lat="29.1693777" lon="119.626452">
        <ele>118.05</ele>
        <time>2026-03-22T02:16:45Z</time>
        <speed>0.7731128</speed>
      </trkpt>
      <trkpt lat="29.1694104" lon="119.6265567">
        <ele>116.78</ele>
        <time>2026-03-22T02:16:57Z</time>
        <speed>0.65009415</speed>
      </trkpt>
      <trkpt lat="29.1694372" lon="119.6266629">
        <ele>115.33</ele>
        <time>2026-03-22T02:17:07Z</time>
        <speed>0.8570125</speed>
      </trkpt>
      <trkpt lat="29.1694618" lon="119.6267658">
        <ele>114.54</ele>
        <time>2026-03-22T02:17:17Z</time>
        <speed>0.8014225</speed>
      </trkpt>
      <trkpt lat="29.1694736" lon="119.6268725">
        <ele>114.74</ele>
        <time>2026-03-22T02:17:29Z</time>
        <speed>0.69796336</speed>
      </trkpt>
      <trkpt lat="29.1694985" lon="119.6269807">
        <ele>115.2</ele>
        <time>2026-03-22T02:17:41Z</time>
        <speed>0.52964914</speed>
      </trkpt>
      <trkpt lat="29.1695377" lon="119.6270781">
        <ele>116.1</ele>
        <time>2026-03-22T02:17:53Z</time>
        <speed>0.38089445</speed>
      </trkpt>
      <trkpt lat="29.1695457" lon="119.6271926">
        <ele>116.75</ele>
        <time>2026-03-22T02:18:05Z</time>
        <speed>1.0798873</speed>
      </trkpt>
      <trkpt lat="29.1695651" lon="119.6272513">
        <ele>117.24</ele>
        <time>2026-03-22T02:18:17Z</time>
        <speed>0.0</speed>
      </trkpt>
      <trkpt lat="29.1694933" lon="119.6273183">
        <ele>117.78</ele>
        <time>2026-03-22T02:20:35Z</time>
        <speed>0.76539195</speed>
      </trkpt>
      <trkpt lat="29.1695283" lon="119.627425">
        <ele>116.89</ele>
        <time>2026-03-22T02:20:47Z</time>
        <speed>0.68509525</speed>
      </trkpt>
      <trkpt lat="29.1695591" lon="119.6275246">
        <ele>116.94</ele>
        <time>2026-03-22T02:20:57Z</time>
        <speed>0.9429711</speed>
      </trkpt>
      <trkpt lat="29.1695737" lon="119.6276268">
        <ele>117.57</ele>
        <time>2026-03-22T02:21:11Z</time>
        <speed>0.8518653</speed>
      </trkpt>
      <trkpt lat="29.1695869" lon="119.6277411">
        <ele>118.57</ele>
        <time>2026-03-22T02:21:25Z</time>
        <speed>0.6907572</speed>
      </trkpt>
      <trkpt lat="29.1696078" lon="119.6278473">
        <ele>120.35</ele>
        <time>2026-03-22T02:21:37Z</time>
        <speed>0.46222055</speed>
      </trkpt>
      <trkpt lat="29.1696182" lon="119.6279636">
        <ele>121.53</ele>
        <time>2026-03-22T02:21:49Z</time>
        <speed>0.7247289</speed>
      </trkpt>
      <trkpt lat="29.1696171" lon="119.6280775">
        <ele>122.81</ele>
        <time>2026-03-22T02:22:01Z</time>
        <speed>0.7484061</speed>
      </trkpt>
      <trkpt lat="29.1696312" lon="119.6281875">
        <ele>123.66</ele>
        <time>2026-03-22T02:22:15Z</time>
        <speed>0.6655358</speed>
      </trkpt>
      <trkpt lat="29.1696367" lon="119.628301">
        <ele>125.01</ele>
        <time>2026-03-22T02:22:31Z</time>
        <speed>0.5697975</speed>
      </trkpt>
      <trkpt lat="29.1696362" lon="119.6284133">
        <ele>125.61</ele>
        <time>2026-03-22T02:22:45Z</time>
        <speed>0.4750886</speed>
      </trkpt>
      <trkpt lat="29.1696188" lon="119.6285302">
        <ele>126.55</ele>
        <time>2026-03-22T02:23:03Z</time>
        <speed>0.60325444</speed>
      </trkpt>
      <trkpt lat="29.1696408" lon="119.6286374">
        <ele>127.56</ele>
        <time>2026-03-22T02:23:19Z</time>
        <speed>0.53170806</speed>
      </trkpt>
      <trkpt lat="29.1696445" lon="119.6287434">
        <ele>128.78</ele>
        <time>2026-03-22T02:23:37Z</time>
        <speed>0.28000888</speed>
      </trkpt>
      <trkpt lat="29.1696588" lon="119.6288467">
        <ele>130.21</ele>
        <time>2026-03-22T02:23:55Z</time>
        <speed>0.59656304</speed>
      </trkpt>
      <trkpt lat="29.1696721" lon="119.6289582">
        <ele>131.02</ele>
        <time>2026-03-22T02:24:05Z</time>
        <speed>0.6583297</speed>
      </trkpt>
      <trkpt lat="29.1696896" lon="119.629073">
        <ele>131.62</ele>
        <time>2026-03-22T02:24:17Z</time>
        <speed>0.6202403</speed>
      </trkpt>
      <trkpt lat="29.1697097" lon="119.6291799">
        <ele>132.21</ele>
        <time>2026-03-22T02:24:33Z</time>
        <speed>0.5888422</speed>
      </trkpt>
      <trkpt lat="29.169738" lon="119.629281">
        <ele>133.45</ele>
        <time>2026-03-22T02:24:43Z</time>
        <speed>0.83642364</speed>
      </trkpt>
      <trkpt lat="29.1698014" lon="119.6293616">
        <ele>134.85</ele>
        <time>2026-03-22T02:24:59Z</time>
        <speed>0.69796336</speed>
      </trkpt>
      <trkpt lat="29.1698745" lon="119.6294351">
        <ele>135.26</ele>
        <time>2026-03-22T02:25:37Z</time>
        <speed>0.5353111</speed>
      </trkpt>
      <trkpt lat="29.1699666" lon="119.6294635">
        <ele>134.76</ele>
        <time>2026-03-22T02:25:55Z</time>
        <speed>0.51575166</speed>
      </trkpt>
      <trkpt lat="29.1700574" lon="119.6295166">
        <ele>134.35</ele>
        <time>2026-03-22T02:26:13Z</time>
        <speed>0.70774305</speed>
      </trkpt>
      <trkpt lat="29.1701297" lon="119.6295856">
        <ele>133.77</ele>
        <time>2026-03-22T02:26:31Z</time>
        <speed>0.63104945</speed>
      </trkpt>
      <trkpt lat="29.1701704" lon="119.6296782">
        <ele>134.64</ele>
        <time>2026-03-22T02:26:45Z</time>
        <speed>0.6902425</speed>
      </trkpt>
      <trkpt lat="29.1702533" lon="119.6297033">
        <ele>135.74</ele>
        <time>2026-03-22T02:32:09Z</time>
        <speed>0.6135489</speed>
      </trkpt>
      <trkpt lat="29.1703533" lon="119.6297733">
        <ele>135.98</ele>
        <time>2026-03-22T02:32:45Z</time>
        <speed>0.30934805</speed>
      </trkpt>
      <trkpt lat="29.1703715" lon="119.6298744">
        <ele>138.27</ele>
        <time>2026-03-22T02:33:07Z</time>
        <speed>0.6536972</speed>
      </trkpt>
      <trkpt lat="29.1704435" lon="119.6298973">
        <ele>140.91</ele>
        <time>2026-03-22T02:33:57Z</time>
        <speed>0.42773417</speed>
      </trkpt>
      <trkpt lat="29.170533" lon="119.6298909">
        <ele>145.72</ele>
        <time>2026-03-22T02:34:33Z</time>
        <speed>0.3911889</speed>
      </trkpt>
      <trkpt lat="29.1706058" lon="119.6299372">
        <ele>151.43</ele>
        <time>2026-03-22T02:35:03Z</time>
        <speed>0.48075056</speed>
      </trkpt>
      <trkpt lat="29.1706813" lon="119.6299922">
        <ele>156.45</ele>
        <time>2026-03-22T02:35:33Z</time>
        <speed>0.3917036</speed>
      </trkpt>
      <trkpt lat="29.1707603" lon="119.6300493">
        <ele>160.09</ele>
        <time>2026-03-22T02:36:07Z</time>
        <speed>0.30728915</speed>
      </trkpt>
      <trkpt lat="29.1708781" lon="119.6301088">
        <ele>162.97</ele>
        <time>2026-03-22T02:36:55Z</time>
        <speed>0.39427722</speed>
      </trkpt>
      <trkpt lat="29.1709635" lon="119.630186">
        <ele>166.17</ele>
        <time>2026-03-22T02:37:15Z</time>
        <speed>0.5620767</speed>
      </trkpt>
      <trkpt lat="29.1710486" lon="119.6302353">
        <ele>168.12</ele>
        <time>2026-03-22T02:37:29Z</time>
        <speed>0.6413439</speed>
      </trkpt>
      <trkpt lat="29.1711154" lon="119.6303096">
        <ele>170.09</ele>
        <time>2026-03-22T02:37:51Z</time>
        <speed>0.3865564</speed>
      </trkpt>
      <trkpt lat="29.1711571" lon="119.6304026">
        <ele>173.1</ele>
        <time>2026-03-22T02:38:11Z</time>
        <speed>0.3494964</speed>
      </trkpt>
      <trkpt lat="29.1712233" lon="119.6304928">
        <ele>175.51</ele>
        <time>2026-03-22T02:38:29Z</time>
        <speed>0.6011956</speed>
      </trkpt>
      <trkpt lat="29.171308" lon="119.6305416">
        <ele>177.4</ele>
        <time>2026-03-22T02:39:27Z</time>
        <speed>0.5461203</speed>
      </trkpt>
      <trkpt lat="29.1713979" lon="119.6305146">
        <ele>179.29</ele>
        <time>2026-03-22T02:39:47Z</time>
        <speed>0.6506089</speed>
      </trkpt>
      <trkpt lat="29.1714923" lon="119.6305094">
        <ele>182.18</ele>
        <time>2026-03-22T02:40:05Z</time>
        <speed>0.5656797</speed>
      </trkpt>
      <trkpt lat="29.1715824" lon="119.6305474">
        <ele>184.6</ele>
        <time>2026-03-22T02:40:25Z</time>
        <speed>0.47560334</speed>
      </trkpt>
      <trkpt lat="29.1716502" lon="119.6306189">
        <ele>187.52</ele>
        <time>2026-03-22T02:40:47Z</time>
        <speed>0.47302973</speed>
      </trkpt>
      <trkpt lat="29.17172" lon="119.630715">
        <ele>190.35</ele>
        <time>2026-03-22T02:42:17Z</time>
        <speed>0.30625972</speed>
      </trkpt>
      <trkpt lat="29.1718067" lon="119.6307717">
        <ele>192.87</ele>
        <time>2026-03-22T02:43:39Z</time>
        <speed>0.0</speed>
      </trkpt>
      <trkpt lat="29.171905" lon="119.6308117">
        <ele>198.77</ele>
        <time>2026-03-22T02:44:17Z</time>
        <speed>0.5378847</speed>
      </trkpt>
      <trkpt lat="29.1719967" lon="119.630915">
        <ele>203.17</ele>
        <time>2026-03-22T02:45:21Z</time>
        <speed>0.41486612</speed>
      </trkpt>
      <trkpt lat="29.17209" lon="119.6309917">
        <ele>207.23</ele>
        <time>2026-03-22T02:46:01Z</time>
        <speed>0.0</speed>
      </trkpt>
      <trkpt lat="29.1721683" lon="119.631045">
        <ele>210.31</ele>
        <time>2026-03-22T02:47:15Z</time>
        <speed>0.42361638</speed>
      </trkpt>
      <trkpt lat="29.1722567" lon="119.6310717">
        <ele>216.76</ele>
        <time>2026-03-22T02:49:07Z</time>
        <speed>0.42927834</speed>
      </trkpt>
      <trkpt lat="29.17231" lon="119.6311567">
        <ele>222.76</ele>
        <time>2026-03-22T02:50:01Z</time>
        <speed>0.44986722</speed>
      </trkpt>
      <trkpt lat="29.1723217" lon="119.6312683">
        <ele>229.01</ele>
        <time>2026-03-22T02:51:45Z</time>
        <speed>0.37162945</speed>
      </trkpt>
      <trkpt lat="29.1724117" lon="119.6312783">
        <ele>229.44</ele>
        <time>2026-03-22T02:52:47Z</time>
        <speed>0.48332417</speed>
      </trkpt>
      <trkpt lat="29.1725033" lon="119.631255">
        <ele>231.14</ele>
        <time>2026-03-22T02:53:03Z</time>
        <speed>0.7648772</speed>
      </trkpt>
      <trkpt lat="29.1725894" lon="119.6312796">
        <ele>232.46</ele>
        <time>2026-03-22T02:53:25Z</time>
        <speed>0.0</speed>
      </trkpt>
      <trkpt lat="29.1726062" lon="119.6313668">
        <ele>235.4</ele>
        <time>2026-03-22T02:54:05Z</time>
        <speed>0.3541289</speed>
      </trkpt>
      <trkpt lat="29.1726553" lon="119.6314549">
        <ele>239.53</ele>
        <time>2026-03-22T02:54:41Z</time>
        <speed>1.1226091</speed>
      </trkpt>
      <trkpt lat="29.1726644" lon="119.6315171">
        <ele>241.8</ele>
        <time>2026-03-22T02:55:13Z</time>
        <speed>0.0</speed>
      </trkpt>
      <trkpt lat="29.1727167" lon="119.6315867">
        <ele>246.44</ele>
        <time>2026-03-22T02:57:17Z</time>
        <speed>0.42619</speed>
      </trkpt>
      <trkpt lat="29.1727983" lon="119.6316583">
        <ele>252.23</ele>
        <time>2026-03-22T02:58:27Z</time>
        <speed>0.29030332</speed>
      </trkpt>
      <trkpt lat="29.17283" lon="119.6317883">
        <ele>256.43</ele>
        <time>2026-03-22T02:59:21Z</time>
        <speed>0.34640807</speed>
      </trkpt>
      <trkpt lat="29.1728467" lon="119.6318933">
        <ele>261.32</ele>
        <time>2026-03-22T03:00:47Z</time>
        <speed>0.0</speed>
      </trkpt>
      <trkpt lat="29.1729367" lon="119.6320433">
        <ele>266.17</ele>
        <time>2026-03-22T03:01:57Z</time>
        <speed>0.35052583</speed>
      </trkpt>
      <trkpt lat="29.17303" lon="119.6320733">
        <ele>270.23</ele>
        <time>2026-03-22T03:03:57Z</time>
        <speed>0.36390862</speed>
      </trkpt>
      <trkpt lat="29.1731183" lon="119.6320933">
        <ele>275.55</ele>
        <time>2026-03-22T03:04:13Z</time>
        <speed>0.51884</speed>
      </trkpt>
      <trkpt lat="29.1732081" lon="119.6320795">
        <ele>278.37</ele>
        <time>2026-03-22T03:04:23Z</time>
        <speed>0.8287028</speed>
      </trkpt>
      <trkpt lat="29.1733187" lon="119.6320944">
        <ele>281.13</ele>
        <time>2026-03-22T03:05:09Z</time>
        <speed>0.379865</speed>
      </trkpt>
      <trkpt lat="29.1734183" lon="119.632115">
        <ele>287.57</ele>
        <time>2026-03-22T03:07:53Z</time>
        <speed>0.38552696</speed>
      </trkpt>
      <trkpt lat="29.173515" lon="119.6321233">
        <ele>291.84</ele>
        <time>2026-03-22T03:08:11Z</time>
        <speed>0.70053697</speed>
      </trkpt>
      <trkpt lat="29.1735905" lon="119.6321881">
        <ele>295.35</ele>
        <time>2026-03-22T03:08:25Z</time>
        <speed>0.64082915</speed>
      </trkpt>
      <trkpt lat="29.1736854" lon="119.6321882">
        <ele>297.09</ele>
        <time>2026-03-22T03:08:43Z</time>
        <speed>0.6722272</speed>
      </trkpt>
      <trkpt lat="29.1737725" lon="119.6321446">
        <ele>298.0</ele>
        <time>2026-03-22T03:08:57Z</time>
        <speed>0.81634945</speed>
      </trkpt>
      <trkpt lat="29.1737802" lon="119.6320501">
        <ele>301.57</ele>
        <time>2026-03-22T03:09:17Z</time>
        <speed>0.670683</speed>
      </trkpt>
      <trkpt lat="29.1738227" lon="119.6319527">
        <ele>302.49</ele>
        <time>2026-03-22T03:09:53Z</time>
        <speed>0.47766224</speed>
      </trkpt>
      <trkpt lat="29.1738636" lon="119.6318527">
        <ele>302.15</ele>
        <time>2026-03-22T03:10:39Z</time>
        <speed>0.87914556</speed>
      </trkpt>
      <trkpt lat="29.1739533" lon="119.6318117">
        <ele>302.9</ele>
        <time>2026-03-22T03:13:37Z</time>
        <speed>0.49619222</speed>
      </trkpt>
      <trkpt lat="29.1740233" lon="119.6317383">
        <ele>302.81</ele>
        <time>2026-03-22T03:13:49Z</time>
        <speed>0.7741422</speed>
      </trkpt>
      <trkpt lat="29.1740919" lon="119.6316636">
        <ele>303.84</ele>
        <time>2026-03-22T03:14:03Z</time>
        <speed>0.6711978</speed>
      </trkpt>
      <trkpt lat="29.1741718" lon="119.6316118">
        <ele>305.24</ele>
        <time>2026-03-22T03:14:23Z</time>
        <speed>0.43236667</speed>
      </trkpt>
      <trkpt lat="29.1742465" lon="119.631552">
        <ele>307.33</ele>
        <time>2026-03-22T03:14:37Z</time>
        <speed>0.7900986</speed>
      </trkpt>
      <trkpt lat="29.1743315" lon="119.6315138">
        <ele>308.44</ele>
        <time>2026-03-22T03:15:03Z</time>
        <speed>0.60788697</speed>
      </trkpt>
      <trkpt lat="29.174414" lon="119.6315459">
        <ele>309.2</ele>
        <time>2026-03-22T03:15:13Z</time>
        <speed>0.74531776</speed>
      </trkpt>
      <trkpt lat="29.1745037" lon="119.6315735">
        <ele>309.84</ele>
        <time>2026-03-22T03:15:31Z</time>
        <speed>0.48744196</speed>
      </trkpt>
      <trkpt lat="29.1746035" lon="119.6315976">
        <ele>311.16</ele>
        <time>2026-03-22T03:15:47Z</time>
        <speed>0.59090114</speed>
      </trkpt>
      <trkpt lat="29.1746963" lon="119.6316244">
        <ele>312.55</ele>
        <time>2026-03-22T03:16:01Z</time>
        <speed>0.6104606</speed>
      </trkpt>
      <trkpt lat="29.1747772" lon="119.631675">
        <ele>314.47</ele>
        <time>2026-03-22T03:16:23Z</time>
        <speed>0.5286197</speed>
      </trkpt>
      <trkpt lat="29.1748635" lon="119.6317249">
        <ele>315.81</ele>
        <time>2026-03-22T03:16:35Z</time>
        <speed>0.68766886</speed>
      </trkpt>
      <trkpt lat="29.1749576" lon="119.6317391">
        <ele>316.2</ele>
        <time>2026-03-22T03:16:49Z</time>
        <speed>0.6480353</speed>
      </trkpt>
      <trkpt lat="29.1750507" lon="119.6317294">
        <ele>318.26</ele>
        <time>2026-03-22T03:17:03Z</time>
        <speed>0.81892306</speed>
      </trkpt>
      <trkpt lat="29.1751481" lon="119.6317425">
        <ele>321.59</ele>
        <time>2026-03-22T03:17:55Z</time>
        <speed>0.7952458</speed>
      </trkpt>
      <trkpt lat="29.1752381" lon="119.6317774">
        <ele>323.83</ele>
        <time>2026-03-22T03:18:05Z</time>
        <speed>0.82149667</speed>
      </trkpt>
      <trkpt lat="29.1753276" lon="119.6317624">
        <ele>326.66</ele>
        <time>2026-03-22T03:18:55Z</time>
        <speed>0.0</speed>
      </trkpt>
      <trkpt lat="29.1753717" lon="119.6316567">
        <ele>329.51</ele>
        <time>2026-03-22T03:20:09Z</time>
        <speed>0.6063428</speed>
      </trkpt>
      <trkpt lat="29.1754583" lon="119.6316283">
        <ele>332.05</ele>
        <time>2026-03-22T03:20:47Z</time>
        <speed>0.3407461</speed>
      </trkpt>
      <trkpt lat="29.1755182" lon="119.631545">
        <ele>334.87</ele>
        <time>2026-03-22T03:21:11Z</time>
        <speed>0.6356819</speed>
      </trkpt>
      <trkpt lat="29.1755772" lon="119.6315857">
        <ele>337.16</ele>
        <time>2026-03-22T03:21:55Z</time>
        <speed>0.60840166</speed>
      </trkpt>
      <trkpt lat="29.1756583" lon="119.6315985">
        <ele>338.38</ele>
        <time>2026-03-22T03:22:13Z</time>
        <speed>0.49619222</speed>
      </trkpt>
      <trkpt lat="29.17575" lon="119.6315767">
        <ele>340.15</ele>
        <time>2026-03-22T03:23:23Z</time>
        <speed>0.0</speed>
      </trkpt>
      <trkpt lat="29.1758617" lon="119.6315267">
        <ele>343.49</ele>
        <time>2026-03-22T03:24:01Z</time>
        <speed>0.40817472</speed>
      </trkpt>
      <trkpt lat="29.1759592" lon="119.6315274">
        <ele>347.97</ele>
        <time>2026-03-22T03:24:35Z</time>
        <speed>0.4400875</speed>
      </trkpt>
      <trkpt lat="29.1760517" lon="119.6315295">
        <ele>350.17</ele>
        <time>2026-03-22T03:24:55Z</time>
        <speed>0.509575</speed>
      </trkpt>
      <trkpt lat="29.17616" lon="119.631545">
        <ele>353.71</ele>
        <time>2026-03-22T03:26:03Z</time>
        <speed>0.30420083</speed>
      </trkpt>
      <trkpt lat="29.1762333" lon="119.6314633">
        <ele>358.27</ele>
        <time>2026-03-22T03:28:31Z</time>
        <speed>0.66090333</speed>
      </trkpt>
      <trkpt lat="29.1762717" lon="119.6313683">
        <ele>361.94</ele>
        <time>2026-03-22T03:28:45Z</time>
        <speed>0.0</speed>
      </trkpt>
      <trkpt lat="29.1762483" lon="119.6314817">
        <ele>363.81</ele>
        <time>2026-03-22T03:29:51Z</time>
        <speed>0.5275903</speed>
      </trkpt>
      <trkpt lat="29.1762267" lon="119.631585">
        <ele>364.11</ele>
        <time>2026-03-22T03:30:57Z</time>
        <speed>0.42001334</speed>
      </trkpt>
      <trkpt lat="29.17632" lon="119.63157">
        <ele>364.71</ele>
        <time>2026-03-22T03:31:37Z</time>
        <speed>0.44317582</speed>
      </trkpt>
      <trkpt lat="29.1764147" lon="119.6315691">
        <ele>365.61</ele>
        <time>2026-03-22T03:31:59Z</time>
        <speed>0.51884</speed>
      </trkpt>
      <trkpt lat="29.1764866" lon="119.6315064">
        <ele>367.8</ele>
        <time>2026-03-22T03:32:19Z</time>
        <speed>0.5208989</speed>
      </trkpt>
      <trkpt lat="29.1765626" lon="119.6314257">
        <ele>370.38</ele>
        <time>2026-03-22T03:32:29Z</time>
        <speed>0.8920136</speed>
      </trkpt>
      <trkpt lat="29.1766394" lon="119.6313489">
        <ele>371.94</ele>
        <time>2026-03-22T03:32:37Z</time>
        <speed>1.0031936</speed>
      </trkpt>
      <trkpt lat="29.1766757" lon="119.6313147">
        <ele>371.19</ele>
        <time>2026-03-22T03:32:41Z</time>
        <speed>0.0</speed>
      </trkpt>
      <trkpt lat="29.1767599" lon="119.6312923">
        <ele>368.96</ele>
        <time>2026-03-22T03:32:55Z</time>
        <speed>0.69847804</speed>
      </trkpt>
      <trkpt lat="29.176864" lon="119.6312637">
        <ele>365.96</ele>
        <time>2026-03-22T03:33:03Z</time>
        <speed>1.2445984</speed>
      </trkpt>
      <trkpt lat="29.1769538" lon="119.6311938">
        <ele>364.22</ele>
        <time>2026-03-22T03:33:13Z</time>
        <speed>0.90745527</speed>
      </trkpt>
      <trkpt lat="29.1770405" lon="119.6311408">
        <ele>363.69</ele>
        <time>2026-03-22T03:33:21Z</time>
        <speed>1.0165764</speed>
      </trkpt>
      <trkpt lat="29.1771407" lon="119.6311023">
        <ele>363.48</ele>
        <time>2026-03-22T03:33:27Z</time>
        <speed>1.3125417</speed>
      </trkpt>
      <trkpt lat="29.177236" lon="119.6310968">
        <ele>362.93</ele>
        <time>2026-03-22T03:33:41Z</time>
        <speed>0.4467789</speed>
      </trkpt>
      <trkpt lat="29.1773176" lon="119.631055">
        <ele>362.14</ele>
        <time>2026-03-22T03:33:49Z</time>
        <speed>0.9836342</speed>
      </trkpt>
      <trkpt lat="29.1773752" lon="119.630974">
        <ele>362.04</ele>
        <time>2026-03-22T03:33:57Z</time>
        <speed>1.2806289</speed>
      </trkpt>
      <trkpt lat="29.1774009" lon="119.6309558">
        <ele>362.19</ele>
        <time>2026-03-22T03:34:09Z</time>
        <speed>0.0</speed>
      </trkpt>
      <trkpt lat="29.1773367" lon="119.6308483">
        <ele>362.07</ele>
        <time>2026-03-22T03:35:19Z</time>
        <speed>0.3407461</speed>
      </trkpt>
      <trkpt lat="29.1772483" lon="119.6307967">
        <ele>361.35</ele>
        <time>2026-03-22T03:35:39Z</time>
        <speed>0.0</speed>
      </trkpt>
      <trkpt lat="29.177301" lon="119.6307365">
        <ele>361.76</ele>
        <time>2026-03-22T03:36:01Z</time>
        <speed>0.6464911</speed>
      </trkpt>
      <trkpt lat="29.1773774" lon="119.6306672">
        <ele>359.75</ele>
        <time>2026-03-22T03:36:11Z</time>
        <speed>0.6629622</speed>
      </trkpt>
      <trkpt lat="29.1774632" lon="119.6305786">
        <ele>358.1</ele>
        <time>2026-03-22T03:36:37Z</time>
        <speed>0.0</speed>
      </trkpt>
      <trkpt lat="29.1775585" lon="119.6305298">
        <ele>359.52</ele>
        <time>2026-03-22T03:36:51Z</time>
        <speed>0.77208334</speed>
      </trkpt>
      <trkpt lat="29.1776582" lon="119.6305019">
        <ele>362.26</ele>
        <time>2026-03-22T03:37:03Z</time>
        <speed>0.7756864</speed>
      </trkpt>
      <trkpt lat="29.177716" lon="119.6304226">
        <ele>365.03</ele>
        <time>2026-03-22T03:37:15Z</time>
        <speed>0.88738114</speed>
      </trkpt>
      <trkpt lat="29.1777334" lon="119.6303151">
        <ele>367.56</ele>
        <time>2026-03-22T03:37:41Z</time>
        <speed>0.3567025</speed>
      </trkpt>
      <trkpt lat="29.1777249" lon="119.6302017">
        <ele>370.24</ele>
        <time>2026-03-22T03:38:15Z</time>
        <speed>0.45913222</speed>
      </trkpt>
      <trkpt lat="29.1777139" lon="119.6300835">
        <ele>374.35</ele>
        <time>2026-03-22T03:38:31Z</time>
        <speed>0.7139197</speed>
      </trkpt>
      <trkpt lat="29.17775" lon="119.629975">
        <ele>375.41</ele>
        <time>2026-03-22T03:39:49Z</time>
        <speed>0.23265444</speed>
      </trkpt>
      <trkpt lat="29.1776683" lon="119.629915">
        <ele>372.99</ele>
        <time>2026-03-22T03:42:23Z</time>
        <speed>0.6809775</speed>
      </trkpt>
      <trkpt lat="29.1776133" lon="119.6298333">
        <ele>371.45</ele>
        <time>2026-03-22T03:42:51Z</time>
        <speed>0.35927612</speed>
      </trkpt>
      <trkpt lat="29.1775259" lon="119.6297827">
        <ele>368.89</ele>
        <time>2026-03-22T03:43:05Z</time>
        <speed>0.70414</speed>
      </trkpt>
      <trkpt lat="29.1774276" lon="119.6297633">
        <ele>367.35</ele>
        <time>2026-03-22T03:43:23Z</time>
        <speed>0.5044278</speed>
      </trkpt>
      <trkpt lat="29.1773508" lon="119.6296861">
        <ele>365.91</ele>
        <time>2026-03-22T03:44:13Z</time>
        <speed>0.0</speed>
      </trkpt>
      <trkpt lat="29.1772399" lon="119.6296505">
        <ele>364.27</ele>
        <time>2026-03-22T03:44:47Z</time>
        <speed>0.0</speed>
      </trkpt>
      <trkpt lat="29.1771775" lon="119.6295718">
        <ele>361.1</ele>
        <time>2026-03-22T03:45:09Z</time>
        <speed>0.4586175</speed>
      </trkpt>
      <trkpt lat="29.177127" lon="119.6294848">
        <ele>354.82</ele>
        <time>2026-03-22T03:45:37Z</time>
        <speed>0.40457165</speed>
      </trkpt>
      <trkpt lat="29.1770552" lon="119.6294252">
        <ele>351.37</ele>
        <time>2026-03-22T03:45:57Z</time>
        <speed>0.5625914</speed>
      </trkpt>
      <trkpt lat="29.1770104" lon="119.6293382">
        <ele>349.49</ele>
        <time>2026-03-22T03:46:39Z</time>
        <speed>0.5075161</speed>
      </trkpt>
      <trkpt lat="29.1769833" lon="119.6292366">
        <ele>345.02</ele>
        <time>2026-03-22T03:46:51Z</time>
        <speed>0.9676778</speed>
      </trkpt>
      <trkpt lat="29.1769939" lon="119.6291283">
        <ele>341.7</ele>
        <time>2026-03-22T03:47:13Z</time>
        <speed>0.37574723</speed>
      </trkpt>
      <trkpt lat="29.1769664" lon="119.6290314">
        <ele>337.87</ele>
        <time>2026-03-22T03:47:27Z</time>
        <speed>0.5636208</speed>
      </trkpt>
      <trkpt lat="29.1769535" lon="119.6289298">
        <ele>335.6</ele>
        <time>2026-03-22T03:47:41Z</time>
        <speed>0.38810056</speed>
      </trkpt>
      <trkpt lat="29.1769677" lon="119.6288226">
        <ele>333.8</ele>
        <time>2026-03-22T03:48:01Z</time>
        <speed>0.62899053</speed>
      </trkpt>
      <trkpt lat="29.17698" lon="119.6287161">
        <ele>331.13</ele>
        <time>2026-03-22T03:48:59Z</time>
        <speed>0.5275903</speed>
      </trkpt>
      <trkpt lat="29.177005" lon="119.628595">
        <ele>327.03</ele>
        <time>2026-03-22T03:50:17Z</time>
        <speed>0.5085456</speed>
      </trkpt>
      <trkpt lat="29.1770333" lon="119.628495">
        <ele>323.79</ele>
        <time>2026-03-22T03:50:35Z</time>
        <speed>0.4400875</speed>
      </trkpt>
      <trkpt lat="29.1770532" lon="119.6283908">
        <ele>321.3</ele>
        <time>2026-03-22T03:50:59Z</time>
        <speed>0.82046723</speed>
      </trkpt>
      <trkpt lat="29.1770793" lon="119.6282781">
        <ele>318.42</ele>
        <time>2026-03-22T03:51:15Z</time>
        <speed>0.6711978</speed>
      </trkpt>
      <trkpt lat="29.177096" lon="119.6281665">
        <ele>315.74</ele>
        <time>2026-03-22T03:51:33Z</time>
        <speed>0.3314811</speed>
      </trkpt>
      <trkpt lat="29.1770667" lon="119.6280693">
        <ele>312.8</ele>
        <time>2026-03-22T03:51:53Z</time>
        <speed>0.5245019</speed>
      </trkpt>
      <trkpt lat="29.1770022" lon="119.6279902">
        <ele>309.06</ele>
        <time>2026-03-22T03:52:15Z</time>
        <speed>0.68509525</speed>
      </trkpt>
      <trkpt lat="29.1769376" lon="119.627907">
        <ele>305.98</ele>
        <time>2026-03-22T03:52:31Z</time>
        <speed>0.6547267</speed>
      </trkpt>
      <trkpt lat="29.1768726" lon="119.6278298">
        <ele>303.19</ele>
        <time>2026-03-22T03:52:51Z</time>
        <speed>0.46427944</speed>
      </trkpt>
      <trkpt lat="29.1768017" lon="119.6277567">
        <ele>300.44</ele>
        <time>2026-03-22T03:53:37Z</time>
        <speed>0.49207443</speed>
      </trkpt>
      <trkpt lat="29.1767467" lon="119.627605">
        <ele>297.28</ele>
        <time>2026-03-22T03:54:47Z</time>
        <speed>0.43905807</speed>
      </trkpt>
      <trkpt lat="29.1766617" lon="119.6275533">
        <ele>294.24</ele>
        <time>2026-03-22T03:55:37Z</time>
        <speed>0.3659675</speed>
      </trkpt>
      <trkpt lat="29.1766" lon="119.6274617">
        <ele>290.44</ele>
        <time>2026-03-22T03:56:55Z</time>
        <speed>0.35979083</speed>
      </trkpt>
      <trkpt lat="29.176545" lon="119.6273683">
        <ele>286.51</ele>
        <time>2026-03-22T03:57:07Z</time>
        <speed>0.57803303</speed>
      </trkpt>
      <trkpt lat="29.1764787" lon="119.6272947">
        <ele>283.75</ele>
        <time>2026-03-22T03:57:19Z</time>
        <speed>0.8086286</speed>
      </trkpt>
      <trkpt lat="29.1764117" lon="119.6272105">
        <ele>280.59</ele>
        <time>2026-03-22T03:57:33Z</time>
        <speed>0.93679446</speed>
      </trkpt>
      <trkpt lat="29.1763482" lon="119.6271117">
        <ele>276.64</ele>
        <time>2026-03-22T03:57:45Z</time>
        <speed>0.96664834</speed>
      </trkpt>
      <trkpt lat="29.1762986" lon="119.6270116">
        <ele>273.35</ele>
        <time>2026-03-22T03:57:55Z</time>
        <speed>0.7834072</speed>
      </trkpt>
      <trkpt lat="29.1762454" lon="119.6269166">
        <ele>270.62</ele>
        <time>2026-03-22T03:58:05Z</time>
        <speed>1.20445</speed>
      </trkpt>
      <trkpt lat="29.1761813" lon="119.6268379">
        <ele>269.45</ele>
        <time>2026-03-22T03:58:19Z</time>
        <speed>0.67685974</speed>
      </trkpt>
      <trkpt lat="29.1760929" lon="119.6267865">
        <ele>267.79</ele>
        <time>2026-03-22T03:58:31Z</time>
        <speed>0.83385</speed>
      </trkpt>
      <trkpt lat="29.1760162" lon="119.6267253">
        <ele>265.6</ele>
        <time>2026-03-22T03:58:45Z</time>
        <speed>0.47766224</speed>
      </trkpt>
      <trkpt lat="29.1759379" lon="119.6266623">
        <ele>265.0</ele>
        <time>2026-03-22T03:58:57Z</time>
        <speed>0.88326335</speed>
      </trkpt>
      <trkpt lat="29.1758879" lon="119.6265756">
        <ele>265.43</ele>
        <time>2026-03-22T03:59:37Z</time>
        <speed>0.3958214</speed>
      </trkpt>
      <trkpt lat="29.1758247" lon="119.6264951">
        <ele>266.02</ele>
        <time>2026-03-22T03:59:57Z</time>
        <speed>0.0</speed>
      </trkpt>
      <trkpt lat="29.175739" lon="119.6264282">
        <ele>265.58</ele>
        <time>2026-03-22T04:00:25Z</time>
        <speed>0.0</speed>
      </trkpt>
      <trkpt lat="29.1756374" lon="119.6264127">
        <ele>264.47</ele>
        <time>2026-03-22T04:00:41Z</time>
        <speed>0.59347475</speed>
      </trkpt>
      <trkpt lat="29.1755439" lon="119.6263805">
        <ele>263.8</ele>
        <time>2026-03-22T04:01:07Z</time>
        <speed>0.37111473</speed>
      </trkpt>
      <trkpt lat="29.1754585" lon="119.6263252">
        <ele>261.35</ele>
        <time>2026-03-22T04:01:25Z</time>
        <speed>0.55487055</speed>
      </trkpt>
      <trkpt lat="29.1753764" lon="119.6263435">
        <ele>255.86</ele>
        <time>2026-03-22T04:01:41Z</time>
        <speed>0.7267878</speed>
      </trkpt>
      <trkpt lat="29.1752853" lon="119.6263381">
        <ele>251.58</ele>
        <time>2026-03-22T04:02:03Z</time>
        <speed>0.32530445</speed>
      </trkpt>
      <trkpt lat="29.1751893" lon="119.626328">
        <ele>250.25</ele>
        <time>2026-03-22T04:02:15Z</time>
        <speed>0.6346525</speed>
      </trkpt>
      <trkpt lat="29.1750856" lon="119.6263143">
        <ele>250.53</ele>
        <time>2026-03-22T04:02:25Z</time>
        <speed>0.8693658</speed>
      </trkpt>
      <trkpt lat="29.1749896" lon="119.6263031">
        <ele>251.51</ele>
        <time>2026-03-22T04:02:33Z</time>
        <speed>0.9496625</speed>
      </trkpt>
      <trkpt lat="29.1748869" lon="119.6262941">
        <ele>252.45</ele>
        <time>2026-03-22T04:02:47Z</time>
        <speed>0.7164933</speed>
      </trkpt>
      <trkpt lat="29.1747881" lon="119.6262722">
        <ele>253.72</ele>
        <time>2026-03-22T04:02:57Z</time>
        <speed>0.87708664</speed>
      </trkpt>
      <trkpt lat="29.1746922" lon="119.6262253">
        <ele>253.88</ele>
        <time>2026-03-22T04:03:13Z</time>
        <speed>0.63825554</speed>
      </trkpt>
      <trkpt lat="29.1745974" lon="119.626235">
        <ele>253.42</ele>
        <time>2026-03-22T04:03:21Z</time>
        <speed>0.86473334</speed>
      </trkpt>
      <trkpt lat="29.174504" lon="119.6262109">
        <ele>252.68</ele>
        <time>2026-03-22T04:03:39Z</time>
        <speed>0.6639917</speed>
      </trkpt>
      <trkpt lat="29.1744261" lon="119.6261508">
        <ele>251.44</ele>
        <time>2026-03-22T04:04:09Z</time>
        <speed>0.38604167</speed>
      </trkpt>
      <trkpt lat="29.1743548" lon="119.6260783">
        <ele>248.11</ele>
        <time>2026-03-22T04:04:31Z</time>
        <speed>0.3896447</speed>
      </trkpt>
      <trkpt lat="29.1742851" lon="119.626001">
        <ele>244.62</ele>
        <time>2026-03-22T04:04:51Z</time>
        <speed>0.546635</speed>
      </trkpt>
      <trkpt lat="29.1742125" lon="119.6259278">
        <ele>241.21</ele>
        <time>2026-03-22T04:05:19Z</time>
        <speed>0.670683</speed>
      </trkpt>
      <trkpt lat="29.1741447" lon="119.625851">
        <ele>238.8</ele>
        <time>2026-03-22T04:05:45Z</time>
        <speed>0.0</speed>
      </trkpt>
      <trkpt lat="29.1740935" lon="119.6257646">
        <ele>235.75</ele>
        <time>2026-03-22T04:06:07Z</time>
        <speed>0.20022695</speed>
      </trkpt>
      <trkpt lat="29.1739941" lon="119.6257052">
        <ele>232.76</ele>
        <time>2026-03-22T04:06:55Z</time>
        <speed>0.2825825</speed>
      </trkpt>
      <trkpt lat="29.1738987" lon="119.6256727">
        <ele>230.37</ele>
        <time>2026-03-22T04:07:23Z</time>
        <speed>0.50597197</speed>
      </trkpt>
      <trkpt lat="29.1738004" lon="119.6256714">
        <ele>228.57</ele>
        <time>2026-03-22T04:08:15Z</time>
        <speed>0.44111696</speed>
      </trkpt>
      <trkpt lat="29.173707" lon="119.6257084">
        <ele>223.51</ele>
        <time>2026-03-22T04:08:59Z</time>
        <speed>0.30677444</speed>
      </trkpt>
      <trkpt lat="29.1736086" lon="119.6256864">
        <ele>221.44</ele>
        <time>2026-03-22T04:09:17Z</time>
        <speed>0.6320789</speed>
      </trkpt>
      <trkpt lat="29.1735934" lon="119.6255917">
        <ele>221.34</ele>
        <time>2026-03-22T04:09:49Z</time>
        <speed>0.54251724</speed>
      </trkpt>
      <trkpt lat="29.1736491" lon="119.6255055">
        <ele>214.57</ele>
        <time>2026-03-22T04:10:17Z</time>
        <speed>0.39993918</speed>
      </trkpt>
      <trkpt lat="29.1736925" lon="119.6253934">
        <ele>209.59</ele>
        <time>2026-03-22T04:10:33Z</time>
        <speed>0.7952458</speed>
      </trkpt>
      <trkpt lat="29.1736412" lon="119.6253139">
        <ele>205.77</ele>
        <time>2026-03-22T04:10:51Z</time>
        <speed>0.7350233</speed>
      </trkpt>
      <trkpt lat="29.1735565" lon="119.6252588">
        <ele>202.12</ele>
        <time>2026-03-22T04:11:01Z</time>
        <speed>1.0618719</speed>
      </trkpt>
      <trkpt lat="29.1734835" lon="119.6251858">
        <ele>199.49</ele>
        <time>2026-03-22T04:11:13Z</time>
        <speed>0.6171519</speed>
      </trkpt>
      <trkpt lat="29.1734235" lon="119.6250873">
        <ele>197.73</ele>
        <time>2026-03-22T04:11:25Z</time>
        <speed>0.731935</speed>
      </trkpt>
      <trkpt lat="29.1733397" lon="119.625017">
        <ele>196.64</ele>
        <time>2026-03-22T04:11:37Z</time>
        <speed>0.78803974</speed>
      </trkpt>
      <trkpt lat="29.1732521" lon="119.6249686">
        <ele>195.55</ele>
        <time>2026-03-22T04:11:47Z</time>
        <speed>1.0520922</speed>
      </trkpt>
      <trkpt lat="29.1732084" lon="119.6249463">
        <ele>193.89</ele>
        <time>2026-03-22T04:12:07Z</time>
        <speed>0.0</speed>
      </trkpt>
      <trkpt lat="29.173154" lon="119.6248892">
        <ele>192.18</ele>
        <time>2026-03-22T04:12:23Z</time>
        <speed>0.63774085</speed>
      </trkpt>
      <trkpt lat="29.1730813" lon="119.6248309">
        <ele>190.04</ele>
        <time>2026-03-22T04:12:37Z</time>
        <speed>0.7242142</speed>
      </trkpt>
      <trkpt lat="29.1730028" lon="119.6247642">
        <ele>188.08</ele>
        <time>2026-03-22T04:12:53Z</time>
        <speed>0.6186961</speed>
      </trkpt>
      <trkpt lat="29.1729078" lon="119.6247098">
        <ele>186.11</ele>
        <time>2026-03-22T04:13:15Z</time>
        <speed>0.60325444</speed>
      </trkpt>
      <trkpt lat="29.1728313" lon="119.6246431">
        <ele>183.87</ele>
        <time>2026-03-22T04:13:31Z</time>
        <speed>0.73090553</speed>
      </trkpt>
      <trkpt lat="29.1727554" lon="119.6245678">
        <ele>182.25</ele>
        <time>2026-03-22T04:13:55Z</time>
        <speed>0.44317582</speed>
      </trkpt>
      <trkpt lat="29.1726881" lon="119.6244862">
        <ele>180.94</ele>
        <time>2026-03-22T04:14:17Z</time>
        <speed>0.0</speed>
      </trkpt>
      <trkpt lat="29.1726163" lon="119.6244204">
        <ele>179.5</ele>
        <time>2026-03-22T04:14:45Z</time>
        <speed>0.32015723</speed>
      </trkpt>
      <trkpt lat="29.1725447" lon="119.6243538">
        <ele>179.11</ele>
        <time>2026-03-22T04:14:55Z</time>
        <speed>0.82973224</speed>
      </trkpt>
      <trkpt lat="29.1724682" lon="119.6242913">
        <ele>178.63</ele>
        <time>2026-03-22T04:15:05Z</time>
        <speed>0.9867225</speed>
      </trkpt>
      <trkpt lat="29.172391" lon="119.6242352">
        <ele>177.76</ele>
        <time>2026-03-22T04:15:17Z</time>
        <speed>0.787525</speed>
      </trkpt>
      <trkpt lat="29.1722951" lon="119.624206">
        <ele>176.92</ele>
        <time>2026-03-22T04:15:31Z</time>
        <speed>0.60788697</speed>
      </trkpt>
      <trkpt lat="29.1722" lon="119.6241963">
        <ele>176.09</ele>
        <time>2026-03-22T04:15:45Z</time>
        <speed>0.7108314</speed>
      </trkpt>
      <trkpt lat="29.1720925" lon="119.6242206">
        <ele>174.55</ele>
        <time>2026-03-22T04:15:57Z</time>
        <speed>0.7257583</speed>
      </trkpt>
      <trkpt lat="29.1719898" lon="119.6242041">
        <ele>173.67</ele>
        <time>2026-03-22T04:16:07Z</time>
        <speed>0.8842928</speed>
      </trkpt>
      <trkpt lat="29.1719212" lon="119.6241284">
        <ele>171.44</ele>
        <time>2026-03-22T04:16:19Z</time>
        <speed>0.6197256</speed>
      </trkpt>
      <trkpt lat="29.1718314" lon="119.6240656">
        <ele>168.46</ele>
        <time>2026-03-22T04:16:31Z</time>
        <speed>0.8559831</speed>
      </trkpt>
      <trkpt lat="29.1717422" lon="119.6240299">
        <ele>165.29</ele>
        <time>2026-03-22T04:16:43Z</time>
        <speed>1.0639309</speed>
      </trkpt>
      <trkpt lat="29.1717073" lon="119.6240141">
        <ele>163.14</ele>
        <time>2026-03-22T04:17:01Z</time>
        <speed>0.0</speed>
      </trkpt>
      <trkpt lat="29.171636" lon="119.623962">
        <ele>162.05</ele>
        <time>2026-03-22T04:17:23Z</time>
        <speed>0.9681925</speed>
      </trkpt>
      <trkpt lat="29.1715635" lon="119.623899">
        <ele>162.76</ele>
        <time>2026-03-22T04:17:37Z</time>
        <speed>0.7767158</speed>
      </trkpt>
      <trkpt lat="29.1714822" lon="119.6238294">
        <ele>163.25</ele>
        <time>2026-03-22T04:18:05Z</time>
        <speed>0.92341167</speed>
      </trkpt>
      <trkpt lat="29.1713943" lon="119.6237899">
        <ele>161.29</ele>
        <time>2026-03-22T04:18:43Z</time>
        <speed>0.7993636</speed>
      </trkpt>
      <trkpt lat="29.1712932" lon="119.6237449">
        <ele>158.67</ele>
        <time>2026-03-22T04:19:01Z</time>
        <speed>0.84054136</speed>
      </trkpt>
      <trkpt lat="29.1712195" lon="119.623668">
        <ele>157.44</ele>
        <time>2026-03-22T04:19:11Z</time>
        <speed>0.76796556</speed>
      </trkpt>
      <trkpt lat="29.171183" lon="119.6235565">
        <ele>156.56</ele>
        <time>2026-03-22T04:19:39Z</time>
        <speed>0.5044278</speed>
      </trkpt>
      <trkpt lat="29.1711355" lon="119.6234616">
        <ele>154.3</ele>
        <time>2026-03-22T04:19:55Z</time>
        <speed>0.41743973</speed>
      </trkpt>
      <trkpt lat="29.1710978" lon="119.6233617">
        <ele>150.64</ele>
        <time>2026-03-22T04:20:05Z</time>
        <speed>0.80554026</speed>
      </trkpt>
      <trkpt lat="29.1710653" lon="119.6232606">
        <ele>147.23</ele>
        <time>2026-03-22T04:20:21Z</time>
        <speed>0.85546833</speed>
      </trkpt>
      <trkpt lat="29.1709988" lon="119.623182">
        <ele>143.52</ele>
        <time>2026-03-22T04:20:41Z</time>
        <speed>0.50648665</speed>
      </trkpt>
      <trkpt lat="29.1709103" lon="119.6231309">
        <ele>138.65</ele>
        <time>2026-03-22T04:20:57Z</time>
        <speed>0.59244525</speed>
      </trkpt>
      <trkpt lat="29.1708152" lon="119.6231539">
        <ele>133.9</ele>
        <time>2026-03-22T04:21:23Z</time>
        <speed>0.35104054</speed>
      </trkpt>
      <trkpt lat="29.1707071" lon="119.6231706">
        <ele>130.16</ele>
        <time>2026-03-22T04:22:05Z</time>
        <speed>0.4997953</speed>
      </trkpt>
      <trkpt lat="29.1706133" lon="119.6232061">
        <ele>126.43</ele>
        <time>2026-03-22T04:22:23Z</time>
        <speed>0.45038193</speed>
      </trkpt>
      <trkpt lat="29.1705386" lon="119.6232812">
        <ele>123.88</ele>
        <time>2026-03-22T04:22:33Z</time>
        <speed>1.1715078</speed>
      </trkpt>
      <trkpt lat="29.1704509" lon="119.6233196">
        <ele>120.83</ele>
        <time>2026-03-22T04:22:55Z</time>
        <speed>0.60171026</speed>
      </trkpt>
      <trkpt lat="29.1703775" lon="119.6233851">
        <ele>117.51</ele>
        <time>2026-03-22T04:23:11Z</time>
        <speed>0.53325224</speed>
      </trkpt>
      <trkpt lat="29.1702931" lon="119.6234155">
        <ele>115.78</ele>
        <time>2026-03-22T04:23:31Z</time>
        <speed>1.0999614</speed>
      </trkpt>
      <trkpt lat="29.170204" lon="119.6234544">
        <ele>116.91</ele>
        <time>2026-03-22T04:23:43Z</time>
        <speed>0.72627306</speed>
      </trkpt>
      <trkpt lat="29.1701171" lon="119.6235138">
        <ele>119.87</ele>
        <time>2026-03-22T04:24:03Z</time>
        <speed>0.5981072</speed>
      </trkpt>
      <trkpt lat="29.170034" lon="119.6234769">
        <ele>120.23</ele>
        <time>2026-03-22T04:24:17Z</time>
        <speed>1.1231239</speed>
      </trkpt>
      <trkpt lat="29.1699711" lon="119.6233925">
        <ele>122.58</ele>
        <time>2026-03-22T04:24:27Z</time>
        <speed>1.7238047</speed>
      </trkpt>
      <trkpt lat="29.1698967" lon="119.6233006">
        <ele>123.11</ele>
        <time>2026-03-22T04:24:37Z</time>
        <speed>1.9044722</speed>
      </trkpt>
      <trkpt lat="29.1698168" lon="119.6232372">
        <ele>121.9</ele>
        <time>2026-03-22T04:24:51Z</time>
        <speed>1.1272416</speed>
      </trkpt>
      <trkpt lat="29.1697387" lon="119.6231774">
        <ele>121.68</ele>
        <time>2026-03-22T04:25:03Z</time>
        <speed>1.0273856</speed>
      </trkpt>
      <trkpt lat="29.1697179" lon="119.6230715">
        <ele>121.91</ele>
        <time>2026-03-22T04:25:13Z</time>
        <speed>1.0515774</speed>
      </trkpt>
      <trkpt lat="29.1697369" lon="119.6230224">
        <ele>121.9</ele>
        <time>2026-03-22T04:25:25Z</time>
        <speed>0.0</speed>
      </trkpt>
      <trkpt lat="29.1696896" lon="119.6230741">
        <ele>120.65</ele>
        <time>2026-03-22T04:25:35Z</time>
        <speed>1.1128294</speed>
      </trkpt>
      <trkpt lat="29.1696056" lon="119.6230758">
        <ele>119.64</ele>
        <time>2026-03-22T04:25:43Z</time>
        <speed>1.226583</speed>
      </trkpt>
      <trkpt lat="29.1695148" lon="119.6230514">
        <ele>119.84</ele>
        <time>2026-03-22T04:25:53Z</time>
        <speed>0.86730695</speed>
      </trkpt>
      <trkpt lat="29.1694143" lon="119.622998">
        <ele>120.81</ele>
        <time>2026-03-22T04:26:03Z</time>
        <speed>1.584315</speed>
      </trkpt>
      <trkpt lat="29.1693134" lon="119.6229538">
        <ele>122.36</ele>
        <time>2026-03-22T04:26:15Z</time>
        <speed>1.1606987</speed>
      </trkpt>
      <trkpt lat="29.1692126" lon="119.6229165">
        <ele>121.39</ele>
        <time>2026-03-22T04:26:25Z</time>
        <speed>1.5729911</speed>
      </trkpt>
      <trkpt lat="29.1691679" lon="119.6228171">
        <ele>119.41</ele>
        <time>2026-03-22T04:26:43Z</time>
        <speed>0.9295883</speed>
      </trkpt>
      <trkpt lat="29.1691816" lon="119.622705">
        <ele>116.7</ele>
        <time>2026-03-22T04:26:51Z</time>
        <speed>1.2662166</speed>
      </trkpt>
      <trkpt lat="29.1691662" lon="119.6225992">
        <ele>114.89</ele>
        <time>2026-03-22T04:26:59Z</time>
        <speed>1.1689342</speed>
      </trkpt>
      <trkpt lat="29.1691994" lon="119.6224995">
        <ele>113.99</ele>
        <time>2026-03-22T04:27:09Z</time>
        <speed>0.9620158</speed>
      </trkpt>
      <trkpt lat="29.1691367" lon="119.6224668">
        <ele>113.26</ele>
        <time>2026-03-22T04:27:31Z</time>
        <speed>0.54766446</speed>
      </trkpt>
      <trkpt lat="29.1690383" lon="119.62249">
        <ele>112.85</ele>
        <time>2026-03-22T04:27:45Z</time>
        <speed>0.67531556</speed>
      </trkpt>
      <trkpt lat="29.16892" lon="119.6224933">
        <ele>112.57</ele>
        <time>2026-03-22T04:29:17Z</time>
        <speed>0.91414666</speed>
      </trkpt>
      <trkpt lat="29.16883" lon="119.622475">
        <ele>114.17</ele>
        <time>2026-03-22T04:29:29Z</time>
        <speed>1.0356212</speed>
      </trkpt>
      <trkpt lat="29.1687358" lon="119.6224778">
        <ele>115.35</ele>
        <time>2026-03-22T04:30:01Z</time>
        <speed>0.8225261</speed>
      </trkpt>
      <trkpt lat="29.168665" lon="119.6225483">
        <ele>114.94</ele>
        <time>2026-03-22T04:31:03Z</time>
        <speed>0.7216405</speed>
      </trkpt>
      <trkpt lat="29.1686317" lon="119.6226567">
        <ele>115.35</ele>
        <time>2026-03-22T04:31:13Z</time>
        <speed>0.9609864</speed>
      </trkpt>
      <trkpt lat="29.1685588" lon="119.6227354">
        <ele>115.98</ele>
        <time>2026-03-22T04:31:31Z</time>
        <speed>0.6881836</speed>
      </trkpt>
      <trkpt lat="29.1684597" lon="119.6227664">
        <ele>116.29</ele>
        <time>2026-03-22T04:32:19Z</time>
        <speed>1.0016495</speed>
      </trkpt>
      <trkpt lat="29.1683585" lon="119.6227924">
        <ele>116.94</ele>
        <time>2026-03-22T04:32:29Z</time>
        <speed>1.8663827</speed>
      </trkpt>
      <trkpt lat="29.1683585" lon="119.6227924">
        <ele>116.94</ele>
        <time>2026-03-22T04:32:38Z</time>
        <speed>1.8663827</speed>
      </trkpt>
      <extensions>
        <PauseTimes>1774153958000:pause</PauseTimes>
      </extensions>
    </trkseg>
  </trk>
  <wpt lat="29.1673797" lon="119.6219949">
    <ele>102.3</ele>
    <time>2026-03-22T02:01:17Z</time>
    <name><![CDATA[牌楼
        ]]>
    </name>
    <cmt>牌楼
        </cmt>
    <desc><![CDATA[]]>
    </desc>
    <sym>Flag, Blue</sym>
    <type>user</type>
    <extensions>
      <PosType>0</PosType>
      <Speed>0.13382778</Speed>
      <Accuracy>1.4</Accuracy>
      <Time>1774144877394</Time>
      <description><![CDATA[]]>
      </description>
      <FileId>1575587667</FileId>
      <FileSize>620160</FileSize>
      <FileType>0</FileType>
    </extensions>
  </wpt>
  <wpt lat="29.1682456" lon="119.6229492">
    <ele>100.8</ele>
    <time>2026-03-22T02:05:09Z</time>
    <name><![CDATA[智者寺
        ]]>
    </name>
    <cmt>智者寺
        </cmt>
    <desc><![CDATA[]]>
    </desc>
    <sym>Flag, Blue</sym>
    <type>user</type>
    <extensions>
      <PosType>0</PosType>
      <Speed>0.92083806</Speed>
      <Accuracy>1.6</Accuracy>
      <Time>1774145109427</Time>
      <description><![CDATA[]]>
      </description>
      <FileId>1575587663</FileId>
      <FileSize>615687</FileSize>
      <FileType>0</FileType>
    </extensions>
  </wpt>
  <wpt lat="29.1683047" lon="119.6234483">
    <ele>102.2</ele>
    <time>2026-03-22T02:08:29Z</time>
    <name><![CDATA[右侧前进
        ]]>
    </name>
    <cmt>右侧前进
        </cmt>
    <desc><![CDATA[]]>
    </desc>
    <sym>Flag, Blue</sym>
    <type>user</type>
    <extensions>
      <PosType>0</PosType>
      <Speed>0.64957947</Speed>
      <Accuracy>1.2</Accuracy>
      <Time>1774145309454</Time>
      <description><![CDATA[]]>
      </description>
      <FileId>1575587658</FileId>
      <FileSize>1068379</FileSize>
      <FileType>0</FileType>
    </extensions>
  </wpt>
  <wpt lat="29.168985" lon="119.6254567">
    <ele>111.5</ele>
    <time>2026-03-22T02:14:29Z</time>
    <name><![CDATA[寺庙停车场
        ]]>
    </name>
    <cmt>寺庙停车场
        </cmt>
    <desc><![CDATA[]]>
    </desc>
    <sym>Flag, Blue</sym>
    <type>user</type>
    <extensions>
      <PosType>0</PosType>
      <Speed>0.36957055</Speed>
      <Accuracy>1.3</Accuracy>
      <Time>1774145669420</Time>
      <description><![CDATA[]]>
      </description>
      <FileId>1575587652</FileId>
      <FileSize>820763</FileSize>
      <FileType>0</FileType>
    </extensions>
  </wpt>
  <wpt lat="29.1695377" lon="119.6270781">
    <ele>117.6</ele>
    <time>2026-03-22T02:17:53Z</time>
    <name><![CDATA[公路结束开始土路
        ]]>
    </name>
    <cmt>公路结束开始土路
        </cmt>
    <desc><![CDATA[]]>
    </desc>
    <sym>Flag, Blue</sym>
    <type>user</type>
    <extensions>
      <PosType>0</PosType>
      <Speed>0.38089445</Speed>
      <Accuracy>1.4</Accuracy>
      <Time>1774145873423</Time>
      <description><![CDATA[]]>
      </description>
      <FileId>1575587648</FileId>
      <FileSize>1117775</FileSize>
      <FileType>0</FileType>
    </extensions>
  </wpt>
  <wpt lat="29.1698014" lon="119.6293616">
    <ele>135.8</ele>
    <time>2026-03-22T02:24:59Z</time>
    <name><![CDATA[左右都可以走，左边近一点
        ]]>
    </name>
    <cmt>左右都可以走，左边近一点
        </cmt>
    <desc><![CDATA[]]>
    </desc>
    <sym>Flag, Blue</sym>
    <type>user</type>
    <extensions>
      <PosType>0</PosType>
      <Speed>0.69796336</Speed>
      <Accuracy>1.4</Accuracy>
      <Time>1774146299427</Time>
      <description><![CDATA[]]>
      </description>
      <FileId>1575587645</FileId>
      <FileSize>1770079</FileSize>
      <FileType>0</FileType>
    </extensions>
  </wpt>
  <wpt lat="29.1703715" lon="119.6298744">
    <ele>144.4</ele>
    <time>2026-03-22T02:33:07Z</time>
    <name><![CDATA[坟墓
        ]]>
    </name>
    <cmt>坟墓
        </cmt>
    <desc><![CDATA[]]>
    </desc>
    <sym>Flag, Blue</sym>
    <type>user</type>
    <extensions>
      <PosType>0</PosType>
      <Speed>0.6536972</Speed>
      <Accuracy>1.4</Accuracy>
      <Time>1774146787433</Time>
      <description><![CDATA[]]>
      </description>
    </extensions>
  </wpt>
  <wpt lat="29.1704435" lon="119.6298973">
    <ele>152.1</ele>
    <time>2026-03-22T02:33:57Z</time>
    <name><![CDATA[
        ]]>
    </name>
    <cmt>
        </cmt>
    <desc><![CDATA[]]>
    </desc>
    <sym>Flag, Blue</sym>
    <type>user</type>
    <extensions>
      <PosType>0</PosType>
      <Speed>0.42773417</Speed>
      <Accuracy>1.5</Accuracy>
      <Time>1774146837475</Time>
      <description><![CDATA[]]>
      </description>
      <FileId>1575587634</FileId>
      <FileSize>1648104</FileSize>
      <FileType>0</FileType>
    </extensions>
  </wpt>
  <wpt lat="29.17231" lon="119.6311567">
    <ele>237.3</ele>
    <time>2026-03-22T02:50:01Z</time>
    <name><![CDATA[
        ]]>
    </name>
    <cmt>
        </cmt>
    <desc><![CDATA[]]>
    </desc>
    <sym>Flag, Blue</sym>
    <type>user</type>
    <extensions>
      <PosType>0</PosType>
      <Speed>0.44986722</Speed>
      <Accuracy>1.5</Accuracy>
      <Time>1774147801503</Time>
      <description><![CDATA[]]>
      </description>
      <FileId>1575587626</FileId>
      <FileSize>1353057</FileSize>
      <FileType>0</FileType>
    </extensions>
  </wpt>
  <wpt lat="29.1723217" lon="119.6312683">
    <ele>230.0</ele>
    <time>2026-03-22T02:51:45Z</time>
    <name><![CDATA[
        ]]>
    </name>
    <cmt>
        </cmt>
    <desc><![CDATA[]]>
    </desc>
    <sym>Flag, Blue</sym>
    <type>user</type>
    <extensions>
      <PosType>0</PosType>
      <Speed>0.37162945</Speed>
      <Accuracy>1.4</Accuracy>
      <Time>1774147905460</Time>
      <description><![CDATA[]]>
      </description>
      <FileId>1575587571</FileId>
      <FileSize>1492427</FileSize>
      <FileType>0</FileType>
    </extensions>
  </wpt>
  <wpt lat="29.1727983" lon="119.6316583">
    <ele>262.0</ele>
    <time>2026-03-22T02:58:27Z</time>
    <name><![CDATA[泥土台阶
        ]]>
    </name>
    <cmt>泥土台阶
        </cmt>
    <desc><![CDATA[]]>
    </desc>
    <sym>Flag, Blue</sym>
    <type>user</type>
    <extensions>
      <PosType>0</PosType>
      <Speed>0.29030332</Speed>
      <Accuracy>1.4</Accuracy>
      <Time>1774148307513</Time>
      <description><![CDATA[]]>
      </description>
      <FileId>1575587564</FileId>
      <FileSize>1478877</FileSize>
      <FileType>0</FileType>
    </extensions>
  </wpt>
  <wpt lat="29.1733187" lon="119.6320944">
    <ele>296.1</ele>
    <time>2026-03-22T03:05:09Z</time>
    <name><![CDATA[汇合点
        ]]>
    </name>
    <cmt>汇合点
        </cmt>
    <desc><![CDATA[]]>
    </desc>
    <sym>Flag, Blue</sym>
    <type>user</type>
    <extensions>
      <PosType>0</PosType>
      <Speed>0.379865</Speed>
      <Accuracy>1.5</Accuracy>
      <Time>1774148709444</Time>
      <description><![CDATA[]]>
      </description>
      <FileId>1575587558</FileId>
      <FileSize>2495017</FileSize>
      <FileType>0</FileType>
    </extensions>
  </wpt>
  <wpt lat="29.173515" lon="119.6321233">
    <ele>300.0</ele>
    <time>2026-03-22T03:08:11Z</time>
    <name><![CDATA[
        ]]>
    </name>
    <cmt>
        </cmt>
    <desc><![CDATA[]]>
    </desc>
    <sym>Flag, Blue</sym>
    <type>user</type>
    <extensions>
      <PosType>0</PosType>
      <Speed>0.70053697</Speed>
      <Accuracy>1.4</Accuracy>
      <Time>1774148891439</Time>
      <description><![CDATA[]]>
      </description>
      <FileId>1575587554</FileId>
      <FileSize>1408962</FileSize>
      <FileType>0</FileType>
    </extensions>
  </wpt>
  <wpt lat="29.1736854" lon="119.6321882">
    <ele>299.2</ele>
    <time>2026-03-22T03:08:43Z</time>
    <name><![CDATA[
        ]]>
    </name>
    <cmt>
        </cmt>
    <desc><![CDATA[]]>
    </desc>
    <sym>Flag, Blue</sym>
    <type>user</type>
    <extensions>
      <PosType>0</PosType>
      <Speed>0.6722272</Speed>
      <Accuracy>1.4</Accuracy>
      <Time>1774148923483</Time>
      <description><![CDATA[]]>
      </description>
      <FileId>1575587551</FileId>
      <FileSize>1476442</FileSize>
      <FileType>0</FileType>
    </extensions>
  </wpt>
  <wpt lat="29.1746963" lon="119.6316244">
    <ele>317.0</ele>
    <time>2026-03-22T03:16:01Z</time>
    <name><![CDATA[
        ]]>
    </name>
    <cmt>
        </cmt>
    <desc><![CDATA[]]>
    </desc>
    <sym>Flag, Blue</sym>
    <type>user</type>
    <extensions>
      <PosType>0</PosType>
      <Speed>0.6104606</Speed>
      <Accuracy>1.3</Accuracy>
      <Time>1774149361466</Time>
      <description><![CDATA[]]>
      </description>
      <FileId>1575587548</FileId>
      <FileSize>1593841</FileSize>
      <FileType>0</FileType>
    </extensions>
  </wpt>
  <wpt lat="29.1753276" lon="119.6317624">
    <ele>333.3</ele>
    <time>2026-03-22T03:18:55Z</time>
    <name><![CDATA[
        ]]>
    </name>
    <cmt>
        </cmt>
    <desc><![CDATA[]]>
    </desc>
    <sym>Flag, Blue</sym>
    <type>user</type>
    <extensions>
      <PosType>0</PosType>
      <Speed>0.0</Speed>
      <Accuracy>1.3</Accuracy>
      <Time>1774149535484</Time>
      <description><![CDATA[]]>
      </description>
      <FileId>1575587543</FileId>
      <FileSize>1284780</FileSize>
      <FileType>0</FileType>
    </extensions>
  </wpt>
  <wpt lat="29.1753717" lon="119.6316567">
    <ele>335.4</ele>
    <time>2026-03-22T03:20:09Z</time>
    <name><![CDATA[
        ]]>
    </name>
    <cmt>
        </cmt>
    <desc><![CDATA[]]>
    </desc>
    <sym>Flag, Blue</sym>
    <type>user</type>
    <extensions>
      <PosType>0</PosType>
      <Speed>0.6063428</Speed>
      <Accuracy>1.3</Accuracy>
      <Time>1774149609470</Time>
      <description><![CDATA[]]>
      </description>
      <FileId>1575587537</FileId>
      <FileSize>1346850</FileSize>
      <FileType>0</FileType>
    </extensions>
  </wpt>
  <wpt lat="29.1755182" lon="119.631545">
    <ele>340.2</ele>
    <time>2026-03-22T03:21:11Z</time>
    <name><![CDATA[
        ]]>
    </name>
    <cmt>
        </cmt>
    <desc><![CDATA[]]>
    </desc>
    <sym>Flag, Blue</sym>
    <type>user</type>
    <extensions>
      <PosType>0</PosType>
      <Speed>0.6356819</Speed>
      <Accuracy>1.3</Accuracy>
      <Time>1774149671475</Time>
      <description><![CDATA[]]>
      </description>
      <FileId>1575587529</FileId>
      <FileSize>812018</FileSize>
      <FileType>0</FileType>
    </extensions>
  </wpt>
  <wpt lat="29.1756583" lon="119.6315985">
    <ele>342.5</ele>
    <time>2026-03-22T03:22:13Z</time>
    <name><![CDATA[
        ]]>
    </name>
    <cmt>
        </cmt>
    <desc><![CDATA[]]>
    </desc>
    <sym>Flag, Blue</sym>
    <type>user</type>
    <extensions>
      <PosType>0</PosType>
      <Speed>0.49619222</Speed>
      <Accuracy>1.4</Accuracy>
      <Time>1774149733441</Time>
      <description><![CDATA[]]>
      </description>
      <FileId>1575587525</FileId>
      <FileSize>2447255</FileSize>
      <FileType>0</FileType>
    </extensions>
  </wpt>
  <wpt lat="29.1762483" lon="119.6314817">
    <ele>364.5</ele>
    <time>2026-03-22T03:29:51Z</time>
    <name><![CDATA[右转
        ]]>
    </name>
    <cmt>右转
        </cmt>
    <desc><![CDATA[]]>
    </desc>
    <sym>Flag, Blue</sym>
    <type>user</type>
    <extensions>
      <PosType>0</PosType>
      <Speed>0.5275903</Speed>
      <Accuracy>1.4</Accuracy>
      <Time>1774150191452</Time>
      <description><![CDATA[]]>
      </description>
      <FileId>1575587522</FileId>
      <FileSize>2730439</FileSize>
      <FileType>0</FileType>
    </extensions>
  </wpt>
  <wpt lat="29.1766394" lon="119.6313489">
    <ele>370.2</ele>
    <time>2026-03-22T03:32:37Z</time>
    <name><![CDATA[
        ]]>
    </name>
    <cmt>
        </cmt>
    <desc><![CDATA[]]>
    </desc>
    <sym>Flag, Blue</sym>
    <type>user</type>
    <extensions>
      <PosType>0</PosType>
      <Speed>1.0031936</Speed>
      <Accuracy>1.5</Accuracy>
      <Time>1774150357451</Time>
      <description><![CDATA[]]>
      </description>
      <FileId>1575587517</FileId>
      <FileSize>1232389</FileSize>
      <FileType>0</FileType>
    </extensions>
  </wpt>
  <wpt lat="29.1769538" lon="119.6311938">
    <ele>363.0</ele>
    <time>2026-03-22T03:33:13Z</time>
    <name><![CDATA[
        ]]>
    </name>
    <cmt>
        </cmt>
    <desc><![CDATA[]]>
    </desc>
    <sym>Flag, Blue</sym>
    <type>user</type>
    <extensions>
      <PosType>0</PosType>
      <Speed>0.90745527</Speed>
      <Accuracy>1.5</Accuracy>
      <Time>1774150393428</Time>
      <description><![CDATA[]]>
      </description>
      <FileId>1575587513</FileId>
      <FileSize>1159786</FileSize>
      <FileType>0</FileType>
    </extensions>
  </wpt>
  <wpt lat="29.1773752" lon="119.630974">
    <ele>362.4</ele>
    <time>2026-03-22T03:33:57Z</time>
    <name><![CDATA[
        ]]>
    </name>
    <cmt>
        </cmt>
    <desc><![CDATA[]]>
    </desc>
    <sym>Flag, Blue</sym>
    <type>user</type>
    <extensions>
      <PosType>0</PosType>
      <Speed>1.2806289</Speed>
      <Accuracy>1.4</Accuracy>
      <Time>1774150437464</Time>
      <description><![CDATA[]]>
      </description>
      <FileId>1575587509</FileId>
      <FileSize>2644350</FileSize>
      <FileType>0</FileType>
    </extensions>
  </wpt>
  <wpt lat="29.1773367" lon="119.6308483">
    <ele>360.4</ele>
    <time>2026-03-22T03:35:19Z</time>
    <name><![CDATA[右转
        ]]>
    </name>
    <cmt>右转
        </cmt>
    <desc><![CDATA[]]>
    </desc>
    <sym>Flag, Blue</sym>
    <type>user</type>
    <extensions>
      <PosType>0</PosType>
      <Speed>0.3407461</Speed>
      <Accuracy>1.5</Accuracy>
      <Time>1774150519472</Time>
      <description><![CDATA[]]>
      </description>
      <FileId>1575587506</FileId>
      <FileSize>2635507</FileSize>
      <FileType>0</FileType>
    </extensions>
  </wpt>
  <wpt lat="29.1777139" lon="119.6300835">
    <ele>376.8</ele>
    <time>2026-03-22T03:38:31Z</time>
    <name><![CDATA[电塔
        ]]>
    </name>
    <cmt>电塔
        </cmt>
    <desc><![CDATA[]]>
    </desc>
    <sym>Flag, Blue</sym>
    <type>user</type>
    <extensions>
      <PosType>0</PosType>
      <Speed>0.7139197</Speed>
      <Accuracy>1.5</Accuracy>
      <Time>1774150711439</Time>
      <description><![CDATA[]]>
      </description>
      <FileId>1575587502</FileId>
      <FileSize>1455966</FileSize>
      <FileType>0</FileType>
    </extensions>
  </wpt>
  <wpt lat="29.17775" lon="119.629975">
    <ele>369.8</ele>
    <time>2026-03-22T03:39:49Z</time>
    <name><![CDATA[十字路口，左转下山，直走半山，右转鹿女湖
        ]]>
    </name>
    <cmt>十字路口，左转下山，直走半山，右转鹿女湖
        </cmt>
    <desc><![CDATA[]]>
    </desc>
    <sym>Flag, Blue</sym>
    <type>user</type>
    <extensions>
      <PosType>0</PosType>
      <Speed>0.23265444</Speed>
      <Accuracy>1.2</Accuracy>
      <Time>1774150789439</Time>
      <description><![CDATA[]]>
      </description>
      <FileId>1575587499</FileId>
      <FileSize>1365388</FileSize>
      <FileType>0</FileType>
    </extensions>
  </wpt>
  <wpt lat="29.1772399" lon="119.6296505">
    <ele>356.9</ele>
    <time>2026-03-22T03:44:47Z</time>
    <name><![CDATA[
        ]]>
    </name>
    <cmt>
        </cmt>
    <desc><![CDATA[]]>
    </desc>
    <sym>Flag, Blue</sym>
    <type>user</type>
    <extensions>
      <PosType>0</PosType>
      <Speed>0.0</Speed>
      <Accuracy>1.7</Accuracy>
      <Time>1774151087428</Time>
      <description><![CDATA[]]>
      </description>
      <FileId>1575587493</FileId>
      <FileSize>1337236</FileSize>
      <FileType>0</FileType>
    </extensions>
  </wpt>
  <wpt lat="29.1770552" lon="119.6294252">
    <ele>347.0</ele>
    <time>2026-03-22T03:45:57Z</time>
    <name><![CDATA[连续陡下坡
        ]]>
    </name>
    <cmt>连续陡下坡
        </cmt>
    <desc><![CDATA[]]>
    </desc>
    <sym>Flag, Blue</sym>
    <type>user</type>
    <extensions>
      <PosType>0</PosType>
      <Speed>0.5625914</Speed>
      <Accuracy>1.4</Accuracy>
      <Time>1774151157471</Time>
      <description><![CDATA[]]>
      </description>
    </extensions>
  </wpt>
  <wpt lat="29.17698" lon="119.6287161">
    <ele>321.6</ele>
    <time>2026-03-22T03:48:59Z</time>
    <name><![CDATA[十字路口往前走，左转回到清风寨
        ]]>
    </name>
    <cmt>十字路口往前走，左转回到清风寨
        </cmt>
    <desc><![CDATA[]]>
    </desc>
    <sym>Flag, Blue</sym>
    <type>user</type>
    <extensions>
      <PosType>0</PosType>
      <Speed>0.5275903</Speed>
      <Accuracy>1.5</Accuracy>
      <Time>1774151339436</Time>
      <description><![CDATA[]]>
      </description>
      <FileId>1575587490</FileId>
      <FileSize>1427300</FileSize>
      <FileType>0</FileType>
    </extensions>
  </wpt>
  <wpt lat="29.177005" lon="119.628595">
    <ele>319.5</ele>
    <time>2026-03-22T03:50:17Z</time>
    <name><![CDATA[电塔
        ]]>
    </name>
    <cmt>电塔
        </cmt>
    <desc><![CDATA[]]>
    </desc>
    <sym>Flag, Blue</sym>
    <type>user</type>
    <extensions>
      <PosType>0</PosType>
      <Speed>0.5085456</Speed>
      <Accuracy>1.4</Accuracy>
      <Time>1774151417448</Time>
      <description><![CDATA[]]>
      </description>
      <FileId>1575587487</FileId>
      <FileSize>1302269</FileSize>
      <FileType>0</FileType>
    </extensions>
  </wpt>
  <wpt lat="29.1768726" lon="119.6278298">
    <ele>296.8</ele>
    <time>2026-03-22T03:52:51Z</time>
    <name><![CDATA[一直下坡
        ]]>
    </name>
    <cmt>一直下坡
        </cmt>
    <desc><![CDATA[]]>
    </desc>
    <sym>Flag, Blue</sym>
    <type>user</type>
    <extensions>
      <PosType>0</PosType>
      <Speed>0.46427944</Speed>
      <Accuracy>1.4</Accuracy>
      <Time>1774151571441</Time>
      <description><![CDATA[]]>
      </description>
      <FileId>1575587484</FileId>
      <FileSize>1464693</FileSize>
      <FileType>0</FileType>
    </extensions>
  </wpt>
  <wpt lat="29.1764787" lon="119.6272947">
    <ele>276.4</ele>
    <time>2026-03-22T03:57:19Z</time>
    <name><![CDATA[平路
        ]]>
    </name>
    <cmt>平路
        </cmt>
    <desc><![CDATA[]]>
    </desc>
    <sym>Flag, Blue</sym>
    <type>user</type>
    <extensions>
      <PosType>0</PosType>
      <Speed>0.8086286</Speed>
      <Accuracy>1.4</Accuracy>
      <Time>1774151839472</Time>
      <description><![CDATA[]]>
      </description>
      <FileId>1575587481</FileId>
      <FileSize>1025247</FileSize>
      <FileType>0</FileType>
    </extensions>
  </wpt>
  <wpt lat="29.1759379" lon="119.6266623">
    <ele>266.0</ele>
    <time>2026-03-22T03:58:57Z</time>
    <name><![CDATA[陡下坡
        ]]>
    </name>
    <cmt>陡下坡
        </cmt>
    <desc><![CDATA[]]>
    </desc>
    <sym>Flag, Blue</sym>
    <type>user</type>
    <extensions>
      <PosType>0</PosType>
      <Speed>0.88326335</Speed>
      <Accuracy>1.5</Accuracy>
      <Time>1774151937479</Time>
      <description><![CDATA[]]>
      </description>
      <FileId>1575587477</FileId>
      <FileSize>1387654</FileSize>
      <FileType>0</FileType>
    </extensions>
  </wpt>
  <wpt lat="29.1755439" lon="119.6263805">
    <ele>258.1</ele>
    <time>2026-03-22T04:01:07Z</time>
    <name><![CDATA[竹林
        ]]>
    </name>
    <cmt>竹林
        </cmt>
    <desc><![CDATA[]]>
    </desc>
    <sym>Flag, Blue</sym>
    <type>user</type>
    <extensions>
      <PosType>0</PosType>
      <Speed>0.37111473</Speed>
      <Accuracy>1.4</Accuracy>
      <Time>1774152067409</Time>
      <description><![CDATA[]]>
      </description>
      <FileId>1575587371</FileId>
      <FileSize>1016064</FileSize>
      <FileType>0</FileType>
    </extensions>
  </wpt>
  <wpt lat="29.1736925" lon="119.6253934">
    <ele>200.7</ele>
    <time>2026-03-22T04:10:33Z</time>
    <name><![CDATA[一直竹林
        ]]>
    </name>
    <cmt>一直竹林
        </cmt>
    <desc><![CDATA[]]>
    </desc>
    <sym>Flag, Blue</sym>
    <type>user</type>
    <extensions>
      <PosType>0</PosType>
      <Speed>0.7952458</Speed>
      <Accuracy>1.5</Accuracy>
      <Time>1774152633436</Time>
      <description><![CDATA[]]>
      </description>
      <FileId>1575587368</FileId>
      <FileSize>1115510</FileSize>
      <FileType>0</FileType>
    </extensions>
  </wpt>
  <wpt lat="29.1722" lon="119.6241963">
    <ele>172.5</ele>
    <time>2026-03-22T04:15:45Z</time>
    <name><![CDATA[坟墓
        ]]>
    </name>
    <cmt>坟墓
        </cmt>
    <desc><![CDATA[]]>
    </desc>
    <sym>Flag, Blue</sym>
    <type>user</type>
    <extensions>
      <PosType>0</PosType>
      <Speed>0.7108314</Speed>
      <Accuracy>1.4</Accuracy>
      <Time>1774152945470</Time>
      <description><![CDATA[]]>
      </description>
    </extensions>
  </wpt>
  <wpt lat="29.1715635" lon="119.623899">
    <ele>163.9</ele>
    <time>2026-03-22T04:17:37Z</time>
    <name><![CDATA[右转
        ]]>
    </name>
    <cmt>右转
        </cmt>
    <desc><![CDATA[]]>
    </desc>
    <sym>Flag, Blue</sym>
    <type>user</type>
    <extensions>
      <PosType>0</PosType>
      <Speed>0.7767158</Speed>
      <Accuracy>1.5</Accuracy>
      <Time>1774153057429</Time>
      <description><![CDATA[]]>
      </description>
    </extensions>
  </wpt>
  <wpt lat="29.171183" lon="119.6235565">
    <ele>151.3</ele>
    <time>2026-03-22T04:19:39Z</time>
    <name><![CDATA[水泥板路
        ]]>
    </name>
    <cmt>水泥板路
        </cmt>
    <desc><![CDATA[]]>
    </desc>
    <sym>Flag, Blue</sym>
    <type>user</type>
    <extensions>
      <PosType>0</PosType>
      <Speed>0.5044278</Speed>
      <Accuracy>1.4</Accuracy>
      <Time>1774153179438</Time>
      <description><![CDATA[]]>
      </description>
    </extensions>
  </wpt>
  <wpt lat="29.1710653" lon="119.6232606">
    <ele>138.6</ele>
    <time>2026-03-22T04:20:21Z</time>
    <name><![CDATA[很多坟墓
        ]]>
    </name>
    <cmt>很多坟墓
        </cmt>
    <desc><![CDATA[]]>
    </desc>
    <sym>Flag, Blue</sym>
    <type>user</type>
    <extensions>
      <PosType>0</PosType>
      <Speed>0.85546833</Speed>
      <Accuracy>1.5</Accuracy>
      <Time>1774153221473</Time>
      <description><![CDATA[]]>
      </description>
    </extensions>
  </wpt>
  <wpt lat="29.1708152" lon="119.6231539">
    <ele>125.2</ele>
    <time>2026-03-22T04:21:23Z</time>
    <name><![CDATA[回到公路
        ]]>
    </name>
    <cmt>回到公路
        </cmt>
    <desc><![CDATA[]]>
    </desc>
    <sym>Flag, Blue</sym>
    <type>user</type>
    <extensions>
      <PosType>0</PosType>
      <Speed>0.35104054</Speed>
      <Accuracy>1.5</Accuracy>
      <Time>1774153283452</Time>
      <description><![CDATA[]]>
      </description>
      <FileId>1575587365</FileId>
      <FileSize>1372558</FileSize>
      <FileType>0</FileType>
    </extensions>
  </wpt>
  <wpt lat="29.170204" lon="119.6234544">
    <ele>123.8</ele>
    <time>2026-03-22T04:23:43Z</time>
    <name><![CDATA[
        ]]>
    </name>
    <cmt>
        </cmt>
    <desc><![CDATA[]]>
    </desc>
    <sym>Flag, Blue</sym>
    <type>user</type>
    <extensions>
      <PosType>0</PosType>
      <Speed>0.72627306</Speed>
      <Accuracy>1.5</Accuracy>
      <Time>1774153423453</Time>
      <description><![CDATA[]]>
      </description>
      <FileId>1575587360</FileId>
      <FileSize>1151673</FileSize>
      <FileType>0</FileType>
    </extensions>
  </wpt>
</gpx>