<?xml version='1.0' encoding='UTF-8' standalone='yes' ?>
<gpx version="1.1" creator="GPSBabel - http://www.gpsbabel.org" xmlns:xsi="http://www.w3.org/2001/XMLSchema-instance" xmlns="http://www.topografix.com/GPX/1/1" xsi:schemaLocation="http://www.topografix.com/GPX/1/1 http://www.topografix.com/GPX/1/1/gpx.xsd">
  <metadata>
    <link href="http://www.garmin.com">
      <text>Garmin International</text>
    </link>
    <time>2026-06-20T03:15:05Z</time>
    <bounds minlat="28.8281954" minlon="119.3870796" maxlat="28.8327356" maxlon="119.3914533" />
  </metadata>
  <extensions>
    <name><![CDATA[塔石余仓瀑布260619]]>
    </name>
    <description><![CDATA[]]>
    </description>
    <TrackId>86081048</TrackId>
    <TrackTypeId>8</TrackTypeId>
    <TrackTags>徒步</TrackTags>
    <BeginTime>1781925305000</BeginTime>
    <EndTime>1781929845000</EndTime>
    <TimeUsed>4540000</TimeUsed>
    <PauseTime>183929</PauseTime>
    <PosStartName>塔石余仓</PosStartName>
    <PosEndName>塔石余仓</PosEndName>
    <ProductVersion>and_9.0.2</ProductVersion>
    <StartDistrictId>9654</StartDistrictId>
    <EndDistrictId>9654</EndDistrictId>
    <CreaterId>64771087</CreaterId>
    <CreaterName><![CDATA[步履赴山野]]>
    </CreaterName>
    <CreaterIcon>1523534626</CreaterIcon>
    <OriginCreaterId>64771087</OriginCreaterId>
    <OriginCreaterNickname><![CDATA[步履赴山野]]>
    </OriginCreaterNickname>
    <OriginCreaterName><![CDATA[null]]>
    </OriginCreaterName>
    <OriginCreaterIcon>1523534626</OriginCreaterIcon>
    <ThumbnailId>1631390155</ThumbnailId>
    <Distance>1765.0</Distance>
    <ElevationGain>123.59000000000003</ElevationGain>
    <ElevationLoss>127.84000000000003</ElevationLoss>
    <SportAvgSpeed>0.4051816418970214</SportAvgSpeed>
  </extensions>
  <trk>
    <trkseg>
      <trkpt lat="28.8281954" lon="119.3913376">
        <ele>478.5</ele>
        <time>2026-06-20T03:15:06Z</time>
        <speed>0.62693167</speed>
      </trkpt>
      <trkpt lat="28.8282438" lon="119.3913455">
        <ele>478.5</ele>
        <time>2026-06-20T03:15:40Z</time>
        <speed>0.8019372</speed>
      </trkpt>
      <trkpt lat="28.8283284" lon="119.3913797">
        <ele>476.91</ele>
        <time>2026-06-20T03:15:53Z</time>
        <speed>0.8920136</speed>
      </trkpt>
      <trkpt lat="28.8284353" lon="119.3913899">
        <ele>475.66</ele>
        <time>2026-06-20T03:16:03Z</time>
        <speed>1.250775</speed>
      </trkpt>
      <trkpt lat="28.8285389" lon="119.3914169">
        <ele>474.94</ele>
        <time>2026-06-20T03:16:13Z</time>
        <speed>1.2713639</speed>
      </trkpt>
      <trkpt lat="28.8286382" lon="119.3914228">
        <ele>475.4</ele>
        <time>2026-06-20T03:16:24Z</time>
        <speed>0.98003113</speed>
      </trkpt>
      <trkpt lat="28.8287217" lon="119.3913751">
        <ele>475.83</ele>
        <time>2026-06-20T03:16:34Z</time>
        <speed>1.0052525</speed>
      </trkpt>
      <trkpt lat="28.8287888" lon="119.391291">
        <ele>475.17</ele>
        <time>2026-06-20T03:16:44Z</time>
        <speed>1.2121708</speed>
      </trkpt>
      <trkpt lat="28.8288631" lon="119.3912008">
        <ele>474.28</ele>
        <time>2026-06-20T03:16:56Z</time>
        <speed>1.1087117</speed>
      </trkpt>
      <trkpt lat="28.8289324" lon="119.3911233">
        <ele>473.6</ele>
        <time>2026-06-20T03:17:04Z</time>
        <speed>1.1874641</speed>
      </trkpt>
      <trkpt lat="28.8290026" lon="119.3910816">
        <ele>473.86</ele>
        <time>2026-06-20T03:17:22Z</time>
        <speed>0.0</speed>
      </trkpt>
      <trkpt lat="28.8290724" lon="119.3910084">
        <ele>472.41</ele>
        <time>2026-06-20T03:17:56Z</time>
        <speed>1.0814314</speed>
      </trkpt>
      <trkpt lat="28.8291696" lon="119.3909371">
        <ele>472.06</ele>
        <time>2026-06-20T03:18:08Z</time>
        <speed>1.2847466</speed>
      </trkpt>
      <trkpt lat="28.8292432" lon="119.3908597">
        <ele>471.09</ele>
        <time>2026-06-20T03:18:16Z</time>
        <speed>1.5740205</speed>
      </trkpt>
      <trkpt lat="28.8293042" lon="119.3907781">
        <ele>469.72</ele>
        <time>2026-06-20T03:18:24Z</time>
        <speed>1.3058503</speed>
      </trkpt>
      <trkpt lat="28.8293599" lon="119.3906866">
        <ele>470.74</ele>
        <time>2026-06-20T03:18:36Z</time>
        <speed>0.99084026</speed>
      </trkpt>
      <trkpt lat="28.8294071" lon="119.3905945">
        <ele>473.78</ele>
        <time>2026-06-20T03:18:50Z</time>
        <speed>0.8626744</speed>
      </trkpt>
      <trkpt lat="28.829452" lon="119.3904992">
        <ele>475.38</ele>
        <time>2026-06-20T03:19:02Z</time>
        <speed>0.9445153</speed>
      </trkpt>
      <trkpt lat="28.829522" lon="119.3904183">
        <ele>476.12</ele>
        <time>2026-06-20T03:19:33Z</time>
        <speed>0.9028228</speed>
      </trkpt>
      <trkpt lat="28.8295466" lon="119.3903179">
        <ele>474.69</ele>
        <time>2026-06-20T03:20:17Z</time>
        <speed>0.8034814</speed>
      </trkpt>
      <trkpt lat="28.82959" lon="119.39023">
        <ele>473.36</ele>
        <time>2026-06-20T03:21:03Z</time>
        <speed>0.43957278</speed>
      </trkpt>
      <trkpt lat="28.8296383" lon="119.3901436">
        <ele>471.87</ele>
        <time>2026-06-20T03:21:11Z</time>
        <speed>0.8518653</speed>
      </trkpt>
      <trkpt lat="28.8296171" lon="119.3900437">
        <ele>471.67</ele>
        <time>2026-06-20T03:21:32Z</time>
        <speed>0.4864125</speed>
      </trkpt>
      <trkpt lat="28.8296191" lon="119.3899312">
        <ele>472.37</ele>
        <time>2026-06-20T03:21:43Z</time>
        <speed>0.88944</speed>
      </trkpt>
      <trkpt lat="28.8296832" lon="119.3898484">
        <ele>473.37</ele>
        <time>2026-06-20T03:21:48Z</time>
        <speed>1.14886</speed>
      </trkpt>
      <trkpt lat="28.8297658" lon="119.3897838">
        <ele>474.24</ele>
        <time>2026-06-20T03:21:59Z</time>
        <speed>0.9481183</speed>
      </trkpt>
      <trkpt lat="28.8297644" lon="119.38985">
        <ele>474.96</ele>
        <time>2026-06-20T03:22:53Z</time>
        <speed>0.75458276</speed>
      </trkpt>
      <trkpt lat="28.8298367" lon="119.3898183">
        <ele>472.35</ele>
        <time>2026-06-20T03:26:32Z</time>
        <speed>0.0</speed>
      </trkpt>
      <trkpt lat="28.8299017" lon="119.3897467">
        <ele>471.47</ele>
        <time>2026-06-20T03:26:48Z</time>
        <speed>0.0</speed>
      </trkpt>
      <trkpt lat="28.8299709" lon="119.3896637">
        <ele>471.35</ele>
        <time>2026-06-20T03:27:03Z</time>
        <speed>0.7741422</speed>
      </trkpt>
      <trkpt lat="28.830046" lon="119.3895788">
        <ele>471.85</ele>
        <time>2026-06-20T03:27:13Z</time>
        <speed>0.0</speed>
      </trkpt>
      <trkpt lat="28.8301293" lon="119.3895032">
        <ele>472.94</ele>
        <time>2026-06-20T03:27:21Z</time>
        <speed>0.9192939</speed>
      </trkpt>
      <trkpt lat="28.8301552" lon="119.3893724">
        <ele>473.05</ele>
        <time>2026-06-20T03:27:28Z</time>
        <speed>1.2080531</speed>
      </trkpt>
      <trkpt lat="28.8301457" lon="119.3892573">
        <ele>472.9</ele>
        <time>2026-06-20T03:27:38Z</time>
        <speed>0.90745527</speed>
      </trkpt>
      <trkpt lat="28.8301561" lon="119.3891459">
        <ele>472.26</ele>
        <time>2026-06-20T03:27:52Z</time>
        <speed>0.56001776</speed>
      </trkpt>
      <trkpt lat="28.830185" lon="119.3892433">
        <ele>470.04</ele>
        <time>2026-06-20T03:28:56Z</time>
        <speed>0.5697975</speed>
      </trkpt>
      <trkpt lat="28.8301217" lon="119.3891567">
        <ele>466.88</ele>
        <time>2026-06-20T03:30:18Z</time>
        <speed>0.47045612</speed>
      </trkpt>
      <trkpt lat="28.830175" lon="119.3890717">
        <ele>464.74</ele>
        <time>2026-06-20T03:32:06Z</time>
        <speed>0.74892086</speed>
      </trkpt>
      <trkpt lat="28.8302533" lon="119.3890183">
        <ele>465.11</ele>
        <time>2026-06-20T03:33:02Z</time>
        <speed>0.0880175</speed>
      </trkpt>
      <trkpt lat="28.8302867" lon="119.38892">
        <ele>463.9</ele>
        <time>2026-06-20T03:35:12Z</time>
        <speed>0.6222992</speed>
      </trkpt>
      <trkpt lat="28.8303833" lon="119.3889683">
        <ele>462.83</ele>
        <time>2026-06-20T03:35:25Z</time>
        <speed>0.639285</speed>
      </trkpt>
      <trkpt lat="28.8303017" lon="119.3890167">
        <ele>460.96</ele>
        <time>2026-06-20T03:36:52Z</time>
        <speed>0.64597636</speed>
      </trkpt>
      <trkpt lat="28.8303483" lon="119.3889133">
        <ele>457.75</ele>
        <time>2026-06-20T03:37:16Z</time>
        <speed>0.8235555</speed>
      </trkpt>
      <trkpt lat="28.8303513" lon="119.3887959">
        <ele>455.62</ele>
        <time>2026-06-20T03:37:24Z</time>
        <speed>1.3027619</speed>
      </trkpt>
      <trkpt lat="28.8303233" lon="119.388694">
        <ele>454.8</ele>
        <time>2026-06-20T03:37:33Z</time>
        <speed>0.9553245</speed>
      </trkpt>
      <trkpt lat="28.8303796" lon="119.3886696">
        <ele>455.27</ele>
        <time>2026-06-20T03:37:54Z</time>
        <speed>0.0</speed>
      </trkpt>
      <trkpt lat="28.8304033" lon="119.3885883">
        <ele>453.73</ele>
        <time>2026-06-20T03:40:28Z</time>
        <speed>0.0</speed>
      </trkpt>
      <trkpt lat="28.8304833" lon="119.3885417">
        <ele>449.12</ele>
        <time>2026-06-20T03:40:42Z</time>
        <speed>0.5111192</speed>
      </trkpt>
      <trkpt lat="28.8303883" lon="119.388495">
        <ele>446.27</ele>
        <time>2026-06-20T03:43:52Z</time>
        <speed>0.68509525</speed>
      </trkpt>
      <trkpt lat="28.83042" lon="119.3883867">
        <ele>447.27</ele>
        <time>2026-06-20T03:44:58Z</time>
        <speed>0.3515553</speed>
      </trkpt>
      <trkpt lat="28.83043" lon="119.3882633">
        <ele>447.76</ele>
        <time>2026-06-20T03:46:58Z</time>
        <speed>1.7294667</speed>
      </trkpt>
      <trkpt lat="28.8304933" lon="119.38817">
        <ele>444.64</ele>
        <time>2026-06-20T03:47:10Z</time>
        <speed>1.411883</speed>
      </trkpt>
      <trkpt lat="28.8305792" lon="119.3881105">
        <ele>441.22</ele>
        <time>2026-06-20T03:47:18Z</time>
        <speed>1.5678439</speed>
      </trkpt>
      <trkpt lat="28.8306691" lon="119.3880557">
        <ele>437.26</ele>
        <time>2026-06-20T03:47:26Z</time>
        <speed>1.5436519</speed>
      </trkpt>
      <trkpt lat="28.8306362" lon="119.3880013">
        <ele>433.19</ele>
        <time>2026-06-20T03:47:36Z</time>
        <speed>1.2883497</speed>
      </trkpt>
      <trkpt lat="28.8306775" lon="119.387949">
        <ele>430.27</ele>
        <time>2026-06-20T03:47:46Z</time>
        <speed>1.1241534</speed>
      </trkpt>
      <trkpt lat="28.8307594" lon="119.3879094">
        <ele>428.13</ele>
        <time>2026-06-20T03:47:56Z</time>
        <speed>1.0263561</speed>
      </trkpt>
      <trkpt lat="28.8308529" lon="119.3879115">
        <ele>428.33</ele>
        <time>2026-06-20T03:48:06Z</time>
        <speed>0.0</speed>
      </trkpt>
      <trkpt lat="28.8309405" lon="119.3878541">
        <ele>430.64</ele>
        <time>2026-06-20T03:48:18Z</time>
        <speed>0.60171026</speed>
      </trkpt>
      <trkpt lat="28.8310378" lon="119.3878486">
        <ele>434.19</ele>
        <time>2026-06-20T03:48:28Z</time>
        <speed>0.5862686</speed>
      </trkpt>
      <trkpt lat="28.8311353" lon="119.3878262">
        <ele>438.76</ele>
        <time>2026-06-20T03:48:42Z</time>
        <speed>0.5862686</speed>
      </trkpt>
      <trkpt lat="28.831237" lon="119.3878634">
        <ele>442.78</ele>
        <time>2026-06-20T03:48:50Z</time>
        <speed>0.95069194</speed>
      </trkpt>
      <trkpt lat="28.8313335" lon="119.3878922">
        <ele>444.42</ele>
        <time>2026-06-20T03:49:46Z</time>
        <speed>0.64340276</speed>
      </trkpt>
      <trkpt lat="28.8314225" lon="119.387872">
        <ele>442.17</ele>
        <time>2026-06-20T03:50:08Z</time>
        <speed>1.0129733</speed>
      </trkpt>
      <trkpt lat="28.8315039" lon="119.3878478">
        <ele>437.71</ele>
        <time>2026-06-20T03:50:27Z</time>
        <speed>0.0</speed>
      </trkpt>
      <trkpt lat="28.8315904" lon="119.3878803">
        <ele>431.47</ele>
        <time>2026-06-20T03:50:43Z</time>
        <speed>0.90076387</speed>
      </trkpt>
      <trkpt lat="28.8315466" lon="119.3878573">
        <ele>426.49</ele>
        <time>2026-06-20T03:51:12Z</time>
        <speed>0.63259363</speed>
      </trkpt>
      <trkpt lat="28.831528" lon="119.3877652">
        <ele>424.35</ele>
        <time>2026-06-20T03:51:20Z</time>
        <speed>1.3146006</speed>
      </trkpt>
      <trkpt lat="28.8315019" lon="119.387642">
        <ele>423.38</ele>
        <time>2026-06-20T03:51:30Z</time>
        <speed>1.139595</speed>
      </trkpt>
      <trkpt lat="28.831468" lon="119.3875261">
        <ele>422.92</ele>
        <time>2026-06-20T03:51:40Z</time>
        <speed>1.0263561</speed>
      </trkpt>
      <trkpt lat="28.8314881" lon="119.3874232">
        <ele>422.44</ele>
        <time>2026-06-20T03:51:55Z</time>
        <speed>0.7916428</speed>
      </trkpt>
      <trkpt lat="28.8315154" lon="119.387322">
        <ele>420.96</ele>
        <time>2026-06-20T03:52:10Z</time>
        <speed>0.8240703</speed>
      </trkpt>
      <trkpt lat="28.8315681" lon="119.3872353">
        <ele>419.0</ele>
        <time>2026-06-20T03:52:26Z</time>
        <speed>0.74017054</speed>
      </trkpt>
      <trkpt lat="28.8315923" lon="119.3873043">
        <ele>416.16</ele>
        <time>2026-06-20T03:53:10Z</time>
        <speed>0.46016166</speed>
      </trkpt>
      <trkpt lat="28.8315975" lon="119.3874244">
        <ele>410.28</ele>
        <time>2026-06-20T03:53:20Z</time>
        <speed>0.8127464</speed>
      </trkpt>
      <trkpt lat="28.8316613" lon="119.3874466">
        <ele>406.33</ele>
        <time>2026-06-20T03:53:30Z</time>
        <speed>0.6372261</speed>
      </trkpt>
      <trkpt lat="28.8316437" lon="119.3873715">
        <ele>403.18</ele>
        <time>2026-06-20T03:53:44Z</time>
        <speed>1.1735667</speed>
      </trkpt>
      <trkpt lat="28.8317079" lon="119.3873826">
        <ele>399.14</ele>
        <time>2026-06-20T03:54:08Z</time>
        <speed>0.95995694</speed>
      </trkpt>
      <trkpt lat="28.831785" lon="119.3873409">
        <ele>393.06</ele>
        <time>2026-06-20T03:54:45Z</time>
        <speed>0.9702514</speed>
      </trkpt>
      <trkpt lat="28.831785" lon="119.3873409">
        <ele>393.06</ele>
        <time>2026-06-20T04:01:59Z</time>
        <speed>0.9702514</speed>
      </trkpt>
      <extensions>
        <PauseTimes>1781928119000:pause</PauseTimes>
      </extensions>
    </trkseg>
  </trk>
  <trk>
    <trkseg>
      <trkpt lat="28.831895" lon="119.3873183">
        <ele>388.22</ele>
        <time>2026-06-20T04:04:59Z</time>
        <speed>0.7792894</speed>
      </trkpt>
      <trkpt lat="28.831895" lon="119.3873183">
        <ele>388.22</ele>
        <time>2026-06-20T04:05:27Z</time>
        <speed>0.7792894</speed>
      </trkpt>
      <trkpt lat="28.8319883" lon="119.3872867">
        <ele>380.38</ele>
        <time>2026-06-20T04:05:45Z</time>
        <speed>0.5378847</speed>
      </trkpt>
      <trkpt lat="28.8320831" lon="119.3872437">
        <ele>375.18</ele>
        <time>2026-06-20T04:05:56Z</time>
        <speed>1.2209212</speed>
      </trkpt>
      <trkpt lat="28.8320275" lon="119.3872168">
        <ele>370.63</ele>
        <time>2026-06-20T04:06:08Z</time>
        <speed>0.8611303</speed>
      </trkpt>
      <trkpt lat="28.8319364" lon="119.387245">
        <ele>366.06</ele>
        <time>2026-06-20T04:06:18Z</time>
        <speed>0.0</speed>
      </trkpt>
      <trkpt lat="28.8318943" lon="119.3871776">
        <ele>361.86</ele>
        <time>2026-06-20T04:06:34Z</time>
        <speed>0.81223166</speed>
      </trkpt>
      <trkpt lat="28.8318222" lon="119.3870984">
        <ele>357.66</ele>
        <time>2026-06-20T04:06:42Z</time>
        <speed>1.1097411</speed>
      </trkpt>
      <trkpt lat="28.8317987" lon="119.3870796">
        <ele>354.41</ele>
        <time>2026-06-20T04:07:23Z</time>
        <speed>0.0</speed>
      </trkpt>
      <trkpt lat="28.8318677" lon="119.3871168">
        <ele>351.39</ele>
        <time>2026-06-20T04:08:08Z</time>
        <speed>1.1823169</speed>
      </trkpt>
      <trkpt lat="28.8319162" lon="119.3872049">
        <ele>349.12</ele>
        <time>2026-06-20T04:08:27Z</time>
        <speed>0.0</speed>
      </trkpt>
      <trkpt lat="28.8319976" lon="119.3872587">
        <ele>349.02</ele>
        <time>2026-06-20T04:08:41Z</time>
        <speed>0.7834072</speed>
      </trkpt>
      <trkpt lat="28.8319915" lon="119.3873451">
        <ele>351.16</ele>
        <time>2026-06-20T04:09:11Z</time>
        <speed>0.65935916</speed>
      </trkpt>
      <trkpt lat="28.8319153" lon="119.3873662">
        <ele>356.21</ele>
        <time>2026-06-20T04:09:26Z</time>
        <speed>0.81223166</speed>
      </trkpt>
      <trkpt lat="28.8318817" lon="119.38746">
        <ele>360.81</ele>
        <time>2026-06-20T04:10:40Z</time>
        <speed>0.81634945</speed>
      </trkpt>
      <trkpt lat="28.8319883" lon="119.3874567">
        <ele>365.58</ele>
        <time>2026-06-20T04:11:06Z</time>
        <speed>1.154522</speed>
      </trkpt>
      <trkpt lat="28.8320837" lon="119.3874406">
        <ele>368.73</ele>
        <time>2026-06-20T04:11:16Z</time>
        <speed>1.1107706</speed>
      </trkpt>
      <trkpt lat="28.8321668" lon="119.3874725">
        <ele>371.25</ele>
        <time>2026-06-20T04:11:45Z</time>
        <speed>0.16882889</speed>
      </trkpt>
      <trkpt lat="28.8322535" lon="119.3875294">
        <ele>375.79</ele>
        <time>2026-06-20T04:12:04Z</time>
        <speed>0.6748008</speed>
      </trkpt>
      <trkpt lat="28.8323458" lon="119.3875627">
        <ele>379.37</ele>
        <time>2026-06-20T04:12:20Z</time>
        <speed>0.73605275</speed>
      </trkpt>
      <trkpt lat="28.8324367" lon="119.3875962">
        <ele>382.91</ele>
        <time>2026-06-20T04:12:32Z</time>
        <speed>0.64340276</speed>
      </trkpt>
      <trkpt lat="28.8325382" lon="119.3876047">
        <ele>386.22</ele>
        <time>2026-06-20T04:13:26Z</time>
        <speed>0.59296</speed>
      </trkpt>
      <trkpt lat="28.8326298" lon="119.3876378">
        <ele>389.22</ele>
        <time>2026-06-20T04:13:55Z</time>
        <speed>0.86473334</speed>
      </trkpt>
      <trkpt lat="28.8327221" lon="119.3876937">
        <ele>389.99</ele>
        <time>2026-06-20T04:14:32Z</time>
        <speed>1.2837173</speed>
      </trkpt>
      <trkpt lat="28.8327337" lon="119.3877924">
        <ele>392.23</ele>
        <time>2026-06-20T04:14:56Z</time>
        <speed>0.61251944</speed>
      </trkpt>
      <trkpt lat="28.8327017" lon="119.3879267">
        <ele>396.48</ele>
        <time>2026-06-20T04:16:00Z</time>
        <speed>0.5785478</speed>
      </trkpt>
      <trkpt lat="28.832705" lon="119.3880317">
        <ele>400.44</ele>
        <time>2026-06-20T04:16:16Z</time>
        <speed>0.70259583</speed>
      </trkpt>
      <trkpt lat="28.8327323" lon="119.3881395">
        <ele>403.95</ele>
        <time>2026-06-20T04:16:29Z</time>
        <speed>0.9187792</speed>
      </trkpt>
      <trkpt lat="28.8327356" lon="119.3882439">
        <ele>406.81</ele>
        <time>2026-06-20T04:17:22Z</time>
        <speed>0.78803974</speed>
      </trkpt>
      <trkpt lat="28.8326913" lon="119.3883311">
        <ele>411.67</ele>
        <time>2026-06-20T04:17:45Z</time>
        <speed>0.0</speed>
      </trkpt>
      <trkpt lat="28.8325978" lon="119.3883395">
        <ele>416.37</ele>
        <time>2026-06-20T04:18:31Z</time>
        <speed>0.3103775</speed>
      </trkpt>
      <trkpt lat="28.8325077" lon="119.3882886">
        <ele>420.51</ele>
        <time>2026-06-20T04:19:15Z</time>
        <speed>1.3598961</speed>
      </trkpt>
      <trkpt lat="28.8324157" lon="119.3882422">
        <ele>423.09</ele>
        <time>2026-06-20T04:19:25Z</time>
        <speed>0.94657415</speed>
      </trkpt>
      <trkpt lat="28.8323214" lon="119.3881795">
        <ele>424.64</ele>
        <time>2026-06-20T04:19:42Z</time>
        <speed>0.6830364</speed>
      </trkpt>
      <trkpt lat="28.8322161" lon="119.3881513">
        <ele>425.4</ele>
        <time>2026-06-20T04:19:54Z</time>
        <speed>0.98209</speed>
      </trkpt>
      <trkpt lat="28.8321114" lon="119.3881193">
        <ele>425.74</ele>
        <time>2026-06-20T04:20:04Z</time>
        <speed>1.3511459</speed>
      </trkpt>
      <trkpt lat="28.8320104" lon="119.3881078">
        <ele>427.02</ele>
        <time>2026-06-20T04:20:16Z</time>
        <speed>0.9265</speed>
      </trkpt>
      <trkpt lat="28.831925" lon="119.3881513">
        <ele>429.29</ele>
        <time>2026-06-20T04:20:30Z</time>
        <speed>0.5028836</speed>
      </trkpt>
      <trkpt lat="28.8318292" lon="119.3882125">
        <ele>432.0</ele>
        <time>2026-06-20T04:20:40Z</time>
        <speed>1.078343</speed>
      </trkpt>
      <trkpt lat="28.8317675" lon="119.3882852">
        <ele>434.2</ele>
        <time>2026-06-20T04:20:58Z</time>
        <speed>0.0</speed>
      </trkpt>
      <trkpt lat="28.8316908" lon="119.388353">
        <ele>436.18</ele>
        <time>2026-06-20T04:21:26Z</time>
        <speed>0.92495584</speed>
      </trkpt>
      <trkpt lat="28.8317272" lon="119.3883267">
        <ele>436.27</ele>
        <time>2026-06-20T04:21:45Z</time>
        <speed>0.40611583</speed>
      </trkpt>
      <trkpt lat="28.8316882" lon="119.3883464">
        <ele>436.16</ele>
        <time>2026-06-20T04:21:56Z</time>
        <speed>1.4623258</speed>
      </trkpt>
      <trkpt lat="28.8316142" lon="119.3883928">
        <ele>434.76</ele>
        <time>2026-06-20T04:22:12Z</time>
        <speed>0.61663723</speed>
      </trkpt>
      <trkpt lat="28.8315156" lon="119.3884062">
        <ele>434.39</ele>
        <time>2026-06-20T04:22:26Z</time>
        <speed>0.69281614</speed>
      </trkpt>
      <trkpt lat="28.831408" lon="119.3884023">
        <ele>436.33</ele>
        <time>2026-06-20T04:22:36Z</time>
        <speed>0.87966025</speed>
      </trkpt>
      <trkpt lat="28.8313096" lon="119.3884045">
        <ele>439.2</ele>
        <time>2026-06-20T04:22:46Z</time>
        <speed>0.8292175</speed>
      </trkpt>
      <trkpt lat="28.831204" lon="119.3884065">
        <ele>442.9</ele>
        <time>2026-06-20T04:22:56Z</time>
        <speed>1.0829755</speed>
      </trkpt>
      <trkpt lat="28.8310974" lon="119.3884178">
        <ele>446.6</ele>
        <time>2026-06-20T04:23:08Z</time>
        <speed>0.68252164</speed>
      </trkpt>
      <trkpt lat="28.8310012" lon="119.3884126">
        <ele>449.78</ele>
        <time>2026-06-20T04:23:20Z</time>
        <speed>0.72627306</speed>
      </trkpt>
      <trkpt lat="28.8309204" lon="119.3884524">
        <ele>452.24</ele>
        <time>2026-06-20T04:23:44Z</time>
        <speed>0.515237</speed>
      </trkpt>
      <trkpt lat="28.8308612" lon="119.3885293">
        <ele>455.06</ele>
        <time>2026-06-20T04:23:56Z</time>
        <speed>1.030474</speed>
      </trkpt>
      <trkpt lat="28.8308402" lon="119.3886403">
        <ele>457.49</ele>
        <time>2026-06-20T04:24:06Z</time>
        <speed>0.90076387</speed>
      </trkpt>
      <trkpt lat="28.83077" lon="119.3887218">
        <ele>459.94</ele>
        <time>2026-06-20T04:24:16Z</time>
        <speed>1.096873</speed>
      </trkpt>
      <trkpt lat="28.8306888" lon="119.3887889">
        <ele>461.73</ele>
        <time>2026-06-20T04:24:26Z</time>
        <speed>1.1123147</speed>
      </trkpt>
      <trkpt lat="28.8306135" lon="119.3888606">
        <ele>463.22</ele>
        <time>2026-06-20T04:24:34Z</time>
        <speed>1.3537195</speed>
      </trkpt>
      <trkpt lat="28.8305603" lon="119.3889508">
        <ele>464.46</ele>
        <time>2026-06-20T04:24:44Z</time>
        <speed>0.9481183</speed>
      </trkpt>
      <trkpt lat="28.8305243" lon="119.3890542">
        <ele>465.47</ele>
        <time>2026-06-20T04:25:00Z</time>
        <speed>0.5260461</speed>
      </trkpt>
      <trkpt lat="28.830496" lon="119.3891602">
        <ele>466.3</ele>
        <time>2026-06-20T04:25:12Z</time>
        <speed>0.6897278</speed>
      </trkpt>
      <trkpt lat="28.8304565" lon="119.3892684">
        <ele>466.94</ele>
        <time>2026-06-20T04:25:22Z</time>
        <speed>1.1406244</speed>
      </trkpt>
      <trkpt lat="28.8303966" lon="119.3893503">
        <ele>468.34</ele>
        <time>2026-06-20T04:25:30Z</time>
        <speed>1.2497456</speed>
      </trkpt>
      <trkpt lat="28.8303381" lon="119.3894458">
        <ele>469.27</ele>
        <time>2026-06-20T04:25:41Z</time>
        <speed>1.0767989</speed>
      </trkpt>
      <trkpt lat="28.8302974" lon="119.3895563">
        <ele>469.71</ele>
        <time>2026-06-20T04:25:56Z</time>
        <speed>0.74892086</speed>
      </trkpt>
      <trkpt lat="28.8302412" lon="119.389652">
        <ele>469.41</ele>
        <time>2026-06-20T04:26:06Z</time>
        <speed>0.917235</speed>
      </trkpt>
      <trkpt lat="28.8301586" lon="119.3897277">
        <ele>469.96</ele>
        <time>2026-06-20T04:26:16Z</time>
        <speed>1.1462864</speed>
      </trkpt>
      <trkpt lat="28.8300906" lon="119.3898164">
        <ele>470.67</ele>
        <time>2026-06-20T04:26:25Z</time>
        <speed>1.0912111</speed>
      </trkpt>
      <trkpt lat="28.8300209" lon="119.3898999">
        <ele>470.17</ele>
        <time>2026-06-20T04:26:36Z</time>
        <speed>1.0531217</speed>
      </trkpt>
      <trkpt lat="28.8299669" lon="119.3899953">
        <ele>469.53</ele>
        <time>2026-06-20T04:26:48Z</time>
        <speed>0.676345</speed>
      </trkpt>
      <trkpt lat="28.8298913" lon="119.3900714">
        <ele>468.79</ele>
        <time>2026-06-20T04:26:58Z</time>
        <speed>1.2270977</speed>
      </trkpt>
      <trkpt lat="28.8298083" lon="119.3901212">
        <ele>467.68</ele>
        <time>2026-06-20T04:27:12Z</time>
        <speed>0.64855</speed>
      </trkpt>
      <trkpt lat="28.8297233" lon="119.3901647">
        <ele>467.34</ele>
        <time>2026-06-20T04:27:22Z</time>
        <speed>0.0</speed>
      </trkpt>
      <trkpt lat="28.8296609" lon="119.3902391">
        <ele>467.15</ele>
        <time>2026-06-20T04:27:32Z</time>
        <speed>1.0629014</speed>
      </trkpt>
      <trkpt lat="28.8296261" lon="119.3903197">
        <ele>467.26</ele>
        <time>2026-06-20T04:27:48Z</time>
        <speed>0.0</speed>
      </trkpt>
      <trkpt lat="28.829583" lon="119.3904068">
        <ele>467.75</ele>
        <time>2026-06-20T04:28:10Z</time>
        <speed>0.83951193</speed>
      </trkpt>
      <trkpt lat="28.8295222" lon="119.3904815">
        <ele>465.96</ele>
        <time>2026-06-20T04:28:20Z</time>
        <speed>1.0093703</speed>
      </trkpt>
      <trkpt lat="28.8294519" lon="119.3905647">
        <ele>465.51</ele>
        <time>2026-06-20T04:28:30Z</time>
        <speed>1.1884936</speed>
      </trkpt>
      <trkpt lat="28.8293787" lon="119.3906587">
        <ele>465.89</ele>
        <time>2026-06-20T04:28:40Z</time>
        <speed>1.1045939</speed>
      </trkpt>
      <trkpt lat="28.8293104" lon="119.3907488">
        <ele>466.45</ele>
        <time>2026-06-20T04:28:50Z</time>
        <speed>0.9959875</speed>
      </trkpt>
      <trkpt lat="28.8292369" lon="119.3908368">
        <ele>467.33</ele>
        <time>2026-06-20T04:29:00Z</time>
        <speed>1.1998175</speed>
      </trkpt>
      <trkpt lat="28.8291629" lon="119.39092">
        <ele>468.09</ele>
        <time>2026-06-20T04:29:08Z</time>
        <speed>1.3686464</speed>
      </trkpt>
      <trkpt lat="28.8290939" lon="119.3909927">
        <ele>469.17</ele>
        <time>2026-06-20T04:29:16Z</time>
        <speed>1.2373922</speed>
      </trkpt>
      <trkpt lat="28.8290233" lon="119.3910668">
        <ele>469.7</ele>
        <time>2026-06-20T04:29:24Z</time>
        <speed>1.3624697</speed>
      </trkpt>
      <trkpt lat="28.8289519" lon="119.391136">
        <ele>470.0</ele>
        <time>2026-06-20T04:29:32Z</time>
        <speed>1.3707052</speed>
      </trkpt>
      <trkpt lat="28.8288802" lon="119.3912061">
        <ele>470.43</ele>
        <time>2026-06-20T04:29:40Z</time>
        <speed>1.3171742</speed>
      </trkpt>
      <trkpt lat="28.8288047" lon="119.391282">
        <ele>471.06</ele>
        <time>2026-06-20T04:29:50Z</time>
        <speed>1.1864347</speed>
      </trkpt>
      <trkpt lat="28.8287266" lon="119.3913665">
        <ele>471.85</ele>
        <time>2026-06-20T04:30:00Z</time>
        <speed>1.1787139</speed>
      </trkpt>
      <trkpt lat="28.8286465" lon="119.3914313">
        <ele>472.56</ele>
        <time>2026-06-20T04:30:07Z</time>
        <speed>1.2569517</speed>
      </trkpt>
      <trkpt lat="28.8285522" lon="119.3914533">
        <ele>473.09</ele>
        <time>2026-06-20T04:30:16Z</time>
        <speed>1.515857</speed>
      </trkpt>
      <trkpt lat="28.8284579" lon="119.3914304">
        <ele>472.84</ele>
        <time>2026-06-20T04:30:24Z</time>
        <speed>1.6965245</speed>
      </trkpt>
      <trkpt lat="28.8283596" lon="119.3914138">
        <ele>472.26</ele>
        <time>2026-06-20T04:30:34Z</time>
        <speed>1.2373922</speed>
      </trkpt>
      <trkpt lat="28.8283596" lon="119.3914138">
        <ele>472.26</ele>
        <time>2026-06-20T04:30:43Z</time>
        <speed>1.2373922</speed>
      </trkpt>
      <extensions>
        <PauseTimes>1781929843000:pause</PauseTimes>
      </extensions>
    </trkseg>
  </trk>
  <wpt lat="28.8281954" lon="119.3913376">
    <ele>478.5</ele>
    <time>2026-06-20T03:15:06Z</time>
    <name><![CDATA[停车场
        ]]>
    </name>
    <cmt>停车场
        </cmt>
    <desc><![CDATA[]]>
    </desc>
    <sym>Flag, Blue</sym>
    <type>user</type>
    <extensions>
      <PosType>0</PosType>
      <Speed>0.62693167</Speed>
      <Accuracy>1.5</Accuracy>
      <Time>1781925306931</Time>
      <description><![CDATA[]]>
      </description>
      <FileId>1631390151</FileId>
      <FileSize>1522728</FileSize>
      <FileType>0</FileType>
    </extensions>
  </wpt>
  <wpt lat="28.8293042" lon="119.3907781">
    <ele>472.1</ele>
    <time>2026-06-20T03:18:24Z</time>
    <name><![CDATA[这里也可以停车，有厕所
        ]]>
    </name>
    <cmt>这里也可以停车，有厕所
        </cmt>
    <desc><![CDATA[]]>
    </desc>
    <sym>Flag, Blue</sym>
    <type>user</type>
    <extensions>
      <PosType>0</PosType>
      <Speed>1.3058503</Speed>
      <Accuracy>1.3</Accuracy>
      <Time>1781925504992</Time>
      <description><![CDATA[]]>
      </description>
      <FileId>1631390148</FileId>
      <FileSize>1020731</FileSize>
      <FileType>0</FileType>
    </extensions>
  </wpt>
  <wpt lat="28.8295466" lon="119.3903179">
    <ele>471.6</ele>
    <time>2026-06-20T03:20:17Z</time>
    <name><![CDATA[农家乐
        ]]>
    </name>
    <cmt>农家乐
        </cmt>
    <desc><![CDATA[]]>
    </desc>
    <sym>Flag, Blue</sym>
    <type>user</type>
    <extensions>
      <PosType>0</PosType>
      <Speed>0.8034814</Speed>
      <Accuracy>1.4</Accuracy>
      <Time>1781925617018</Time>
      <description><![CDATA[]]>
      </description>
      <FileId>1631390143</FileId>
      <FileSize>1053539</FileSize>
      <FileType>0</FileType>
    </extensions>
  </wpt>
  <wpt lat="28.8297658" lon="119.3897838">
    <ele>475.9</ele>
    <time>2026-06-20T03:21:59Z</time>
    <name><![CDATA[往下走
        ]]>
    </name>
    <cmt>往下走
        </cmt>
    <desc><![CDATA[]]>
    </desc>
    <sym>Flag, Blue</sym>
    <type>user</type>
    <extensions>
      <PosType>0</PosType>
      <Speed>0.9481183</Speed>
      <Accuracy>1.5</Accuracy>
      <Time>1781925719025</Time>
      <description><![CDATA[]]>
      </description>
      <FileId>1631390139</FileId>
      <FileSize>2296177</FileSize>
      <FileType>0</FileType>
    </extensions>
  </wpt>
  <wpt lat="28.8297644" lon="119.38985">
    <ele>468.9</ele>
    <time>2026-06-20T03:22:53Z</time>
    <name><![CDATA[
        ]]>
    </name>
    <cmt>
        </cmt>
    <desc><![CDATA[]]>
    </desc>
    <sym>Flag, Blue</sym>
    <type>user</type>
    <extensions>
      <PosType>0</PosType>
      <Speed>0.75458276</Speed>
      <Accuracy>1.5</Accuracy>
      <Time>1781925773008</Time>
      <description><![CDATA[]]>
      </description>
      <FileId>1631390136</FileId>
      <FileSize>1215495</FileSize>
      <FileType>0</FileType>
    </extensions>
  </wpt>
  <wpt lat="28.8298033" lon="119.3898317">
    <ele>470.2</ele>
    <time>2026-06-20T03:26:30Z</time>
    <name><![CDATA[栈道
        ]]>
    </name>
    <cmt>栈道
        </cmt>
    <desc><![CDATA[]]>
    </desc>
    <sym>Flag, Blue</sym>
    <type>user</type>
    <extensions>
      <PosType>0</PosType>
      <Speed>0.46582362</Speed>
      <Accuracy>1.6</Accuracy>
      <Time>1781925990959</Time>
      <description><![CDATA[]]>
      </description>
      <FileId>1631390133</FileId>
      <FileSize>1019677</FileSize>
      <FileType>0</FileType>
    </extensions>
  </wpt>
  <wpt lat="28.830185" lon="119.3892433">
    <ele>462.7</ele>
    <time>2026-06-20T03:28:56Z</time>
    <name><![CDATA[
        ]]>
    </name>
    <cmt>
        </cmt>
    <desc><![CDATA[]]>
    </desc>
    <sym>Flag, Blue</sym>
    <type>user</type>
    <extensions>
      <PosType>0</PosType>
      <Speed>0.5697975</Speed>
      <Accuracy>1.6</Accuracy>
      <Time>1781926136949</Time>
      <description><![CDATA[]]>
      </description>
      <FileId>1631390131</FileId>
      <FileSize>1399942</FileSize>
      <FileType>0</FileType>
    </extensions>
  </wpt>
  <wpt lat="28.8303017" lon="119.3890167">
    <ele>453.5</ele>
    <time>2026-06-20T03:36:52Z</time>
    <name><![CDATA[瀑布
        ]]>
    </name>
    <cmt>瀑布
        </cmt>
    <desc><![CDATA[]]>
    </desc>
    <sym>Flag, Blue</sym>
    <type>user</type>
    <extensions>
      <PosType>0</PosType>
      <Speed>0.64597636</Speed>
      <Accuracy>1.8</Accuracy>
      <Time>1781926612953</Time>
      <description><![CDATA[]]>
      </description>
      <FileId>1631390127</FileId>
      <FileSize>1043715</FileSize>
      <FileType>0</FileType>
    </extensions>
  </wpt>
  <wpt lat="28.8303233" lon="119.388694">
    <ele>455.9</ele>
    <time>2026-06-20T03:37:33Z</time>
    <name><![CDATA[瀑布2
        ]]>
    </name>
    <cmt>瀑布2
        </cmt>
    <desc><![CDATA[]]>
    </desc>
    <sym>Flag, Blue</sym>
    <type>user</type>
    <extensions>
      <PosType>0</PosType>
      <Speed>0.9553245</Speed>
      <Accuracy>1.7</Accuracy>
      <Time>1781926653002</Time>
      <description><![CDATA[]]>
      </description>
      <FileId>1631390124</FileId>
      <FileSize>1197203</FileSize>
      <FileType>0</FileType>
    </extensions>
  </wpt>
  <wpt lat="28.8304833" lon="119.3885417">
    <ele>442.5</ele>
    <time>2026-06-20T03:40:42Z</time>
    <name><![CDATA[瀑布3
        ]]>
    </name>
    <cmt>瀑布3
        </cmt>
    <desc><![CDATA[]]>
    </desc>
    <sym>Flag, Blue</sym>
    <type>user</type>
    <extensions>
      <PosType>0</PosType>
      <Speed>0.5111192</Speed>
      <Accuracy>1.9</Accuracy>
      <Time>1781926842992</Time>
      <description><![CDATA[]]>
      </description>
      <FileId>1631390072</FileId>
      <FileSize>1307781</FileSize>
      <FileType>0</FileType>
    </extensions>
  </wpt>
  <wpt lat="28.8303883" lon="119.388495">
    <ele>448.6</ele>
    <time>2026-06-20T03:43:52Z</time>
    <name><![CDATA[小桥
        ]]>
    </name>
    <cmt>小桥
        </cmt>
    <desc><![CDATA[]]>
    </desc>
    <sym>Flag, Blue</sym>
    <type>user</type>
    <extensions>
      <PosType>0</PosType>
      <Speed>0.68509525</Speed>
      <Accuracy>2.1</Accuracy>
      <Time>1781927032988</Time>
      <description><![CDATA[]]>
      </description>
      <FileId>1631390068</FileId>
      <FileSize>1230759</FileSize>
      <FileType>0</FileType>
    </extensions>
  </wpt>
  <wpt lat="28.8304933" lon="119.38817">
    <ele>436.7</ele>
    <time>2026-06-20T03:47:10Z</time>
    <name><![CDATA[
        ]]>
    </name>
    <cmt>
        </cmt>
    <desc><![CDATA[]]>
    </desc>
    <sym>Flag, Blue</sym>
    <type>user</type>
    <extensions>
      <PosType>0</PosType>
      <Speed>1.411883</Speed>
      <Accuracy>1.6</Accuracy>
      <Time>1781927230925</Time>
      <description><![CDATA[]]>
      </description>
      <FileId>1631390066</FileId>
      <FileSize>1409089</FileSize>
      <FileType>0</FileType>
    </extensions>
  </wpt>
  <wpt lat="28.8315904" lon="119.3878803">
    <ele>419.9</ele>
    <time>2026-06-20T03:50:43Z</time>
    <name><![CDATA[凉亭可休息
        ]]>
    </name>
    <cmt>凉亭可休息
        </cmt>
    <desc><![CDATA[]]>
    </desc>
    <sym>Flag, Blue</sym>
    <type>user</type>
    <extensions>
      <PosType>0</PosType>
      <Speed>0.90076387</Speed>
      <Accuracy>1.9</Accuracy>
      <Time>1781927443000</Time>
      <description><![CDATA[]]>
      </description>
      <FileId>1631390063</FileId>
      <FileSize>1306603</FileSize>
      <FileType>0</FileType>
    </extensions>
  </wpt>
  <wpt lat="28.831785" lon="119.3873409">
    <ele>381.8</ele>
    <time>2026-06-20T03:54:45Z</time>
    <name><![CDATA[今天瀑布比较少，只有一边
        ]]>
    </name>
    <cmt>今天瀑布比较少，只有一边
        </cmt>
    <desc><![CDATA[]]>
    </desc>
    <sym>Flag, Blue</sym>
    <type>user</type>
    <extensions>
      <PosType>0</PosType>
      <Speed>0.9702514</Speed>
      <Accuracy>1.9</Accuracy>
      <Time>1781927685002</Time>
      <description><![CDATA[]]>
      </description>
      <FileId>1631390059</FileId>
      <FileSize>1543834</FileSize>
      <FileType>0</FileType>
    </extensions>
  </wpt>
  <wpt lat="28.8318217" lon="119.387385">
    <ele>372.8</ele>
    <time>2026-06-20T04:05:01Z</time>
    <name><![CDATA[这里可以休息
        ]]>
    </name>
    <cmt>这里可以休息
        </cmt>
    <desc><![CDATA[]]>
    </desc>
    <sym>Flag, Blue</sym>
    <type>user</type>
    <extensions>
      <PosType>0</PosType>
      <Speed>0.096767776</Speed>
      <Accuracy>1.9</Accuracy>
      <Time>1781928301982</Time>
      <description><![CDATA[]]>
      </description>
      <FileId>1631390056</FileId>
      <FileSize>1327090</FileSize>
      <FileType>0</FileType>
    </extensions>
  </wpt>
  <wpt lat="28.8318222" lon="119.3870984">
    <ele>350.1</ele>
    <time>2026-06-20T04:06:42Z</time>
    <name><![CDATA[
        ]]>
    </name>
    <cmt>
        </cmt>
    <desc><![CDATA[]]>
    </desc>
    <sym>Flag, Blue</sym>
    <type>user</type>
    <extensions>
      <PosType>0</PosType>
      <Speed>1.1097411</Speed>
      <Accuracy>1.8</Accuracy>
      <Time>1781928402012</Time>
      <description><![CDATA[]]>
      </description>
      <FileId>1631390053</FileId>
      <FileSize>1415798</FileSize>
      <FileType>0</FileType>
    </extensions>
  </wpt>
  <wpt lat="28.8319153" lon="119.3873662">
    <ele>366.9</ele>
    <time>2026-06-20T04:09:26Z</time>
    <name><![CDATA[往左返回
        ]]>
    </name>
    <cmt>往左返回
        </cmt>
    <desc><![CDATA[]]>
    </desc>
    <sym>Flag, Blue</sym>
    <type>user</type>
    <extensions>
      <PosType>0</PosType>
      <Speed>0.81223166</Speed>
      <Accuracy>1.7</Accuracy>
      <Time>1781928566030</Time>
      <description><![CDATA[]]>
      </description>
      <FileId>1631390049</FileId>
      <FileSize>2542078</FileSize>
      <FileType>0</FileType>
    </extensions>
  </wpt>
  <wpt lat="28.8321668" lon="119.3874725">
    <ele>381.8</ele>
    <time>2026-06-20T04:11:45Z</time>
    <name><![CDATA[台阶上山
        ]]>
    </name>
    <cmt>台阶上山
        </cmt>
    <desc><![CDATA[]]>
    </desc>
    <sym>Flag, Blue</sym>
    <type>user</type>
    <extensions>
      <PosType>0</PosType>
      <Speed>0.16882889</Speed>
      <Accuracy>1.5</Accuracy>
      <Time>1781928705998</Time>
      <description><![CDATA[]]>
      </description>
    </extensions>
  </wpt>
  <wpt lat="28.8324367" lon="119.3875962">
    <ele>390.6</ele>
    <time>2026-06-20T04:12:32Z</time>
    <name><![CDATA[竹林
        ]]>
    </name>
    <cmt>竹林
        </cmt>
    <desc><![CDATA[]]>
    </desc>
    <sym>Flag, Blue</sym>
    <type>user</type>
    <extensions>
      <PosType>0</PosType>
      <Speed>0.64340276</Speed>
      <Accuracy>1.6</Accuracy>
      <Time>1781928752003</Time>
      <description><![CDATA[]]>
      </description>
      <FileId>1631390047</FileId>
      <FileSize>1432640</FileSize>
      <FileType>0</FileType>
    </extensions>
  </wpt>
  <wpt lat="28.8325978" lon="119.3883395">
    <ele>426.0</ele>
    <time>2026-06-20T04:18:31Z</time>
    <name><![CDATA[右转回去，左边大环线
        ]]>
    </name>
    <cmt>右转回去，左边大环线
        </cmt>
    <desc><![CDATA[]]>
    </desc>
    <sym>Flag, Blue</sym>
    <type>user</type>
    <extensions>
      <PosType>0</PosType>
      <Speed>0.3103775</Speed>
      <Accuracy>1.5</Accuracy>
      <Time>1781929111990</Time>
      <description><![CDATA[]]>
      </description>
      <FileId>1631390041</FileId>
      <FileSize>2608924</FileSize>
      <FileType>0</FileType>
    </extensions>
  </wpt>
  <wpt lat="28.8320104" lon="119.3881078">
    <ele>432.3</ele>
    <time>2026-06-20T04:20:16Z</time>
    <name><![CDATA[壁下古道
        ]]>
    </name>
    <cmt>壁下古道
        </cmt>
    <desc><![CDATA[]]>
    </desc>
    <sym>Flag, Blue</sym>
    <type>user</type>
    <extensions>
      <PosType>0</PosType>
      <Speed>0.9265</Speed>
      <Accuracy>1.5</Accuracy>
      <Time>1781929216027</Time>
      <description><![CDATA[]]>
      </description>
      <FileId>1631390040</FileId>
      <FileSize>1614971</FileSize>
      <FileType>0</FileType>
    </extensions>
  </wpt>
  <wpt lat="28.8302974" lon="119.3895563">
    <ele>469.0</ele>
    <time>2026-06-20T04:25:56Z</time>
    <name><![CDATA[
        ]]>
    </name>
    <cmt>
        </cmt>
    <desc><![CDATA[]]>
    </desc>
    <sym>Flag, Blue</sym>
    <type>user</type>
    <extensions>
      <PosType>0</PosType>
      <Speed>0.74892086</Speed>
      <Accuracy>1.4</Accuracy>
      <Time>1781929556002</Time>
      <description><![CDATA[]]>
      </description>
      <FileId>1631390037</FileId>
      <FileSize>1360026</FileSize>
      <FileType>0</FileType>
    </extensions>
  </wpt>
  <wpt lat="28.8285522" lon="119.3914533">
    <ele>472.5</ele>
    <time>2026-06-20T04:30:16Z</time>
    <name><![CDATA[边上有农家乐
        ]]>
    </name>
    <cmt>边上有农家乐
        </cmt>
    <desc><![CDATA[]]>
    </desc>
    <sym>Flag, Blue</sym>
    <type>user</type>
    <extensions>
      <PosType>0</PosType>
      <Speed>1.515857</Speed>
      <Accuracy>1.2</Accuracy>
      <Time>1781929816005</Time>
      <description><![CDATA[]]>
      </description>
    </extensions>
  </wpt>
</gpx>