<?xml version='1.0' encoding='UTF-8' standalone='yes' ?>
<gpx version="1.1" creator="GPSBabel - http://www.gpsbabel.org" xmlns:xsi="http://www.w3.org/2001/XMLSchema-instance" xmlns="http://www.topografix.com/GPX/1/1" xsi:schemaLocation="http://www.topografix.com/GPX/1/1 http://www.topografix.com/GPX/1/1/gpx.xsd">
  <metadata>
    <link href="http://www.garmin.com">
      <text>Garmin International</text>
    </link>
    <time>2026-07-21T04:36:34Z</time>
    <bounds minlat="28.83419" minlon="119.4328401" maxlat="28.8409759" maxlon="119.4381215" />
  </metadata>
  <extensions>
    <name><![CDATA[塔石上南坑双福瀑布]]>
    </name>
    <description><![CDATA[]]>
    </description>
    <TrackId>87383393</TrackId>
    <TrackTypeId>8</TrackTypeId>
    <TrackTags>徒步</TrackTags>
    <BeginTime>1784608594000</BeginTime>
    <EndTime>1784611433000</EndTime>
    <TimeUsed>2839000</TimeUsed>
    <PauseTime>2716</PauseTime>
    <PosStartName>金华市婺城区塔石乡下南坑村南溪路2号</PosStartName>
    <PosEndName>金华市婺城区塔石乡上南坑村</PosEndName>
    <ProductVersion>and_9.1.5</ProductVersion>
    <StartDistrictId>9654</StartDistrictId>
    <EndDistrictId>9654</EndDistrictId>
    <CreaterId>64771087</CreaterId>
    <CreaterName><![CDATA[步履赴山野]]>
    </CreaterName>
    <CreaterIcon>1523534626</CreaterIcon>
    <OriginCreaterId>64771087</OriginCreaterId>
    <OriginCreaterNickname><![CDATA[步履赴山野]]>
    </OriginCreaterNickname>
    <OriginCreaterName><![CDATA[null]]>
    </OriginCreaterName>
    <OriginCreaterIcon>1523534626</OriginCreaterIcon>
    <ThumbnailId>1646951504</ThumbnailId>
    <Distance>1907.0</Distance>
    <ElevationGain>119.5700000000001</ElevationGain>
    <ElevationLoss>137.87000000000012</ElevationLoss>
    <SportAvgSpeed>0.6723586213510354</SportAvgSpeed>
  </extensions>
  <trk>
    <trkseg>
      <trkpt lat="28.8399124" lon="119.435049">
        <ele>453.7</ele>
        <time>2026-07-21T04:36:34Z</time>
        <speed>0.7113461</speed>
      </trkpt>
      <trkpt lat="28.8398467" lon="119.4349783">
        <ele>453.7</ele>
        <time>2026-07-21T04:41:54Z</time>
        <speed>0.7242142</speed>
      </trkpt>
      <trkpt lat="28.83976" lon="119.43495">
        <ele>453.05</ele>
        <time>2026-07-21T04:42:56Z</time>
        <speed>0.63002</speed>
      </trkpt>
      <trkpt lat="28.83972" lon="119.43484">
        <ele>453.76</ele>
        <time>2026-07-21T04:43:28Z</time>
        <speed>1.2003322</speed>
      </trkpt>
      <trkpt lat="28.8396321" lon="119.4347512">
        <ele>454.04</ele>
        <time>2026-07-21T04:43:34Z</time>
        <speed>2.14948</speed>
      </trkpt>
      <trkpt lat="28.8395369" lon="119.4346635">
        <ele>454.92</ele>
        <time>2026-07-21T04:43:40Z</time>
        <speed>2.1144788</speed>
      </trkpt>
      <trkpt lat="28.8394455" lon="119.4346051">
        <ele>457.02</ele>
        <time>2026-07-21T04:43:46Z</time>
        <speed>2.0640361</speed>
      </trkpt>
      <trkpt lat="28.8393514" lon="119.4345545">
        <ele>460.02</ele>
        <time>2026-07-21T04:43:54Z</time>
        <speed>1.5107098</speed>
      </trkpt>
      <trkpt lat="28.8392593" lon="119.4345112">
        <ele>462.72</ele>
        <time>2026-07-21T04:44:04Z</time>
        <speed>1.0165764</speed>
      </trkpt>
      <trkpt lat="28.8391534" lon="119.4344654">
        <ele>464.35</ele>
        <time>2026-07-21T04:44:14Z</time>
        <speed>1.0680486</speed>
      </trkpt>
      <trkpt lat="28.8390539" lon="119.4344012">
        <ele>465.1</ele>
        <time>2026-07-21T04:44:24Z</time>
        <speed>1.1550367</speed>
      </trkpt>
      <trkpt lat="28.8389563" lon="119.4343373">
        <ele>466.05</ele>
        <time>2026-07-21T04:44:32Z</time>
        <speed>1.413942</speed>
      </trkpt>
      <trkpt lat="28.838852" lon="119.4343194">
        <ele>467.36</ele>
        <time>2026-07-21T04:44:40Z</time>
        <speed>1.5251219</speed>
      </trkpt>
      <trkpt lat="28.838754" lon="119.4343148">
        <ele>468.88</ele>
        <time>2026-07-21T04:44:48Z</time>
        <speed>1.2363628</speed>
      </trkpt>
      <trkpt lat="28.8386286" lon="119.4343116">
        <ele>470.7</ele>
        <time>2026-07-21T04:44:54Z</time>
        <speed>1.7171134</speed>
      </trkpt>
      <trkpt lat="28.8385255" lon="119.4342819">
        <ele>471.56</ele>
        <time>2026-07-21T04:45:04Z</time>
        <speed>1.0665045</speed>
      </trkpt>
      <trkpt lat="28.8384307" lon="119.4342438">
        <ele>472.26</ele>
        <time>2026-07-21T04:45:14Z</time>
        <speed>0.92238224</speed>
      </trkpt>
      <trkpt lat="28.8383348" lon="119.4341886">
        <ele>474.73</ele>
        <time>2026-07-21T04:45:25Z</time>
        <speed>0.5661944</speed>
      </trkpt>
      <trkpt lat="28.838234" lon="119.4341618">
        <ele>478.85</ele>
        <time>2026-07-21T04:45:35Z</time>
        <speed>0.91157305</speed>
      </trkpt>
      <trkpt lat="28.8381298" lon="119.4341444">
        <ele>481.8</ele>
        <time>2026-07-21T04:45:45Z</time>
        <speed>1.00062</speed>
      </trkpt>
      <trkpt lat="28.8380245" lon="119.4341057">
        <ele>483.47</ele>
        <time>2026-07-21T04:45:55Z</time>
        <speed>1.102535</speed>
      </trkpt>
      <trkpt lat="28.8379428" lon="119.434032">
        <ele>484.73</ele>
        <time>2026-07-21T04:46:03Z</time>
        <speed>1.1226091</speed>
      </trkpt>
      <trkpt lat="28.8378649" lon="119.4339626">
        <ele>486.7</ele>
        <time>2026-07-21T04:46:13Z</time>
        <speed>1.0623866</speed>
      </trkpt>
      <trkpt lat="28.8377847" lon="119.4339132">
        <ele>488.29</ele>
        <time>2026-07-21T04:46:23Z</time>
        <speed>1.0289297</speed>
      </trkpt>
      <trkpt lat="28.8376866" lon="119.4338846">
        <ele>488.9</ele>
        <time>2026-07-21T04:46:33Z</time>
        <speed>1.0335622</speed>
      </trkpt>
      <trkpt lat="28.8375953" lon="119.4338367">
        <ele>490.02</ele>
        <time>2026-07-21T04:46:41Z</time>
        <speed>1.2857761</speed>
      </trkpt>
      <trkpt lat="28.8374949" lon="119.4338167">
        <ele>491.34</ele>
        <time>2026-07-21T04:46:51Z</time>
        <speed>1.065475</speed>
      </trkpt>
      <trkpt lat="28.8373986" lon="119.4338159">
        <ele>492.27</ele>
        <time>2026-07-21T04:46:59Z</time>
        <speed>1.139595</speed>
      </trkpt>
      <trkpt lat="28.837307" lon="119.4338045">
        <ele>493.87</ele>
        <time>2026-07-21T04:47:07Z</time>
        <speed>1.2847466</speed>
      </trkpt>
      <trkpt lat="28.8372045" lon="119.4337936">
        <ele>494.79</ele>
        <time>2026-07-21T04:47:17Z</time>
        <speed>1.1318742</speed>
      </trkpt>
      <trkpt lat="28.8371079" lon="119.4338403">
        <ele>495.53</ele>
        <time>2026-07-21T04:47:28Z</time>
        <speed>1.0731958</speed>
      </trkpt>
      <trkpt lat="28.8370377" lon="119.4339289">
        <ele>496.63</ele>
        <time>2026-07-21T04:47:35Z</time>
        <speed>1.09327</speed>
      </trkpt>
      <trkpt lat="28.8369808" lon="119.4340297">
        <ele>498.12</ele>
        <time>2026-07-21T04:47:43Z</time>
        <speed>1.1684195</speed>
      </trkpt>
      <trkpt lat="28.8369073" lon="119.4341171">
        <ele>500.14</ele>
        <time>2026-07-21T04:47:53Z</time>
        <speed>1.1076822</speed>
      </trkpt>
      <trkpt lat="28.8368337" lon="119.4341968">
        <ele>502.23</ele>
        <time>2026-07-21T04:48:01Z</time>
        <speed>1.161728</speed>
      </trkpt>
      <trkpt lat="28.8367502" lon="119.4342429">
        <ele>504.8</ele>
        <time>2026-07-21T04:48:09Z</time>
        <speed>1.2389364</speed>
      </trkpt>
      <trkpt lat="28.8366555" lon="119.4342629">
        <ele>507.04</ele>
        <time>2026-07-21T04:48:17Z</time>
        <speed>1.3737936</speed>
      </trkpt>
      <trkpt lat="28.8365612" lon="119.4342239">
        <ele>509.21</ele>
        <time>2026-07-21T04:48:27Z</time>
        <speed>1.1313595</speed>
      </trkpt>
      <trkpt lat="28.8364766" lon="119.4341533">
        <ele>512.0</ele>
        <time>2026-07-21T04:48:35Z</time>
        <speed>1.3717347</speed>
      </trkpt>
      <trkpt lat="28.8364061" lon="119.4340731">
        <ele>514.37</ele>
        <time>2026-07-21T04:48:45Z</time>
        <speed>1.1272416</speed>
      </trkpt>
      <trkpt lat="28.8363304" lon="119.4340048">
        <ele>517.01</ele>
        <time>2026-07-21T04:48:58Z</time>
        <speed>1.0912111</speed>
      </trkpt>
      <trkpt lat="28.8362407" lon="119.4339398">
        <ele>519.54</ele>
        <time>2026-07-21T04:49:08Z</time>
        <speed>1.1637869</speed>
      </trkpt>
      <trkpt lat="28.8361593" lon="119.4338693">
        <ele>521.76</ele>
        <time>2026-07-21T04:49:18Z</time>
        <speed>1.089667</speed>
      </trkpt>
      <trkpt lat="28.8360855" lon="119.4337832">
        <ele>523.63</ele>
        <time>2026-07-21T04:49:27Z</time>
        <speed>0.98003113</speed>
      </trkpt>
      <trkpt lat="28.836003" lon="119.4337182">
        <ele>525.47</ele>
        <time>2026-07-21T04:49:35Z</time>
        <speed>0.99444336</speed>
      </trkpt>
      <trkpt lat="28.8359319" lon="119.4336494">
        <ele>527.11</ele>
        <time>2026-07-21T04:49:49Z</time>
        <speed>0.7242142</speed>
      </trkpt>
      <trkpt lat="28.8358465" lon="119.433605">
        <ele>528.05</ele>
        <time>2026-07-21T04:50:01Z</time>
        <speed>0.93319136</speed>
      </trkpt>
      <trkpt lat="28.8357527" lon="119.4335956">
        <ele>528.25</ele>
        <time>2026-07-21T04:50:11Z</time>
        <speed>1.0417978</speed>
      </trkpt>
      <trkpt lat="28.8356803" lon="119.4335276">
        <ele>528.14</ele>
        <time>2026-07-21T04:50:19Z</time>
        <speed>1.2090825</speed>
      </trkpt>
      <trkpt lat="28.8356038" lon="119.4334479">
        <ele>528.25</ele>
        <time>2026-07-21T04:50:31Z</time>
        <speed>0.8225261</speed>
      </trkpt>
      <trkpt lat="28.8355139" lon="119.4334185">
        <ele>528.14</ele>
        <time>2026-07-21T04:50:37Z</time>
        <speed>1.4561492</speed>
      </trkpt>
      <trkpt lat="28.8354513" lon="119.4333689">
        <ele>527.69</ele>
        <time>2026-07-21T04:50:59Z</time>
        <speed>0.0</speed>
      </trkpt>
      <trkpt lat="28.8353957" lon="119.4334227">
        <ele>528.04</ele>
        <time>2026-07-21T04:51:57Z</time>
        <speed>0.47354445</speed>
      </trkpt>
      <trkpt lat="28.8353317" lon="119.4333717">
        <ele>530.95</ele>
        <time>2026-07-21T04:53:33Z</time>
        <speed>0.78701025</speed>
      </trkpt>
      <trkpt lat="28.8352433" lon="119.4333967">
        <ele>534.71</ele>
        <time>2026-07-21T04:53:59Z</time>
        <speed>0.49207443</speed>
      </trkpt>
      <trkpt lat="28.8351719" lon="119.4333399">
        <ele>537.5</ele>
        <time>2026-07-21T04:54:23Z</time>
        <speed>0.64288807</speed>
      </trkpt>
      <trkpt lat="28.8350868" lon="119.4333535">
        <ele>536.99</ele>
        <time>2026-07-21T04:54:45Z</time>
        <speed>0.0</speed>
      </trkpt>
      <trkpt lat="28.8350413" lon="119.4332809">
        <ele>532.56</ele>
        <time>2026-07-21T04:54:53Z</time>
        <speed>0.0</speed>
      </trkpt>
      <trkpt lat="28.8349678" lon="119.4332375">
        <ele>528.53</ele>
        <time>2026-07-21T04:55:31Z</time>
        <speed>0.0</speed>
      </trkpt>
      <trkpt lat="28.8349473" lon="119.4331457">
        <ele>522.2</ele>
        <time>2026-07-21T04:55:47Z</time>
        <speed>0.0</speed>
      </trkpt>
      <trkpt lat="28.8348777" lon="119.4331455">
        <ele>517.08</ele>
        <time>2026-07-21T04:56:07Z</time>
        <speed>0.0</speed>
      </trkpt>
      <trkpt lat="28.8348013" lon="119.4331066">
        <ele>512.27</ele>
        <time>2026-07-21T04:56:31Z</time>
        <speed>0.0</speed>
      </trkpt>
      <trkpt lat="28.8347538" lon="119.4330237">
        <ele>507.38</ele>
        <time>2026-07-21T04:56:53Z</time>
        <speed>0.5492086</speed>
      </trkpt>
      <trkpt lat="28.8346928" lon="119.4329476">
        <ele>504.94</ele>
        <time>2026-07-21T04:57:03Z</time>
        <speed>1.2832025</speed>
      </trkpt>
      <trkpt lat="28.8346585" lon="119.4329404">
        <ele>502.47</ele>
        <time>2026-07-21T04:57:05Z</time>
        <speed>0.0</speed>
      </trkpt>
      <trkpt lat="28.8346979" lon="119.4328854">
        <ele>500.8</ele>
        <time>2026-07-21T04:57:29Z</time>
        <speed>0.86473334</speed>
      </trkpt>
      <trkpt lat="28.8346427" lon="119.4328898">
        <ele>497.75</ele>
        <time>2026-07-21T04:57:39Z</time>
        <speed>0.5553853</speed>
      </trkpt>
      <trkpt lat="28.8345507" lon="119.4328956">
        <ele>496.39</ele>
        <time>2026-07-21T04:57:53Z</time>
        <speed>0.0</speed>
      </trkpt>
      <trkpt lat="28.8344291" lon="119.4329956">
        <ele>496.1</ele>
        <time>2026-07-21T04:58:17Z</time>
        <speed>0.0</speed>
      </trkpt>
      <trkpt lat="28.834359" lon="119.4329467">
        <ele>496.83</ele>
        <time>2026-07-21T04:59:03Z</time>
        <speed>0.6104606</speed>
      </trkpt>
      <trkpt lat="28.8342948" lon="119.4328401">
        <ele>499.4</ele>
        <time>2026-07-21T04:59:57Z</time>
        <speed>0.0</speed>
      </trkpt>
      <trkpt lat="28.834277" lon="119.4328788">
        <ele>503.92</ele>
        <time>2026-07-21T05:00:27Z</time>
        <speed>0.4560439</speed>
      </trkpt>
      <trkpt lat="28.83424" lon="119.4330133">
        <ele>508.73</ele>
        <time>2026-07-21T05:02:13Z</time>
        <speed>0.0</speed>
      </trkpt>
      <trkpt lat="28.83419" lon="119.4329217">
        <ele>518.44</ele>
        <time>2026-07-21T05:03:07Z</time>
        <speed>0.41641027</speed>
      </trkpt>
      <trkpt lat="28.834295" lon="119.4328983">
        <ele>519.63</ele>
        <time>2026-07-21T05:04:43Z</time>
        <speed>0.0</speed>
      </trkpt>
      <trkpt lat="28.83439" lon="119.4328867">
        <ele>520.0</ele>
        <time>2026-07-21T05:05:05Z</time>
        <speed>1.2430542</speed>
      </trkpt>
      <trkpt lat="28.8343496" lon="119.4328736">
        <ele>523.4</ele>
        <time>2026-07-21T05:05:19Z</time>
        <speed>0.0</speed>
      </trkpt>
      <trkpt lat="28.8344126" lon="119.4328834">
        <ele>526.41</ele>
        <time>2026-07-21T05:05:51Z</time>
        <speed>0.75458276</speed>
      </trkpt>
      <trkpt lat="28.8345022" lon="119.4329029">
        <ele>524.21</ele>
        <time>2026-07-21T05:06:17Z</time>
        <speed>0.65678555</speed>
      </trkpt>
      <trkpt lat="28.8346014" lon="119.432949">
        <ele>523.91</ele>
        <time>2026-07-21T05:06:55Z</time>
        <speed>0.9326767</speed>
      </trkpt>
      <trkpt lat="28.8347217" lon="119.4329461">
        <ele>521.24</ele>
        <time>2026-07-21T05:07:07Z</time>
        <speed>1.1622428</speed>
      </trkpt>
      <trkpt lat="28.8348252" lon="119.4329559">
        <ele>520.53</ele>
        <time>2026-07-21T05:07:31Z</time>
        <speed>0.83385</speed>
      </trkpt>
      <trkpt lat="28.8348727" lon="119.4330406">
        <ele>525.98</ele>
        <time>2026-07-21T05:07:47Z</time>
        <speed>0.84826225</speed>
      </trkpt>
      <trkpt lat="28.8349447" lon="119.4331029">
        <ele>534.08</ele>
        <time>2026-07-21T05:08:11Z</time>
        <speed>0.6413439</speed>
      </trkpt>
      <trkpt lat="28.8350435" lon="119.4331253">
        <ele>540.07</ele>
        <time>2026-07-21T05:09:01Z</time>
        <speed>0.42516056</speed>
      </trkpt>
      <trkpt lat="28.835081" lon="119.4332036">
        <ele>541.46</ele>
        <time>2026-07-21T05:09:13Z</time>
        <speed>0.5234725</speed>
      </trkpt>
      <trkpt lat="28.8351635" lon="119.433254">
        <ele>541.86</ele>
        <time>2026-07-21T05:09:33Z</time>
        <speed>0.4678825</speed>
      </trkpt>
      <trkpt lat="28.8352427" lon="119.4333133">
        <ele>541.49</ele>
        <time>2026-07-21T05:09:47Z</time>
        <speed>0.67274195</speed>
      </trkpt>
      <trkpt lat="28.8353358" lon="119.4333374">
        <ele>540.98</ele>
        <time>2026-07-21T05:10:19Z</time>
        <speed>0.7417147</speed>
      </trkpt>
      <trkpt lat="28.8354199" lon="119.433406">
        <ele>539.44</ele>
        <time>2026-07-21T05:10:33Z</time>
        <speed>0.6583297</speed>
      </trkpt>
      <trkpt lat="28.8355122" lon="119.4334162">
        <ele>538.13</ele>
        <time>2026-07-21T05:10:41Z</time>
        <speed>1.0520922</speed>
      </trkpt>
      <trkpt lat="28.8356" lon="119.4334487">
        <ele>537.0</ele>
        <time>2026-07-21T05:10:51Z</time>
        <speed>0.89510196</speed>
      </trkpt>
      <trkpt lat="28.8356957" lon="119.4334967">
        <ele>535.8</ele>
        <time>2026-07-21T05:11:03Z</time>
        <speed>0.954295</speed>
      </trkpt>
      <trkpt lat="28.8357743" lon="119.433563">
        <ele>534.38</ele>
        <time>2026-07-21T05:11:13Z</time>
        <speed>0.93319136</speed>
      </trkpt>
      <trkpt lat="28.8358624" lon="119.4336113">
        <ele>532.84</ele>
        <time>2026-07-21T05:11:23Z</time>
        <speed>1.1612133</speed>
      </trkpt>
      <trkpt lat="28.8359623" lon="119.4336467">
        <ele>530.8</ele>
        <time>2026-07-21T05:11:35Z</time>
        <speed>1.22298</speed>
      </trkpt>
      <trkpt lat="28.8360413" lon="119.4337075">
        <ele>527.36</ele>
        <time>2026-07-21T05:11:43Z</time>
        <speed>1.3357042</speed>
      </trkpt>
      <trkpt lat="28.8361094" lon="119.4337873">
        <ele>524.97</ele>
        <time>2026-07-21T05:11:55Z</time>
        <speed>0.8034814</speed>
      </trkpt>
      <trkpt lat="28.836173" lon="119.4338693">
        <ele>523.0</ele>
        <time>2026-07-21T05:12:07Z</time>
        <speed>0.8173789</speed>
      </trkpt>
      <trkpt lat="28.8362398" lon="119.4339493">
        <ele>521.32</ele>
        <time>2026-07-21T05:12:17Z</time>
        <speed>1.0428272</speed>
      </trkpt>
      <trkpt lat="28.836326" lon="119.4340026">
        <ele>519.46</ele>
        <time>2026-07-21T05:12:25Z</time>
        <speed>1.3439398</speed>
      </trkpt>
      <trkpt lat="28.8364133" lon="119.4340395">
        <ele>518.06</ele>
        <time>2026-07-21T05:12:35Z</time>
        <speed>1.0649602</speed>
      </trkpt>
      <trkpt lat="28.8364838" lon="119.4341054">
        <ele>518.29</ele>
        <time>2026-07-21T05:12:51Z</time>
        <speed>1.0320181</speed>
      </trkpt>
      <trkpt lat="28.8365676" lon="119.434186">
        <ele>519.11</ele>
        <time>2026-07-21T05:12:59Z</time>
        <speed>1.4160008</speed>
      </trkpt>
      <trkpt lat="28.8366531" lon="119.4342612">
        <ele>519.15</ele>
        <time>2026-07-21T05:13:07Z</time>
        <speed>1.5184306</speed>
      </trkpt>
      <trkpt lat="28.8367465" lon="119.4342819">
        <ele>518.05</ele>
        <time>2026-07-21T05:13:15Z</time>
        <speed>1.5328428</speed>
      </trkpt>
      <trkpt lat="28.8368323" lon="119.4342373">
        <ele>516.95</ele>
        <time>2026-07-21T05:13:25Z</time>
        <speed>1.2620989</speed>
      </trkpt>
      <trkpt lat="28.8369173" lon="119.4341703">
        <ele>516.11</ele>
        <time>2026-07-21T05:13:35Z</time>
        <speed>1.2687902</speed>
      </trkpt>
      <trkpt lat="28.836992" lon="119.4340877">
        <ele>515.46</ele>
        <time>2026-07-21T05:13:43Z</time>
        <speed>1.4700466</speed>
      </trkpt>
      <trkpt lat="28.8370506" lon="119.4339896">
        <ele>513.89</ele>
        <time>2026-07-21T05:13:51Z</time>
        <speed>1.3737936</speed>
      </trkpt>
      <trkpt lat="28.8371115" lon="119.4338874">
        <ele>512.26</ele>
        <time>2026-07-21T05:13:59Z</time>
        <speed>1.6038744</speed>
      </trkpt>
      <trkpt lat="28.8372106" lon="119.4338162">
        <ele>510.94</ele>
        <time>2026-07-21T05:14:07Z</time>
        <speed>1.70476</speed>
      </trkpt>
      <trkpt lat="28.8373269" lon="119.4338167">
        <ele>509.03</ele>
        <time>2026-07-21T05:14:15Z</time>
        <speed>1.6707883</speed>
      </trkpt>
      <trkpt lat="28.8374399" lon="119.4338275">
        <ele>506.87</ele>
        <time>2026-07-21T05:14:23Z</time>
        <speed>1.5652703</speed>
      </trkpt>
      <trkpt lat="28.8375437" lon="119.4338013">
        <ele>504.04</ele>
        <time>2026-07-21T05:14:31Z</time>
        <speed>1.6378461</speed>
      </trkpt>
      <trkpt lat="28.8376458" lon="119.43379">
        <ele>500.88</ele>
        <time>2026-07-21T05:14:39Z</time>
        <speed>1.6460817</speed>
      </trkpt>
      <trkpt lat="28.837741" lon="119.4338297">
        <ele>497.45</ele>
        <time>2026-07-21T05:14:47Z</time>
        <speed>1.6141689</speed>
      </trkpt>
      <trkpt lat="28.8378163" lon="119.4339025">
        <ele>494.5</ele>
        <time>2026-07-21T05:14:55Z</time>
        <speed>1.4226922</speed>
      </trkpt>
      <trkpt lat="28.8378974" lon="119.4339818">
        <ele>492.09</ele>
        <time>2026-07-21T05:15:05Z</time>
        <speed>1.2852614</speed>
      </trkpt>
      <trkpt lat="28.837978" lon="119.434045">
        <ele>489.26</ele>
        <time>2026-07-21T05:15:13Z</time>
        <speed>1.2811437</speed>
      </trkpt>
      <trkpt lat="28.8380565" lon="119.4341176">
        <ele>486.91</ele>
        <time>2026-07-21T05:15:21Z</time>
        <speed>1.4633553</speed>
      </trkpt>
      <trkpt lat="28.8381406" lon="119.4341634">
        <ele>484.58</ele>
        <time>2026-07-21T05:15:28Z</time>
        <speed>1.108197</speed>
      </trkpt>
      <trkpt lat="28.8382332" lon="119.4341674">
        <ele>482.83</ele>
        <time>2026-07-21T05:15:36Z</time>
        <speed>1.3449692</speed>
      </trkpt>
      <trkpt lat="28.8383314" lon="119.4341698">
        <ele>481.31</ele>
        <time>2026-07-21T05:15:44Z</time>
        <speed>1.3701905</speed>
      </trkpt>
      <trkpt lat="28.8384184" lon="119.4342045">
        <ele>480.36</ele>
        <time>2026-07-21T05:15:52Z</time>
        <speed>1.3887205</speed>
      </trkpt>
      <trkpt lat="28.8384995" lon="119.4342539">
        <ele>479.17</ele>
        <time>2026-07-21T05:16:00Z</time>
        <speed>1.4705614</speed>
      </trkpt>
      <trkpt lat="28.8385976" lon="119.4342739">
        <ele>478.37</ele>
        <time>2026-07-21T05:16:08Z</time>
        <speed>1.4242364</speed>
      </trkpt>
      <trkpt lat="28.8386935" lon="119.434297">
        <ele>478.47</ele>
        <time>2026-07-21T05:16:18Z</time>
        <speed>1.1699636</speed>
      </trkpt>
      <trkpt lat="28.8387955" lon="119.4343371">
        <ele>479.3</ele>
        <time>2026-07-21T05:16:28Z</time>
        <speed>1.2492309</speed>
      </trkpt>
      <trkpt lat="28.838857" lon="119.4343274">
        <ele>479.26</ele>
        <time>2026-07-21T05:16:40Z</time>
        <speed>0.0</speed>
      </trkpt>
      <trkpt lat="28.8389469" lon="119.4343438">
        <ele>479.15</ele>
        <time>2026-07-21T05:17:04Z</time>
        <speed>0.9285589</speed>
      </trkpt>
      <trkpt lat="28.8390367" lon="119.4344047">
        <ele>478.57</ele>
        <time>2026-07-21T05:17:14Z</time>
        <speed>1.1833464</speed>
      </trkpt>
      <trkpt lat="28.8391273" lon="119.4344765">
        <ele>477.33</ele>
        <time>2026-07-21T05:17:24Z</time>
        <speed>1.3012178</speed>
      </trkpt>
      <trkpt lat="28.8392178" lon="119.4345499">
        <ele>475.64</ele>
        <time>2026-07-21T05:17:32Z</time>
        <speed>1.402618</speed>
      </trkpt>
      <trkpt lat="28.8393144" lon="119.4346144">
        <ele>472.18</ele>
        <time>2026-07-21T05:17:40Z</time>
        <speed>1.3717347</speed>
      </trkpt>
      <trkpt lat="28.8394131" lon="119.4346456">
        <ele>468.66</ele>
        <time>2026-07-21T05:17:48Z</time>
        <speed>1.3387924</speed>
      </trkpt>
      <trkpt lat="28.8395234" lon="119.4346822">
        <ele>465.28</ele>
        <time>2026-07-21T05:17:56Z</time>
        <speed>1.3943825</speed>
      </trkpt>
      <trkpt lat="28.8396202" lon="119.434735">
        <ele>462.75</ele>
        <time>2026-07-21T05:18:04Z</time>
        <speed>1.6821122</speed>
      </trkpt>
      <trkpt lat="28.839695" lon="119.4348282">
        <ele>461.09</ele>
        <time>2026-07-21T05:18:12Z</time>
        <speed>1.5168864</speed>
      </trkpt>
      <trkpt lat="28.8397632" lon="119.4349056">
        <ele>459.2</ele>
        <time>2026-07-21T05:18:20Z</time>
        <speed>1.3521752</speed>
      </trkpt>
      <trkpt lat="28.8398029" lon="119.4350047">
        <ele>457.61</ele>
        <time>2026-07-21T05:18:28Z</time>
        <speed>1.4829147</speed>
      </trkpt>
      <trkpt lat="28.8398608" lon="119.4351012">
        <ele>456.19</ele>
        <time>2026-07-21T05:18:36Z</time>
        <speed>1.504533</speed>
      </trkpt>
      <trkpt lat="28.839915" lon="119.4351954">
        <ele>454.99</ele>
        <time>2026-07-21T05:18:44Z</time>
        <speed>1.4824</speed>
      </trkpt>
      <trkpt lat="28.8399717" lon="119.4352844">
        <ele>453.87</ele>
        <time>2026-07-21T05:18:58Z</time>
        <speed>1.0325328</speed>
      </trkpt>
      <trkpt lat="28.8400046" lon="119.4353813">
        <ele>452.64</ele>
        <time>2026-07-21T05:19:04Z</time>
        <speed>1.4057064</speed>
      </trkpt>
      <trkpt lat="28.8400388" lon="119.4354875">
        <ele>452.28</ele>
        <time>2026-07-21T05:19:12Z</time>
        <speed>1.3058503</speed>
      </trkpt>
      <trkpt lat="28.8400522" lon="119.4356156">
        <ele>452.33</ele>
        <time>2026-07-21T05:19:20Z</time>
        <speed>1.4556345</speed>
      </trkpt>
      <trkpt lat="28.8400724" lon="119.4357246">
        <ele>453.09</ele>
        <time>2026-07-21T05:19:26Z</time>
        <speed>1.4983563</speed>
      </trkpt>
      <trkpt lat="28.8401142" lon="119.4358364">
        <ele>454.17</ele>
        <time>2026-07-21T05:19:34Z</time>
        <speed>1.5781384</speed>
      </trkpt>
      <trkpt lat="28.8401792" lon="119.4359344">
        <ele>454.66</ele>
        <time>2026-07-21T05:19:42Z</time>
        <speed>1.5246072</speed>
      </trkpt>
      <trkpt lat="28.840213" lon="119.4360374">
        <ele>454.33</ele>
        <time>2026-07-21T05:19:50Z</time>
        <speed>1.5246072</speed>
      </trkpt>
      <trkpt lat="28.8402648" lon="119.4361379">
        <ele>453.33</ele>
        <time>2026-07-21T05:19:58Z</time>
        <speed>1.3948972</speed>
      </trkpt>
      <trkpt lat="28.8403365" lon="119.4362263">
        <ele>451.81</ele>
        <time>2026-07-21T05:20:06Z</time>
        <speed>1.263643</speed>
      </trkpt>
      <trkpt lat="28.8404287" lon="119.4363105">
        <ele>450.73</ele>
        <time>2026-07-21T05:20:14Z</time>
        <speed>1.5071067</speed>
      </trkpt>
      <trkpt lat="28.8405032" lon="119.4364027">
        <ele>449.77</ele>
        <time>2026-07-21T05:20:22Z</time>
        <speed>1.4999006</speed>
      </trkpt>
      <trkpt lat="28.8405719" lon="119.4364885">
        <ele>449.05</ele>
        <time>2026-07-21T05:20:30Z</time>
        <speed>1.4242364</speed>
      </trkpt>
      <trkpt lat="28.8406572" lon="119.436563">
        <ele>448.26</ele>
        <time>2026-07-21T05:20:38Z</time>
        <speed>1.5081362</speed>
      </trkpt>
      <trkpt lat="28.8406975" lon="119.4366701">
        <ele>447.84</ele>
        <time>2026-07-21T05:20:46Z</time>
        <speed>1.293497</speed>
      </trkpt>
      <trkpt lat="28.8406956" lon="119.436791">
        <ele>447.65</ele>
        <time>2026-07-21T05:20:54Z</time>
        <speed>1.4463694</speed>
      </trkpt>
      <trkpt lat="28.8406591" lon="119.4369082">
        <ele>447.11</ele>
        <time>2026-07-21T05:21:02Z</time>
        <speed>1.3696759</speed>
      </trkpt>
      <trkpt lat="28.8406095" lon="119.4370237">
        <ele>446.85</ele>
        <time>2026-07-21T05:21:10Z</time>
        <speed>1.587918</speed>
      </trkpt>
      <trkpt lat="28.840579" lon="119.4371355">
        <ele>445.84</ele>
        <time>2026-07-21T05:21:18Z</time>
        <speed>1.4504873</speed>
      </trkpt>
      <trkpt lat="28.840558" lon="119.4372571">
        <ele>443.89</ele>
        <time>2026-07-21T05:21:26Z</time>
        <speed>1.4906355</speed>
      </trkpt>
      <trkpt lat="28.8405347" lon="119.4373772">
        <ele>441.48</ele>
        <time>2026-07-21T05:21:34Z</time>
        <speed>1.4957827</speed>
      </trkpt>
      <trkpt lat="28.8405253" lon="119.4374989">
        <ele>439.21</ele>
        <time>2026-07-21T05:21:42Z</time>
        <speed>1.3598961</speed>
      </trkpt>
      <trkpt lat="28.8405622" lon="119.4376185">
        <ele>437.27</ele>
        <time>2026-07-21T05:21:50Z</time>
        <speed>1.2960706</speed>
      </trkpt>
      <trkpt lat="28.840639" lon="119.4377208">
        <ele>436.38</ele>
        <time>2026-07-21T05:21:58Z</time>
        <speed>1.5354164</speed>
      </trkpt>
      <trkpt lat="28.8407262" lon="119.4378005">
        <ele>435.4</ele>
        <time>2026-07-21T05:22:06Z</time>
        <speed>1.4715909</speed>
      </trkpt>
      <trkpt lat="28.840821" lon="119.437863">
        <ele>434.45</ele>
        <time>2026-07-21T05:22:14Z</time>
        <speed>1.4829147</speed>
      </trkpt>
      <trkpt lat="28.8408921" lon="119.4379484">
        <ele>433.1</ele>
        <time>2026-07-21T05:22:22Z</time>
        <speed>1.569388</speed>
      </trkpt>
      <trkpt lat="28.8409379" lon="119.4380566">
        <ele>432.41</ele>
        <time>2026-07-21T05:22:30Z</time>
        <speed>1.4257805</speed>
      </trkpt>
      <trkpt lat="28.8409759" lon="119.4381215">
        <ele>432.32</ele>
        <time>2026-07-21T05:22:44Z</time>
        <speed>0.0</speed>
      </trkpt>
      <trkpt lat="28.8409759" lon="119.4381215">
        <ele>432.32</ele>
        <time>2026-07-21T05:23:51Z</time>
        <speed>0.0</speed>
      </trkpt>
      <extensions>
        <PauseTimes>1784611431000:pause</PauseTimes>
      </extensions>
    </trkseg>
  </trk>
  <wpt lat="28.8399124" lon="119.435049">
    <ele>453.7</ele>
    <time>2026-07-21T04:36:34Z</time>
    <name><![CDATA[停车
        ]]>
    </name>
    <cmt>停车
        </cmt>
    <desc><![CDATA[]]>
    </desc>
    <sym>Flag, Blue</sym>
    <type>user</type>
    <extensions>
      <PosType>0</PosType>
      <Speed>0.7113461</Speed>
      <Accuracy>1.5</Accuracy>
      <Time>1784608594944</Time>
      <description><![CDATA[]]>
      </description>
      <FileId>1646951501</FileId>
      <FileSize>2020562</FileSize>
      <FileType>0</FileType>
    </extensions>
  </wpt>
  <wpt lat="28.8398467" lon="119.4349783">
    <ele>452.2</ele>
    <time>2026-07-21T04:41:54Z</time>
    <name><![CDATA[可溯溪
        ]]>
    </name>
    <cmt>可溯溪
        </cmt>
    <desc><![CDATA[]]>
    </desc>
    <sym>Flag, Blue</sym>
    <type>user</type>
    <extensions>
      <PosType>0</PosType>
      <Speed>0.7242142</Speed>
      <Accuracy>1.5</Accuracy>
      <Time>1784608914949</Time>
      <description><![CDATA[]]>
      </description>
      <FileId>1646951500</FileId>
      <FileSize>1203591</FileSize>
      <FileType>0</FileType>
    </extensions>
  </wpt>
  <wpt lat="28.83976" lon="119.43495">
    <ele>454.7</ele>
    <time>2026-07-21T04:42:56Z</time>
    <name><![CDATA[左转
        ]]>
    </name>
    <cmt>左转
        </cmt>
    <desc><![CDATA[]]>
    </desc>
    <sym>Flag, Blue</sym>
    <type>user</type>
    <extensions>
      <PosType>0</PosType>
      <Speed>0.63002</Speed>
      <Accuracy>1.5</Accuracy>
      <Time>1784608976974</Time>
      <description><![CDATA[]]>
      </description>
      <FileId>1646951498</FileId>
      <FileSize>2053769</FileSize>
      <FileType>0</FileType>
    </extensions>
  </wpt>
  <wpt lat="28.838852" lon="119.4343194">
    <ele>470.9</ele>
    <time>2026-07-21T04:44:40Z</time>
    <name><![CDATA[沿公路走
        ]]>
    </name>
    <cmt>沿公路走
        </cmt>
    <desc><![CDATA[]]>
    </desc>
    <sym>Flag, Blue</sym>
    <type>user</type>
    <extensions>
      <PosType>0</PosType>
      <Speed>1.5251219</Speed>
      <Accuracy>1.7</Accuracy>
      <Time>1784609080932</Time>
      <description><![CDATA[]]>
      </description>
      <FileId>1646951495</FileId>
      <FileSize>1115536</FileSize>
      <FileType>0</FileType>
    </extensions>
  </wpt>
  <wpt lat="28.8353957" lon="119.4334227">
    <ele>534.8</ele>
    <time>2026-07-21T04:51:57Z</time>
    <name><![CDATA[直行
        ]]>
    </name>
    <cmt>直行
        </cmt>
    <desc><![CDATA[]]>
    </desc>
    <sym>Flag, Blue</sym>
    <type>user</type>
    <extensions>
      <PosType>0</PosType>
      <Speed>0.47354445</Speed>
      <Accuracy>1.7</Accuracy>
      <Time>1784609517928</Time>
      <description><![CDATA[]]>
      </description>
      <FileId>1646951494</FileId>
      <FileSize>2359337</FileSize>
      <FileType>0</FileType>
    </extensions>
  </wpt>
  <wpt lat="28.8351719" lon="119.4333399">
    <ele>536.3</ele>
    <time>2026-07-21T04:54:23Z</time>
    <name><![CDATA[野路
        ]]>
    </name>
    <cmt>野路
        </cmt>
    <desc><![CDATA[]]>
    </desc>
    <sym>Flag, Blue</sym>
    <type>user</type>
    <extensions>
      <PosType>0</PosType>
      <Speed>0.64288807</Speed>
      <Accuracy>2.2</Accuracy>
      <Time>1784609663978</Time>
      <description><![CDATA[]]>
      </description>
      <FileId>1646951491</FileId>
      <FileSize>1513851</FileSize>
      <FileType>0</FileType>
    </extensions>
  </wpt>
  <wpt lat="28.8347538" lon="119.4330237">
    <ele>501.7</ele>
    <time>2026-07-21T04:56:53Z</time>
    <name><![CDATA[竹桥
        ]]>
    </name>
    <cmt>竹桥
        </cmt>
    <desc><![CDATA[]]>
    </desc>
    <sym>Flag, Blue</sym>
    <type>user</type>
    <extensions>
      <PosType>0</PosType>
      <Speed>0.5492086</Speed>
      <Accuracy>2.3</Accuracy>
      <Time>1784609813952</Time>
      <description><![CDATA[]]>
      </description>
      <FileId>1646951489</FileId>
      <FileSize>1511773</FileSize>
      <FileType>0</FileType>
    </extensions>
  </wpt>
  <wpt lat="28.8345507" lon="119.4328956">
    <ele>495.7</ele>
    <time>2026-07-21T04:57:53Z</time>
    <name><![CDATA[
        ]]>
    </name>
    <cmt>
        </cmt>
    <desc><![CDATA[]]>
    </desc>
    <sym>Flag, Blue</sym>
    <type>user</type>
    <extensions>
      <PosType>0</PosType>
      <Speed>0.0</Speed>
      <Accuracy>2.4</Accuracy>
      <Time>1784609873971</Time>
      <description><![CDATA[]]>
      </description>
      <FileId>1646951487</FileId>
      <FileSize>1534918</FileSize>
      <FileType>0</FileType>
    </extensions>
  </wpt>
  <wpt lat="28.834359" lon="119.4329467">
    <ele>502.8</ele>
    <time>2026-07-21T04:59:03Z</time>
    <name><![CDATA[双福瀑布
        ]]>
    </name>
    <cmt>双福瀑布
        </cmt>
    <desc><![CDATA[]]>
    </desc>
    <sym>Flag, Blue</sym>
    <type>user</type>
    <extensions>
      <PosType>0</PosType>
      <Speed>0.6104606</Speed>
      <Accuracy>2.1</Accuracy>
      <Time>1784609943978</Time>
      <description><![CDATA[]]>
      </description>
      <FileId>1646951485</FileId>
      <FileSize>1295259</FileSize>
      <FileType>0</FileType>
    </extensions>
  </wpt>
  <wpt lat="28.8345022" lon="119.4329029">
    <ele>523.5</ele>
    <time>2026-07-21T05:06:17Z</time>
    <name><![CDATA[原路返回
        ]]>
    </name>
    <cmt>原路返回
        </cmt>
    <desc><![CDATA[]]>
    </desc>
    <sym>Flag, Blue</sym>
    <type>user</type>
    <extensions>
      <PosType>0</PosType>
      <Speed>0.65678555</Speed>
      <Accuracy>1.9</Accuracy>
      <Time>1784610377942</Time>
      <description><![CDATA[]]>
      </description>
    </extensions>
  </wpt>
</gpx>