<?xml version='1.0' encoding='UTF-8' standalone='yes' ?>
<gpx version="1.1" creator="GPSBabel - http://www.gpsbabel.org" xmlns:xsi="http://www.w3.org/2001/XMLSchema-instance" xmlns="http://www.topografix.com/GPX/1/1" xsi:schemaLocation="http://www.topografix.com/GPX/1/1 http://www.topografix.com/GPX/1/1/gpx.xsd">
  <metadata>
    <link href="http://www.garmin.com">
      <text>Garmin International</text>
    </link>
    <time>2026-05-19T04:51:52Z</time>
    <bounds minlat="29.2237299" minlon="119.6507901" maxlat="29.2339017" maxlon="119.662165" />
  </metadata>
  <extensions>
    <name><![CDATA[大盘尖小环线260519]]>
    </name>
    <description><![CDATA[]]>
    </description>
    <TrackId>84478121</TrackId>
    <TrackTypeId>8</TrackTypeId>
    <TrackTags>徒步</TrackTags>
    <BeginTime>1779166312000</BeginTime>
    <EndTime>1779175007000</EndTime>
    <TimeUsed>8695000</TimeUsed>
    <PauseTime>3209</PauseTime>
    <PosStartName>金华市婺城区罗店镇盘前村塑料棚（2）</PosStartName>
    <PosEndName>金华市婺城区罗店镇盘前村塑料棚（2）</PosEndName>
    <ProductVersion>and_9.0.2</ProductVersion>
    <StartDistrictId>9654</StartDistrictId>
    <EndDistrictId>9654</EndDistrictId>
    <CreaterId>64771087</CreaterId>
    <CreaterName><![CDATA[步履赴山野]]>
    </CreaterName>
    <CreaterIcon>1523534626</CreaterIcon>
    <OriginCreaterId>64771087</OriginCreaterId>
    <OriginCreaterNickname><![CDATA[步履赴山野]]>
    </OriginCreaterNickname>
    <OriginCreaterName><![CDATA[null]]>
    </OriginCreaterName>
    <OriginCreaterIcon>1523534626</OriginCreaterIcon>
    <ThumbnailId>1613718996</ThumbnailId>
    <Distance>4425.0</Distance>
    <ElevationGain>307.4399999999998</ElevationGain>
    <ElevationLoss>316.03</ElevationLoss>
    <SportAvgSpeed>0.5091010586885948</SportAvgSpeed>
  </extensions>
  <trk>
    <trkseg>
      <trkpt lat="29.2239356" lon="119.6589986">
        <ele>1049.2</ele>
        <time>2026-05-19T04:51:53Z</time>
        <speed>0.028824445</speed>
      </trkpt>
      <trkpt lat="29.224065" lon="119.6588183">
        <ele>1049.2</ele>
        <time>2026-05-19T04:52:53Z</time>
        <speed>0.40199804</speed>
      </trkpt>
      <trkpt lat="29.22411" lon="119.6587183">
        <ele>1045.63</ele>
        <time>2026-05-19T04:53:15Z</time>
        <speed>0.5579589</speed>
      </trkpt>
      <trkpt lat="29.2241719" lon="119.6586381">
        <ele>1042.26</ele>
        <time>2026-05-19T04:53:23Z</time>
        <speed>1.0078261</speed>
      </trkpt>
      <trkpt lat="29.2242561" lon="119.6585793">
        <ele>1039.91</ele>
        <time>2026-05-19T04:53:35Z</time>
        <speed>0.9012786</speed>
      </trkpt>
      <trkpt lat="29.2243436" lon="119.6585387">
        <ele>1039.05</ele>
        <time>2026-05-19T04:53:47Z</time>
        <speed>1.0309886</speed>
      </trkpt>
      <trkpt lat="29.2244327" lon="119.6585574">
        <ele>1038.38</ele>
        <time>2026-05-19T04:54:01Z</time>
        <speed>0.6361967</speed>
      </trkpt>
      <trkpt lat="29.2245088" lon="119.6585174">
        <ele>1037.79</ele>
        <time>2026-05-19T04:54:23Z</time>
        <speed>0.7540681</speed>
      </trkpt>
      <trkpt lat="29.2245996" lon="119.6584979">
        <ele>1037.19</ele>
        <time>2026-05-19T04:54:33Z</time>
        <speed>1.0881227</speed>
      </trkpt>
      <trkpt lat="29.2246899" lon="119.6585157">
        <ele>1037.54</ele>
        <time>2026-05-19T04:54:43Z</time>
        <speed>0.89561665</speed>
      </trkpt>
      <trkpt lat="29.2247856" lon="119.6585677">
        <ele>1038.9</ele>
        <time>2026-05-19T04:54:59Z</time>
        <speed>1.1972439</speed>
      </trkpt>
      <trkpt lat="29.2248705" lon="119.6586249">
        <ele>1039.63</ele>
        <time>2026-05-19T04:55:11Z</time>
        <speed>0.7684803</speed>
      </trkpt>
      <trkpt lat="29.2249447" lon="119.6586996">
        <ele>1041.25</ele>
        <time>2026-05-19T04:55:25Z</time>
        <speed>0.9084847</speed>
      </trkpt>
      <trkpt lat="29.2250303" lon="119.6587362">
        <ele>1043.42</ele>
        <time>2026-05-19T04:55:37Z</time>
        <speed>0.7154639</speed>
      </trkpt>
      <trkpt lat="29.2251222" lon="119.6587394">
        <ele>1045.35</ele>
        <time>2026-05-19T04:55:45Z</time>
        <speed>1.0042231</speed>
      </trkpt>
      <trkpt lat="29.2252162" lon="119.6587464">
        <ele>1046.79</ele>
        <time>2026-05-19T04:55:55Z</time>
        <speed>1.0567247</speed>
      </trkpt>
      <trkpt lat="29.2253129" lon="119.6587859">
        <ele>1048.52</ele>
        <time>2026-05-19T04:56:05Z</time>
        <speed>1.1658459</speed>
      </trkpt>
      <trkpt lat="29.2254104" lon="119.6588284">
        <ele>1050.14</ele>
        <time>2026-05-19T04:56:15Z</time>
        <speed>1.2363628</speed>
      </trkpt>
      <trkpt lat="29.2255039" lon="119.6588821">
        <ele>1050.86</ele>
        <time>2026-05-19T04:56:25Z</time>
        <speed>0.9259853</speed>
      </trkpt>
      <trkpt lat="29.2255821" lon="119.6589514">
        <ele>1051.61</ele>
        <time>2026-05-19T04:56:33Z</time>
        <speed>1.3459986</speed>
      </trkpt>
      <trkpt lat="29.2256722" lon="119.6589792">
        <ele>1051.09</ele>
        <time>2026-05-19T04:56:45Z</time>
        <speed>1.1519483</speed>
      </trkpt>
      <trkpt lat="29.2257564" lon="119.6589365">
        <ele>1050.49</ele>
        <time>2026-05-19T04:56:55Z</time>
        <speed>1.071137</speed>
      </trkpt>
      <trkpt lat="29.225847" lon="119.6588709">
        <ele>1051.27</ele>
        <time>2026-05-19T04:57:07Z</time>
        <speed>0.9228969</speed>
      </trkpt>
      <trkpt lat="29.2259251" lon="119.6587965">
        <ele>1053.65</ele>
        <time>2026-05-19T04:57:27Z</time>
        <speed>0.6809775</speed>
      </trkpt>
      <trkpt lat="29.2259758" lon="119.6586964">
        <ele>1057.41</ele>
        <time>2026-05-19T04:57:55Z</time>
        <speed>0.4843536</speed>
      </trkpt>
      <trkpt lat="29.2260523" lon="119.6586444">
        <ele>1060.38</ele>
        <time>2026-05-19T04:58:05Z</time>
        <speed>0.9167203</speed>
      </trkpt>
      <trkpt lat="29.2261511" lon="119.6586291">
        <ele>1062.75</ele>
        <time>2026-05-19T04:58:27Z</time>
        <speed>0.4869272</speed>
      </trkpt>
      <trkpt lat="29.2262465" lon="119.6586233">
        <ele>1066.04</ele>
        <time>2026-05-19T04:58:35Z</time>
        <speed>0.89973444</speed>
      </trkpt>
      <trkpt lat="29.226344" lon="119.6586536">
        <ele>1068.91</ele>
        <time>2026-05-19T04:58:45Z</time>
        <speed>0.9198086</speed>
      </trkpt>
      <trkpt lat="29.2264431" lon="119.6586838">
        <ele>1072.3</ele>
        <time>2026-05-19T04:58:55Z</time>
        <speed>0.98569304</speed>
      </trkpt>
      <trkpt lat="29.2265285" lon="119.6587435">
        <ele>1076.43</ele>
        <time>2026-05-19T04:59:05Z</time>
        <speed>0.935765</speed>
      </trkpt>
      <trkpt lat="29.2266036" lon="119.6588199">
        <ele>1080.98</ele>
        <time>2026-05-19T04:59:19Z</time>
        <speed>0.7633331</speed>
      </trkpt>
      <trkpt lat="29.2266855" lon="119.658885">
        <ele>1084.82</ele>
        <time>2026-05-19T04:59:33Z</time>
        <speed>0.5955336</speed>
      </trkpt>
      <trkpt lat="29.2267671" lon="119.6589399">
        <ele>1087.69</ele>
        <time>2026-05-19T04:59:47Z</time>
        <speed>0.55487055</speed>
      </trkpt>
      <trkpt lat="29.2268611" lon="119.6589918">
        <ele>1091.05</ele>
        <time>2026-05-19T05:00:39Z</time>
        <speed>0.6238433</speed>
      </trkpt>
      <trkpt lat="29.2269297" lon="119.659063">
        <ele>1090.04</ele>
        <time>2026-05-19T05:00:51Z</time>
        <speed>0.7808336</speed>
      </trkpt>
      <trkpt lat="29.2270109" lon="119.6591013">
        <ele>1090.24</ele>
        <time>2026-05-19T05:01:13Z</time>
        <speed>0.63156414</speed>
      </trkpt>
      <trkpt lat="29.2270977" lon="119.6591644">
        <ele>1090.48</ele>
        <time>2026-05-19T05:01:33Z</time>
        <speed>0.0</speed>
      </trkpt>
      <trkpt lat="29.2271865" lon="119.6592128">
        <ele>1091.95</ele>
        <time>2026-05-19T05:01:45Z</time>
        <speed>0.7890692</speed>
      </trkpt>
      <trkpt lat="29.2272856" lon="119.6592351">
        <ele>1093.86</ele>
        <time>2026-05-19T05:02:05Z</time>
        <speed>1.05621</speed>
      </trkpt>
      <trkpt lat="29.2273306" lon="119.6592383">
        <ele>1098.14</ele>
        <time>2026-05-19T05:02:21Z</time>
        <speed>0.0</speed>
      </trkpt>
      <trkpt lat="29.2273951" lon="119.6591887">
        <ele>1102.04</ele>
        <time>2026-05-19T05:02:51Z</time>
        <speed>0.37162945</speed>
      </trkpt>
      <trkpt lat="29.2274819" lon="119.659143">
        <ele>1104.56</ele>
        <time>2026-05-19T05:03:09Z</time>
        <speed>0.583695</speed>
      </trkpt>
      <trkpt lat="29.2275809" lon="119.6591063">
        <ele>1106.9</ele>
        <time>2026-05-19T05:03:23Z</time>
        <speed>0.68612474</speed>
      </trkpt>
      <trkpt lat="29.227677" lon="119.6590699">
        <ele>1108.84</ele>
        <time>2026-05-19T05:03:55Z</time>
        <speed>1.0001053</speed>
      </trkpt>
      <trkpt lat="29.227722" lon="119.6590502">
        <ele>1111.83</ele>
        <time>2026-05-19T05:04:07Z</time>
        <speed>0.0</speed>
      </trkpt>
      <trkpt lat="29.2277916" lon="119.6590045">
        <ele>1115.22</ele>
        <time>2026-05-19T05:04:35Z</time>
        <speed>0.43030778</speed>
      </trkpt>
      <trkpt lat="29.2278678" lon="119.6589471">
        <ele>1119.6</ele>
        <time>2026-05-19T05:04:47Z</time>
        <speed>0.69178665</speed>
      </trkpt>
      <trkpt lat="29.2279589" lon="119.6589491">
        <ele>1123.3</ele>
        <time>2026-05-19T05:05:17Z</time>
        <speed>0.5054572</speed>
      </trkpt>
      <trkpt lat="29.2280538" lon="119.658979">
        <ele>1130.87</ele>
        <time>2026-05-19T05:05:35Z</time>
        <speed>0.0</speed>
      </trkpt>
      <trkpt lat="29.2281504" lon="119.6589814">
        <ele>1137.42</ele>
        <time>2026-05-19T05:05:53Z</time>
        <speed>0.68200696</speed>
      </trkpt>
      <trkpt lat="29.2282383" lon="119.659025">
        <ele>1143.95</ele>
        <time>2026-05-19T05:07:59Z</time>
        <speed>0.0</speed>
      </trkpt>
      <trkpt lat="29.2283283" lon="119.6590267">
        <ele>1148.53</ele>
        <time>2026-05-19T05:08:09Z</time>
        <speed>0.79627526</speed>
      </trkpt>
      <trkpt lat="29.2284169" lon="119.6590551">
        <ele>1152.56</ele>
        <time>2026-05-19T05:09:03Z</time>
        <speed>0.0</speed>
      </trkpt>
      <trkpt lat="29.2285053" lon="119.6590317">
        <ele>1160.06</ele>
        <time>2026-05-19T05:09:33Z</time>
        <speed>0.4534703</speed>
      </trkpt>
      <trkpt lat="29.228575" lon="119.6590967">
        <ele>1166.79</ele>
        <time>2026-05-19T05:10:45Z</time>
        <speed>0.37574723</speed>
      </trkpt>
      <trkpt lat="29.228635" lon="119.6591783">
        <ele>1172.43</ele>
        <time>2026-05-19T05:10:57Z</time>
        <speed>0.7175228</speed>
      </trkpt>
      <trkpt lat="29.2287176" lon="119.659236">
        <ele>1175.56</ele>
        <time>2026-05-19T05:11:49Z</time>
        <speed>0.29956833</speed>
      </trkpt>
      <trkpt lat="29.228808" lon="119.659265">
        <ele>1179.79</ele>
        <time>2026-05-19T05:12:11Z</time>
        <speed>0.4997953</speed>
      </trkpt>
      <trkpt lat="29.2289072" lon="119.6592599">
        <ele>1184.35</ele>
        <time>2026-05-19T05:13:07Z</time>
        <speed>0.40920416</speed>
      </trkpt>
      <trkpt lat="29.2290091" lon="119.6592899">
        <ele>1191.26</ele>
        <time>2026-05-19T05:13:17Z</time>
        <speed>0.9676778</speed>
      </trkpt>
      <trkpt lat="29.2290886" lon="119.6593706">
        <ele>1196.22</ele>
        <time>2026-05-19T05:13:59Z</time>
        <speed>0.46530887</speed>
      </trkpt>
      <trkpt lat="29.2291891" lon="119.6594282">
        <ele>1202.23</ele>
        <time>2026-05-19T05:14:15Z</time>
        <speed>0.7298761</speed>
      </trkpt>
      <trkpt lat="29.229292" lon="119.6594344">
        <ele>1207.21</ele>
        <time>2026-05-19T05:14:29Z</time>
        <speed>0.6830364</speed>
      </trkpt>
      <trkpt lat="29.2293787" lon="119.659394">
        <ele>1212.11</ele>
        <time>2026-05-19T05:14:41Z</time>
        <speed>0.65627086</speed>
      </trkpt>
      <trkpt lat="29.2294591" lon="119.6593216">
        <ele>1217.4</ele>
        <time>2026-05-19T05:15:13Z</time>
        <speed>0.5687681</speed>
      </trkpt>
      <trkpt lat="29.229534" lon="119.6592366">
        <ele>1222.95</ele>
        <time>2026-05-19T05:16:13Z</time>
        <speed>0.71855223</speed>
      </trkpt>
      <trkpt lat="29.2296151" lon="119.6591645">
        <ele>1228.0</ele>
        <time>2026-05-19T05:16:27Z</time>
        <speed>0.80039304</speed>
      </trkpt>
      <trkpt lat="29.2297091" lon="119.6591437">
        <ele>1232.43</ele>
        <time>2026-05-19T05:16:43Z</time>
        <speed>0.6248728</speed>
      </trkpt>
      <trkpt lat="29.2298078" lon="119.6591738">
        <ele>1237.58</ele>
        <time>2026-05-19T05:16:55Z</time>
        <speed>0.87245417</speed>
      </trkpt>
      <trkpt lat="29.2298964" lon="119.659126">
        <ele>1241.93</ele>
        <time>2026-05-19T05:17:11Z</time>
        <speed>0.8621597</speed>
      </trkpt>
      <trkpt lat="29.229993" lon="119.6591009">
        <ele>1245.62</ele>
        <time>2026-05-19T05:17:23Z</time>
        <speed>0.9615011</speed>
      </trkpt>
      <trkpt lat="29.230085" lon="119.6591267">
        <ele>1248.28</ele>
        <time>2026-05-19T05:19:53Z</time>
        <speed>0.80039304</speed>
      </trkpt>
      <trkpt lat="29.2301067" lon="119.6592317">
        <ele>1247.0</ele>
        <time>2026-05-19T05:20:03Z</time>
        <speed>1.0922406</speed>
      </trkpt>
      <trkpt lat="29.2301749" lon="119.6593071">
        <ele>1245.58</ele>
        <time>2026-05-19T05:20:13Z</time>
        <speed>0.9203233</speed>
      </trkpt>
      <trkpt lat="29.23025" lon="119.6593862">
        <ele>1244.73</ele>
        <time>2026-05-19T05:20:21Z</time>
        <speed>1.3696759</speed>
      </trkpt>
      <trkpt lat="29.230305" lon="119.6593999">
        <ele>1243.34</ele>
        <time>2026-05-19T05:20:35Z</time>
        <speed>0.0</speed>
      </trkpt>
      <trkpt lat="29.2303932" lon="119.6593803">
        <ele>1242.25</ele>
        <time>2026-05-19T05:20:59Z</time>
        <speed>1.0582689</speed>
      </trkpt>
      <trkpt lat="29.2304087" lon="119.6593584">
        <ele>1241.58</ele>
        <time>2026-05-19T05:21:07Z</time>
        <speed>0.0</speed>
      </trkpt>
      <trkpt lat="29.230485" lon="119.659385">
        <ele>1242.15</ele>
        <time>2026-05-19T05:22:15Z</time>
        <speed>0.39993918</speed>
      </trkpt>
      <trkpt lat="29.23058" lon="119.6593867">
        <ele>1243.81</ele>
        <time>2026-05-19T05:22:25Z</time>
        <speed>1.065475</speed>
      </trkpt>
      <trkpt lat="29.2306271" lon="119.6593855">
        <ele>1245.05</ele>
        <time>2026-05-19T05:22:37Z</time>
        <speed>0.0</speed>
      </trkpt>
      <trkpt lat="29.2307081" lon="119.6593723">
        <ele>1245.93</ele>
        <time>2026-05-19T05:22:49Z</time>
        <speed>0.86061555</speed>
      </trkpt>
      <trkpt lat="29.2308082" lon="119.6593665">
        <ele>1247.04</ele>
        <time>2026-05-19T05:23:05Z</time>
        <speed>0.48950082</speed>
      </trkpt>
      <trkpt lat="29.2309049" lon="119.6593789">
        <ele>1248.61</ele>
        <time>2026-05-19T05:23:15Z</time>
        <speed>1.0119439</speed>
      </trkpt>
      <trkpt lat="29.2309928" lon="119.6594179">
        <ele>1250.84</ele>
        <time>2026-05-19T05:23:25Z</time>
        <speed>0.8621597</speed>
      </trkpt>
      <trkpt lat="29.2310668" lon="119.659487">
        <ele>1253.75</ele>
        <time>2026-05-19T05:23:39Z</time>
        <speed>0.9604717</speed>
      </trkpt>
      <trkpt lat="29.231151" lon="119.659545">
        <ele>1257.17</ele>
        <time>2026-05-19T05:23:49Z</time>
        <speed>1.0088556</speed>
      </trkpt>
      <trkpt lat="29.2312223" lon="119.6595912">
        <ele>1259.38</ele>
        <time>2026-05-19T05:24:05Z</time>
        <speed>0.0</speed>
      </trkpt>
      <trkpt lat="29.231295" lon="119.6595333">
        <ele>1260.29</ele>
        <time>2026-05-19T05:32:13Z</time>
        <speed>0.47354445</speed>
      </trkpt>
      <trkpt lat="29.2312883" lon="119.6596517">
        <ele>1260.98</ele>
        <time>2026-05-19T05:33:11Z</time>
        <speed>0.74017054</speed>
      </trkpt>
      <trkpt lat="29.2313367" lon="119.6597376">
        <ele>1261.21</ele>
        <time>2026-05-19T05:33:17Z</time>
        <speed>1.3207772</speed>
      </trkpt>
      <trkpt lat="29.2314063" lon="119.659828">
        <ele>1261.12</ele>
        <time>2026-05-19T05:33:25Z</time>
        <speed>1.3918089</speed>
      </trkpt>
      <trkpt lat="29.2314729" lon="119.6599072">
        <ele>1261.02</ele>
        <time>2026-05-19T05:33:31Z</time>
        <speed>1.6893183</speed>
      </trkpt>
      <trkpt lat="29.2315157" lon="119.6599876">
        <ele>1260.88</ele>
        <time>2026-05-19T05:33:45Z</time>
        <speed>0.0</speed>
      </trkpt>
      <trkpt lat="29.2315637" lon="119.6601006">
        <ele>1260.93</ele>
        <time>2026-05-19T05:33:55Z</time>
        <speed>1.4201186</speed>
      </trkpt>
      <trkpt lat="29.2316006" lon="119.6602159">
        <ele>1260.88</ele>
        <time>2026-05-19T05:34:09Z</time>
        <speed>0.75870055</speed>
      </trkpt>
      <trkpt lat="29.2316159" lon="119.6603242">
        <ele>1260.67</ele>
        <time>2026-05-19T05:34:17Z</time>
        <speed>1.2430542</speed>
      </trkpt>
      <trkpt lat="29.2316402" lon="119.6604416">
        <ele>1260.04</ele>
        <time>2026-05-19T05:34:25Z</time>
        <speed>1.3717347</speed>
      </trkpt>
      <trkpt lat="29.2316857" lon="119.6605446">
        <ele>1260.06</ele>
        <time>2026-05-19T05:34:33Z</time>
        <speed>1.6131394</speed>
      </trkpt>
      <trkpt lat="29.2317404" lon="119.6606481">
        <ele>1260.25</ele>
        <time>2026-05-19T05:34:43Z</time>
        <speed>1.3104827</speed>
      </trkpt>
      <trkpt lat="29.2318063" lon="119.6607384">
        <ele>1259.93</ele>
        <time>2026-05-19T05:34:53Z</time>
        <speed>1.0392241</speed>
      </trkpt>
      <trkpt lat="29.231874" lon="119.660823">
        <ele>1258.37</ele>
        <time>2026-05-19T05:35:07Z</time>
        <speed>0.74377364</speed>
      </trkpt>
      <trkpt lat="29.231955" lon="119.6608962">
        <ele>1256.02</ele>
        <time>2026-05-19T05:35:17Z</time>
        <speed>1.3073944</speed>
      </trkpt>
      <trkpt lat="29.2320226" lon="119.6609761">
        <ele>1253.99</ele>
        <time>2026-05-19T05:35:25Z</time>
        <speed>1.5760795</speed>
      </trkpt>
      <trkpt lat="29.2320566" lon="119.6610206">
        <ele>1252.96</ele>
        <time>2026-05-19T05:35:39Z</time>
        <speed>0.0</speed>
      </trkpt>
      <trkpt lat="29.2321298" lon="119.6610674">
        <ele>1251.77</ele>
        <time>2026-05-19T05:36:01Z</time>
        <speed>0.5394289</speed>
      </trkpt>
      <trkpt lat="29.23221" lon="119.6611217">
        <ele>1252.13</ele>
        <time>2026-05-19T05:37:11Z</time>
        <speed>0.5862686</speed>
      </trkpt>
      <trkpt lat="29.2323083" lon="119.6611167">
        <ele>1254.48</ele>
        <time>2026-05-19T05:38:11Z</time>
        <speed>0.7123756</speed>
      </trkpt>
      <trkpt lat="29.2323933" lon="119.6611533">
        <ele>1257.97</ele>
        <time>2026-05-19T05:38:37Z</time>
        <speed>0.59090114</speed>
      </trkpt>
      <trkpt lat="29.2324854" lon="119.6611829">
        <ele>1260.82</ele>
        <time>2026-05-19T05:38:51Z</time>
        <speed>0.8039961</speed>
      </trkpt>
      <trkpt lat="29.2325813" lon="119.66121">
        <ele>1263.74</ele>
        <time>2026-05-19T05:39:01Z</time>
        <speed>0.8518653</speed>
      </trkpt>
      <trkpt lat="29.232657" lon="119.6612726">
        <ele>1267.21</ele>
        <time>2026-05-19T05:39:17Z</time>
        <speed>0.97848696</speed>
      </trkpt>
      <trkpt lat="29.2327366" lon="119.6613257">
        <ele>1270.47</ele>
        <time>2026-05-19T05:39:27Z</time>
        <speed>0.9362797</speed>
      </trkpt>
      <trkpt lat="29.2328135" lon="119.6613812">
        <ele>1273.41</ele>
        <time>2026-05-19T05:39:39Z</time>
        <speed>0.79627526</speed>
      </trkpt>
      <trkpt lat="29.232887" lon="119.6614408">
        <ele>1276.2</ele>
        <time>2026-05-19T05:39:51Z</time>
        <speed>0.7926722</speed>
      </trkpt>
      <trkpt lat="29.2329559" lon="119.6615104">
        <ele>1278.65</ele>
        <time>2026-05-19T05:40:07Z</time>
        <speed>0.78803974</speed>
      </trkpt>
      <trkpt lat="29.233006" lon="119.6615994">
        <ele>1279.96</ele>
        <time>2026-05-19T05:40:35Z</time>
        <speed>0.6814922</speed>
      </trkpt>
      <trkpt lat="29.2330633" lon="119.6616867">
        <ele>1282.09</ele>
        <time>2026-05-19T05:42:11Z</time>
        <speed>0.5044278</speed>
      </trkpt>
      <trkpt lat="29.2331333" lon="119.6617867">
        <ele>1286.7</ele>
        <time>2026-05-19T05:42:21Z</time>
        <speed>1.2018764</speed>
      </trkpt>
      <trkpt lat="29.2332231" lon="119.6618472">
        <ele>1290.05</ele>
        <time>2026-05-19T05:42:27Z</time>
        <speed>1.8746183</speed>
      </trkpt>
      <trkpt lat="29.2333189" lon="119.6618557">
        <ele>1294.07</ele>
        <time>2026-05-19T05:42:35Z</time>
        <speed>1.547255</speed>
      </trkpt>
      <trkpt lat="29.2333603" lon="119.6618327">
        <ele>1299.07</ele>
        <time>2026-05-19T05:42:49Z</time>
        <speed>0.0</speed>
      </trkpt>
      <trkpt lat="29.2333767" lon="119.6619133">
        <ele>1303.0</ele>
        <time>2026-05-19T05:46:35Z</time>
        <speed>0.81480527</speed>
      </trkpt>
      <trkpt lat="29.233465" lon="119.6619483">
        <ele>1304.55</ele>
        <time>2026-05-19T05:46:47Z</time>
        <speed>0.8683364</speed>
      </trkpt>
      <trkpt lat="29.2335618" lon="119.6620073">
        <ele>1306.94</ele>
        <time>2026-05-19T05:46:59Z</time>
        <speed>1.1437128</speed>
      </trkpt>
      <trkpt lat="29.2336524" lon="119.6620487">
        <ele>1310.1</ele>
        <time>2026-05-19T05:47:03Z</time>
        <speed>1.773218</speed>
      </trkpt>
      <trkpt lat="29.2337498" lon="119.6620909">
        <ele>1312.94</ele>
        <time>2026-05-19T05:47:09Z</time>
        <speed>2.1654365</speed>
      </trkpt>
      <trkpt lat="29.233766" lon="119.6621311">
        <ele>1316.67</ele>
        <time>2026-05-19T05:47:25Z</time>
        <speed>0.0</speed>
      </trkpt>
      <trkpt lat="29.2336517" lon="119.6621083">
        <ele>1319.99</ele>
        <time>2026-05-19T05:50:03Z</time>
        <speed>0.55332637</speed>
      </trkpt>
      <trkpt lat="29.2337367" lon="119.66215">
        <ele>1320.25</ele>
        <time>2026-05-19T05:53:25Z</time>
        <speed>0.47200027</speed>
      </trkpt>
      <trkpt lat="29.23379" lon="119.66205">
        <ele>1321.78</ele>
        <time>2026-05-19T05:53:51Z</time>
        <speed>1.5251219</speed>
      </trkpt>
      <trkpt lat="29.2337517" lon="119.662005">
        <ele>1320.37</ele>
        <time>2026-05-19T05:54:23Z</time>
        <speed>0.0</speed>
      </trkpt>
      <trkpt lat="29.233825" lon="119.6620667">
        <ele>1319.39</ele>
        <time>2026-05-19T05:55:55Z</time>
        <speed>1.3969561</speed>
      </trkpt>
      <trkpt lat="29.2339017" lon="119.662125">
        <ele>1319.57</ele>
        <time>2026-05-19T05:56:09Z</time>
        <speed>0.8359089</speed>
      </trkpt>
      <trkpt lat="29.2338183" lon="119.662165">
        <ele>1320.18</ele>
        <time>2026-05-19T05:58:17Z</time>
        <speed>0.5785478</speed>
      </trkpt>
      <trkpt lat="29.2338333" lon="119.6620617">
        <ele>1319.07</ele>
        <time>2026-05-19T05:59:49Z</time>
        <speed>0.33662835</speed>
      </trkpt>
      <trkpt lat="29.2337367" lon="119.6620933">
        <ele>1319.34</ele>
        <time>2026-05-19T06:00:31Z</time>
        <speed>1.0520922</speed>
      </trkpt>
      <trkpt lat="29.2337246" lon="119.6620883">
        <ele>1319.88</ele>
        <time>2026-05-19T06:00:43Z</time>
        <speed>0.0</speed>
      </trkpt>
      <trkpt lat="29.2336467" lon="119.6620433">
        <ele>1320.92</ele>
        <time>2026-05-19T06:03:25Z</time>
        <speed>0.8786308</speed>
      </trkpt>
      <trkpt lat="29.2335617" lon="119.6619983">
        <ele>1321.17</ele>
        <time>2026-05-19T06:03:35Z</time>
        <speed>1.0834903</speed>
      </trkpt>
      <trkpt lat="29.2334851" lon="119.6619533">
        <ele>1319.51</ele>
        <time>2026-05-19T06:03:55Z</time>
        <speed>0.0</speed>
      </trkpt>
      <trkpt lat="29.2333805" lon="119.6619173">
        <ele>1317.65</ele>
        <time>2026-05-19T06:04:31Z</time>
        <speed>1.210112</speed>
      </trkpt>
      <trkpt lat="29.2332784" lon="119.6618653">
        <ele>1315.57</ele>
        <time>2026-05-19T06:04:37Z</time>
        <speed>1.9580033</speed>
      </trkpt>
      <trkpt lat="29.233178" lon="119.6618248">
        <ele>1312.96</ele>
        <time>2026-05-19T06:04:43Z</time>
        <speed>2.0300643</speed>
      </trkpt>
      <trkpt lat="29.2330937" lon="119.6617703">
        <ele>1309.36</ele>
        <time>2026-05-19T06:04:49Z</time>
        <speed>1.9863131</speed>
      </trkpt>
      <trkpt lat="29.2330431" lon="119.6616666">
        <ele>1305.16</ele>
        <time>2026-05-19T06:04:57Z</time>
        <speed>1.6604939</speed>
      </trkpt>
      <trkpt lat="29.2330415" lon="119.6616331">
        <ele>1300.58</ele>
        <time>2026-05-19T06:05:09Z</time>
        <speed>0.0</speed>
      </trkpt>
      <trkpt lat="29.2331433" lon="119.66158">
        <ele>1297.45</ele>
        <time>2026-05-19T06:09:15Z</time>
        <speed>0.41023362</speed>
      </trkpt>
      <trkpt lat="29.23307" lon="119.6616417">
        <ele>1295.49</ele>
        <time>2026-05-19T06:09:35Z</time>
        <speed>0.8292175</speed>
      </trkpt>
      <trkpt lat="29.232995" lon="119.661555">
        <ele>1295.67</ele>
        <time>2026-05-19T06:11:01Z</time>
        <speed>0.2733175</speed>
      </trkpt>
      <trkpt lat="29.23291" lon="119.6614983">
        <ele>1292.93</ele>
        <time>2026-05-19T06:11:21Z</time>
        <speed>0.9496625</speed>
      </trkpt>
      <trkpt lat="29.2328208" lon="119.6614262">
        <ele>1289.13</ele>
        <time>2026-05-19T06:11:49Z</time>
        <speed>0.5229578</speed>
      </trkpt>
      <trkpt lat="29.2327552" lon="119.6613474">
        <ele>1284.82</ele>
        <time>2026-05-19T06:12:07Z</time>
        <speed>0.6588445</speed>
      </trkpt>
      <trkpt lat="29.232672" lon="119.6612965">
        <ele>1281.24</ele>
        <time>2026-05-19T06:12:23Z</time>
        <speed>0.8693658</speed>
      </trkpt>
      <trkpt lat="29.2326005" lon="119.6612299">
        <ele>1278.73</ele>
        <time>2026-05-19T06:12:35Z</time>
        <speed>0.9939286</speed>
      </trkpt>
      <trkpt lat="29.2325174" lon="119.6611827">
        <ele>1277.38</ele>
        <time>2026-05-19T06:12:49Z</time>
        <speed>0.7741422</speed>
      </trkpt>
      <trkpt lat="29.2324232" lon="119.6611792">
        <ele>1276.23</ele>
        <time>2026-05-19T06:13:13Z</time>
        <speed>0.54251724</speed>
      </trkpt>
      <trkpt lat="29.2323367" lon="119.6611219">
        <ele>1275.01</ele>
        <time>2026-05-19T06:13:37Z</time>
        <speed>0.59296</speed>
      </trkpt>
      <trkpt lat="29.2322476" lon="119.6611021">
        <ele>1273.67</ele>
        <time>2026-05-19T06:14:13Z</time>
        <speed>0.3500111</speed>
      </trkpt>
      <trkpt lat="29.2321667" lon="119.66106">
        <ele>1269.56</ele>
        <time>2026-05-19T06:16:27Z</time>
        <speed>0.50082475</speed>
      </trkpt>
      <trkpt lat="29.2320617" lon="119.6609983">
        <ele>1265.53</ele>
        <time>2026-05-19T06:16:43Z</time>
        <speed>0.9198086</speed>
      </trkpt>
      <trkpt lat="29.2319947" lon="119.6609212">
        <ele>1262.46</ele>
        <time>2026-05-19T06:16:51Z</time>
        <speed>1.1792287</speed>
      </trkpt>
      <trkpt lat="29.2319101" lon="119.660858">
        <ele>1260.72</ele>
        <time>2026-05-19T06:17:01Z</time>
        <speed>0.9862078</speed>
      </trkpt>
      <trkpt lat="29.2318477" lon="119.660774">
        <ele>1259.16</ele>
        <time>2026-05-19T06:17:09Z</time>
        <speed>0.99238443</speed>
      </trkpt>
      <trkpt lat="29.2317684" lon="119.6607073">
        <ele>1257.59</ele>
        <time>2026-05-19T06:17:17Z</time>
        <speed>1.1982733</speed>
      </trkpt>
      <trkpt lat="29.2316929" lon="119.6606266">
        <ele>1256.65</ele>
        <time>2026-05-19T06:17:25Z</time>
        <speed>1.3439398</speed>
      </trkpt>
      <trkpt lat="29.2316405" lon="119.6605239">
        <ele>1257.19</ele>
        <time>2026-05-19T06:17:33Z</time>
        <speed>1.4180597</speed>
      </trkpt>
      <trkpt lat="29.2315939" lon="119.6604176">
        <ele>1257.88</ele>
        <time>2026-05-19T06:17:41Z</time>
        <speed>1.4582081</speed>
      </trkpt>
      <trkpt lat="29.2315682" lon="119.6603014">
        <ele>1258.58</ele>
        <time>2026-05-19T06:17:49Z</time>
        <speed>1.4226922</speed>
      </trkpt>
      <trkpt lat="29.2315616" lon="119.6601826">
        <ele>1259.28</ele>
        <time>2026-05-19T06:17:57Z</time>
        <speed>1.3562931</speed>
      </trkpt>
      <trkpt lat="29.2315403" lon="119.6600639">
        <ele>1259.8</ele>
        <time>2026-05-19T06:18:07Z</time>
        <speed>1.3444544</speed>
      </trkpt>
      <trkpt lat="29.2315192" lon="119.6599585">
        <ele>1260.06</ele>
        <time>2026-05-19T06:18:15Z</time>
        <speed>1.2765111</speed>
      </trkpt>
      <trkpt lat="29.2314654" lon="119.6598658">
        <ele>1261.2</ele>
        <time>2026-05-19T06:18:23Z</time>
        <speed>1.2543781</speed>
      </trkpt>
      <trkpt lat="29.2313958" lon="119.6597884">
        <ele>1261.89</ele>
        <time>2026-05-19T06:18:31Z</time>
        <speed>1.1931261</speed>
      </trkpt>
      <trkpt lat="29.231317" lon="119.6597233">
        <ele>1262.62</ele>
        <time>2026-05-19T06:18:39Z</time>
        <speed>1.3562931</speed>
      </trkpt>
      <trkpt lat="29.2312706" lon="119.6596349">
        <ele>1263.47</ele>
        <time>2026-05-19T06:18:47Z</time>
        <speed>1.3995297</speed>
      </trkpt>
      <trkpt lat="29.2312023" lon="119.659568">
        <ele>1264.22</ele>
        <time>2026-05-19T06:19:05Z</time>
        <speed>0.8106875</speed>
      </trkpt>
      <trkpt lat="29.2311163" lon="119.6595181">
        <ele>1264.9</ele>
        <time>2026-05-19T06:19:15Z</time>
        <speed>1.0937847</speed>
      </trkpt>
      <trkpt lat="29.2310345" lon="119.6594649">
        <ele>1265.46</ele>
        <time>2026-05-19T06:19:25Z</time>
        <speed>1.0124586</speed>
      </trkpt>
      <trkpt lat="29.2309581" lon="119.6594053">
        <ele>1265.3</ele>
        <time>2026-05-19T06:19:33Z</time>
        <speed>1.2548928</speed>
      </trkpt>
      <trkpt lat="29.2308703" lon="119.6593691">
        <ele>1264.83</ele>
        <time>2026-05-19T06:19:41Z</time>
        <speed>1.1797433</speed>
      </trkpt>
      <trkpt lat="29.2307758" lon="119.659359">
        <ele>1263.7</ele>
        <time>2026-05-19T06:19:49Z</time>
        <speed>1.1781992</speed>
      </trkpt>
      <trkpt lat="29.230682" lon="119.659366">
        <ele>1262.37</ele>
        <time>2026-05-19T06:19:59Z</time>
        <speed>1.030474</speed>
      </trkpt>
      <trkpt lat="29.2305853" lon="119.6593796">
        <ele>1259.97</ele>
        <time>2026-05-19T06:20:17Z</time>
        <speed>0.44163167</speed>
      </trkpt>
      <trkpt lat="29.2304892" lon="119.6593773">
        <ele>1257.62</ele>
        <time>2026-05-19T06:20:27Z</time>
        <speed>1.1184914</speed>
      </trkpt>
      <trkpt lat="29.2303924" lon="119.6593377">
        <ele>1256.02</ele>
        <time>2026-05-19T06:20:37Z</time>
        <speed>1.2255536</speed>
      </trkpt>
      <trkpt lat="29.2303655" lon="119.6593321">
        <ele>1255.8</ele>
        <time>2026-05-19T06:20:49Z</time>
        <speed>0.0</speed>
      </trkpt>
      <trkpt lat="29.2303156" lon="119.6592635">
        <ele>1255.75</ele>
        <time>2026-05-19T06:21:27Z</time>
        <speed>1.282173</speed>
      </trkpt>
      <trkpt lat="29.2302659" lon="119.659156">
        <ele>1253.58</ele>
        <time>2026-05-19T06:21:35Z</time>
        <speed>1.5040183</speed>
      </trkpt>
      <trkpt lat="29.2302419" lon="119.6590399">
        <ele>1250.92</ele>
        <time>2026-05-19T06:21:43Z</time>
        <speed>1.3835733</speed>
      </trkpt>
      <trkpt lat="29.2302206" lon="119.6589306">
        <ele>1248.2</ele>
        <time>2026-05-19T06:22:01Z</time>
        <speed>0.40354222</speed>
      </trkpt>
      <trkpt lat="29.2301861" lon="119.6588238">
        <ele>1245.58</ele>
        <time>2026-05-19T06:22:11Z</time>
        <speed>1.1298152</speed>
      </trkpt>
      <trkpt lat="29.2301484" lon="119.6587189">
        <ele>1243.91</ele>
        <time>2026-05-19T06:22:23Z</time>
        <speed>0.9522361</speed>
      </trkpt>
      <trkpt lat="29.2301233" lon="119.658615">
        <ele>1242.74</ele>
        <time>2026-05-19T06:22:31Z</time>
        <speed>1.0253266</speed>
      </trkpt>
      <trkpt lat="29.2300845" lon="119.6585077">
        <ele>1241.39</ele>
        <time>2026-05-19T06:22:43Z</time>
        <speed>1.0176058</speed>
      </trkpt>
      <trkpt lat="29.2300738" lon="119.6583955">
        <ele>1239.42</ele>
        <time>2026-05-19T06:22:53Z</time>
        <speed>0.9198086</speed>
      </trkpt>
      <trkpt lat="29.2300865" lon="119.6582867">
        <ele>1237.17</ele>
        <time>2026-05-19T06:23:05Z</time>
        <speed>0.7674508</speed>
      </trkpt>
      <trkpt lat="29.2301038" lon="119.6581808">
        <ele>1235.29</ele>
        <time>2026-05-19T06:23:15Z</time>
        <speed>0.9198086</speed>
      </trkpt>
      <trkpt lat="29.2301497" lon="119.6580746">
        <ele>1233.75</ele>
        <time>2026-05-19T06:23:27Z</time>
        <speed>0.8667922</speed>
      </trkpt>
      <trkpt lat="29.2301797" lon="119.6579707">
        <ele>1232.22</ele>
        <time>2026-05-19T06:23:37Z</time>
        <speed>0.81480527</speed>
      </trkpt>
      <trkpt lat="29.2301941" lon="119.6578651">
        <ele>1231.09</ele>
        <time>2026-05-19T06:23:49Z</time>
        <speed>0.85083586</speed>
      </trkpt>
      <trkpt lat="29.2301975" lon="119.6577574">
        <ele>1230.02</ele>
        <time>2026-05-19T06:24:01Z</time>
        <speed>0.90797</speed>
      </trkpt>
      <trkpt lat="29.2302138" lon="119.657654">
        <ele>1229.02</ele>
        <time>2026-05-19T06:24:11Z</time>
        <speed>0.96664834</speed>
      </trkpt>
      <trkpt lat="29.2302058" lon="119.6575385">
        <ele>1227.64</ele>
        <time>2026-05-19T06:24:25Z</time>
        <speed>0.96664834</speed>
      </trkpt>
      <trkpt lat="29.2302049" lon="119.6574171">
        <ele>1225.56</ele>
        <time>2026-05-19T06:24:37Z</time>
        <speed>0.90488166</speed>
      </trkpt>
      <trkpt lat="29.2302229" lon="119.6572954">
        <ele>1224.28</ele>
        <time>2026-05-19T06:24:55Z</time>
        <speed>0.7607595</speed>
      </trkpt>
      <trkpt lat="29.2302443" lon="119.6571793">
        <ele>1222.4</ele>
        <time>2026-05-19T06:25:05Z</time>
        <speed>0.9512067</speed>
      </trkpt>
      <trkpt lat="29.2302836" lon="119.6570743">
        <ele>1220.21</ele>
        <time>2026-05-19T06:25:21Z</time>
        <speed>1.161728</speed>
      </trkpt>
      <trkpt lat="29.2302712" lon="119.6569682">
        <ele>1217.62</ele>
        <time>2026-05-19T06:25:31Z</time>
        <speed>1.3593814</speed>
      </trkpt>
      <trkpt lat="29.2302648" lon="119.6568535">
        <ele>1215.07</ele>
        <time>2026-05-19T06:25:43Z</time>
        <speed>0.9218675</speed>
      </trkpt>
      <trkpt lat="29.2302966" lon="119.6567442">
        <ele>1212.72</ele>
        <time>2026-05-19T06:25:57Z</time>
        <speed>0.7983342</speed>
      </trkpt>
      <trkpt lat="29.2303481" lon="119.6566434">
        <ele>1211.12</ele>
        <time>2026-05-19T06:26:09Z</time>
        <speed>0.89819026</speed>
      </trkpt>
      <trkpt lat="29.230414" lon="119.6565494">
        <ele>1209.52</ele>
        <time>2026-05-19T06:26:21Z</time>
        <speed>0.98106056</speed>
      </trkpt>
      <trkpt lat="29.2304455" lon="119.6564485">
        <ele>1208.22</ele>
        <time>2026-05-19T06:26:35Z</time>
        <speed>0.82149667</speed>
      </trkpt>
      <trkpt lat="29.2304476" lon="119.656337">
        <ele>1206.71</ele>
        <time>2026-05-19T06:26:51Z</time>
        <speed>0.7669361</speed>
      </trkpt>
      <trkpt lat="29.2304926" lon="119.6562466">
        <ele>1204.98</ele>
        <time>2026-05-19T06:27:05Z</time>
        <speed>0.44317582</speed>
      </trkpt>
      <trkpt lat="29.2305239" lon="119.6561495">
        <ele>1203.48</ele>
        <time>2026-05-19T06:27:15Z</time>
        <speed>0.89510196</speed>
      </trkpt>
      <trkpt lat="29.2305816" lon="119.6560679">
        <ele>1202.03</ele>
        <time>2026-05-19T06:27:25Z</time>
        <speed>0.96356</speed>
      </trkpt>
      <trkpt lat="29.230649" lon="119.6559895">
        <ele>1200.77</ele>
        <time>2026-05-19T06:27:39Z</time>
        <speed>0.657815</speed>
      </trkpt>
      <trkpt lat="29.2306872" lon="119.6558924">
        <ele>1200.14</ele>
        <time>2026-05-19T06:27:51Z</time>
        <speed>0.89561665</speed>
      </trkpt>
      <trkpt lat="29.2306422" lon="119.655808">
        <ele>1199.6</ele>
        <time>2026-05-19T06:28:09Z</time>
        <speed>1.5168864</speed>
      </trkpt>
      <trkpt lat="29.2305564" lon="119.6557426">
        <ele>1200.08</ele>
        <time>2026-05-19T06:28:19Z</time>
        <speed>1.1869495</speed>
      </trkpt>
      <trkpt lat="29.2304707" lon="119.6556776">
        <ele>1199.31</ele>
        <time>2026-05-19T06:28:29Z</time>
        <speed>0.9898108</speed>
      </trkpt>
      <trkpt lat="29.2304263" lon="119.6555878">
        <ele>1198.58</ele>
        <time>2026-05-19T06:28:39Z</time>
        <speed>0.91157305</speed>
      </trkpt>
      <trkpt lat="29.2303971" lon="119.6554856">
        <ele>1197.98</ele>
        <time>2026-05-19T06:28:53Z</time>
        <speed>0.8595861</speed>
      </trkpt>
      <trkpt lat="29.2303626" lon="119.6553713">
        <ele>1195.19</ele>
        <time>2026-05-19T06:29:05Z</time>
        <speed>0.7339939</speed>
      </trkpt>
      <trkpt lat="29.2303849" lon="119.6552686">
        <ele>1192.19</ele>
        <time>2026-05-19T06:29:17Z</time>
        <speed>0.82304084</speed>
      </trkpt>
      <trkpt lat="29.2304213" lon="119.6551641">
        <ele>1189.27</ele>
        <time>2026-05-19T06:29:31Z</time>
        <speed>0.78958386</speed>
      </trkpt>
      <trkpt lat="29.2304759" lon="119.6550652">
        <ele>1186.44</ele>
        <time>2026-05-19T06:29:43Z</time>
        <speed>0.80039304</speed>
      </trkpt>
      <trkpt lat="29.2305307" lon="119.6549748">
        <ele>1184.92</ele>
        <time>2026-05-19T06:29:55Z</time>
        <speed>0.71958166</speed>
      </trkpt>
      <trkpt lat="29.2305784" lon="119.6548834">
        <ele>1183.92</ele>
        <time>2026-05-19T06:30:09Z</time>
        <speed>0.77980417</speed>
      </trkpt>
      <trkpt lat="29.2306371" lon="119.6547986">
        <ele>1182.88</ele>
        <time>2026-05-19T06:30:25Z</time>
        <speed>0.7190669</speed>
      </trkpt>
      <trkpt lat="29.2306308" lon="119.6546997">
        <ele>1180.95</ele>
        <time>2026-05-19T06:30:41Z</time>
        <speed>0.59862196</speed>
      </trkpt>
      <trkpt lat="29.2305987" lon="119.6545977">
        <ele>1178.18</ele>
        <time>2026-05-19T06:30:57Z</time>
        <speed>0.49876583</speed>
      </trkpt>
      <trkpt lat="29.2305778" lon="119.6544712">
        <ele>1174.32</ele>
        <time>2026-05-19T06:31:13Z</time>
        <speed>0.0</speed>
      </trkpt>
      <trkpt lat="29.230578" lon="119.6543487">
        <ele>1170.01</ele>
        <time>2026-05-19T06:31:25Z</time>
        <speed>0.0</speed>
      </trkpt>
      <trkpt lat="29.2305843" lon="119.6542293">
        <ele>1166.56</ele>
        <time>2026-05-19T06:31:35Z</time>
        <speed>0.9476036</speed>
      </trkpt>
      <trkpt lat="29.2306124" lon="119.6541078">
        <ele>1163.91</ele>
        <time>2026-05-19T06:31:45Z</time>
        <speed>0.9846636</speed>
      </trkpt>
      <trkpt lat="29.2306715" lon="119.6540046">
        <ele>1163.13</ele>
        <time>2026-05-19T06:31:57Z</time>
        <speed>0.8760572</speed>
      </trkpt>
      <trkpt lat="29.2307378" lon="119.6539044">
        <ele>1162.9</ele>
        <time>2026-05-19T06:32:09Z</time>
        <speed>0.8878958</speed>
      </trkpt>
      <trkpt lat="29.2307856" lon="119.653792">
        <ele>1163.29</ele>
        <time>2026-05-19T06:32:23Z</time>
        <speed>0.0</speed>
      </trkpt>
      <trkpt lat="29.2308073" lon="119.6536807">
        <ele>1163.81</ele>
        <time>2026-05-19T06:32:37Z</time>
        <speed>0.6521531</speed>
      </trkpt>
      <trkpt lat="29.2308684" lon="119.6536052">
        <ele>1163.68</ele>
        <time>2026-05-19T06:32:47Z</time>
        <speed>0.9676778</speed>
      </trkpt>
      <trkpt lat="29.2309391" lon="119.6535291">
        <ele>1163.82</ele>
        <time>2026-05-19T06:32:55Z</time>
        <speed>1.3207772</speed>
      </trkpt>
      <trkpt lat="29.2310069" lon="119.6534334">
        <ele>1164.67</ele>
        <time>2026-05-19T06:33:05Z</time>
        <speed>1.1241534</speed>
      </trkpt>
      <trkpt lat="29.2310762" lon="119.6533408">
        <ele>1165.28</ele>
        <time>2026-05-19T06:33:15Z</time>
        <speed>1.1905525</speed>
      </trkpt>
      <trkpt lat="29.2311568" lon="119.6532862">
        <ele>1165.42</ele>
        <time>2026-05-19T06:33:23Z</time>
        <speed>1.1622428</speed>
      </trkpt>
      <trkpt lat="29.2311698" lon="119.6531905">
        <ele>1164.98</ele>
        <time>2026-05-19T06:33:37Z</time>
        <speed>0.9712808</speed>
      </trkpt>
      <trkpt lat="29.231116" lon="119.6531028">
        <ele>1166.28</ele>
        <time>2026-05-19T06:33:47Z</time>
        <speed>1.0340769</speed>
      </trkpt>
      <trkpt lat="29.2310222" lon="119.6530393">
        <ele>1166.89</ele>
        <time>2026-05-19T06:33:57Z</time>
        <speed>1.1375362</speed>
      </trkpt>
      <trkpt lat="29.230928" lon="119.6529873">
        <ele>1166.77</ele>
        <time>2026-05-19T06:34:07Z</time>
        <speed>1.0093703</speed>
      </trkpt>
      <trkpt lat="29.2308412" lon="119.6529282">
        <ele>1165.96</ele>
        <time>2026-05-19T06:34:19Z</time>
        <speed>0.8585567</speed>
      </trkpt>
      <trkpt lat="29.2307711" lon="119.6528541">
        <ele>1165.2</ele>
        <time>2026-05-19T06:34:53Z</time>
        <speed>0.5718564</speed>
      </trkpt>
      <trkpt lat="29.2306781" lon="119.6527916">
        <ele>1163.4</ele>
        <time>2026-05-19T06:35:03Z</time>
        <speed>1.1694489</speed>
      </trkpt>
      <trkpt lat="29.2306051" lon="119.6527128">
        <ele>1161.51</ele>
        <time>2026-05-19T06:35:13Z</time>
        <speed>1.1118</speed>
      </trkpt>
      <trkpt lat="29.2305117" lon="119.6526641">
        <ele>1160.17</ele>
        <time>2026-05-19T06:35:23Z</time>
        <speed>1.1648164</speed>
      </trkpt>
      <trkpt lat="29.2304241" lon="119.6526171">
        <ele>1158.25</ele>
        <time>2026-05-19T06:35:31Z</time>
        <speed>1.3933531</speed>
      </trkpt>
      <trkpt lat="29.2303532" lon="119.6525444">
        <ele>1156.64</ele>
        <time>2026-05-19T06:35:39Z</time>
        <speed>1.2672461</speed>
      </trkpt>
      <trkpt lat="29.2302773" lon="119.6524691">
        <ele>1155.93</ele>
        <time>2026-05-19T06:35:47Z</time>
        <speed>1.3985003</speed>
      </trkpt>
      <trkpt lat="29.2302012" lon="119.6523838">
        <ele>1154.93</ele>
        <time>2026-05-19T06:35:57Z</time>
        <speed>1.1118</speed>
      </trkpt>
      <trkpt lat="29.2301361" lon="119.6522855">
        <ele>1152.42</ele>
        <time>2026-05-19T06:36:07Z</time>
        <speed>1.0417978</speed>
      </trkpt>
      <trkpt lat="29.23008" lon="119.6521847">
        <ele>1150.86</ele>
        <time>2026-05-19T06:36:15Z</time>
        <speed>1.2718786</speed>
      </trkpt>
      <trkpt lat="29.2300039" lon="119.6521241">
        <ele>1149.37</ele>
        <time>2026-05-19T06:36:25Z</time>
        <speed>1.078343</speed>
      </trkpt>
      <trkpt lat="29.2299198" lon="119.6520804">
        <ele>1146.93</ele>
        <time>2026-05-19T06:36:33Z</time>
        <speed>1.44534</speed>
      </trkpt>
      <trkpt lat="29.229817" lon="119.6520547">
        <ele>1144.81</ele>
        <time>2026-05-19T06:36:43Z</time>
        <speed>1.5240926</speed>
      </trkpt>
      <trkpt lat="29.2297108" lon="119.6520463">
        <ele>1142.83</ele>
        <time>2026-05-19T06:36:53Z</time>
        <speed>1.2615842</speed>
      </trkpt>
      <trkpt lat="29.2296247" lon="119.6519933">
        <ele>1142.64</ele>
        <time>2026-05-19T06:37:01Z</time>
        <speed>1.4170303</speed>
      </trkpt>
      <trkpt lat="29.2295733" lon="119.6518971">
        <ele>1142.58</ele>
        <time>2026-05-19T06:37:09Z</time>
        <speed>1.5441667</speed>
      </trkpt>
      <trkpt lat="29.2295514" lon="119.6517851">
        <ele>1142.33</ele>
        <time>2026-05-19T06:37:17Z</time>
        <speed>1.31563</speed>
      </trkpt>
      <trkpt lat="29.229552" lon="119.6516743">
        <ele>1141.76</ele>
        <time>2026-05-19T06:37:25Z</time>
        <speed>1.1287858</speed>
      </trkpt>
      <trkpt lat="29.2295679" lon="119.6515514">
        <ele>1141.22</ele>
        <time>2026-05-19T06:37:35Z</time>
        <speed>1.1998175</speed>
      </trkpt>
      <trkpt lat="29.229578" lon="119.6514328">
        <ele>1140.01</ele>
        <time>2026-05-19T06:37:43Z</time>
        <speed>1.1751108</speed>
      </trkpt>
      <trkpt lat="29.2295986" lon="119.6513247">
        <ele>1138.5</ele>
        <time>2026-05-19T06:37:51Z</time>
        <speed>1.1462864</speed>
      </trkpt>
      <trkpt lat="29.2296261" lon="119.6512109">
        <ele>1136.43</ele>
        <time>2026-05-19T06:37:59Z</time>
        <speed>1.3089386</speed>
      </trkpt>
      <trkpt lat="29.2296712" lon="119.6511171">
        <ele>1134.31</ele>
        <time>2026-05-19T06:38:15Z</time>
        <speed>0.0</speed>
      </trkpt>
      <trkpt lat="29.2296291" lon="119.6510522">
        <ele>1132.37</ele>
        <time>2026-05-19T06:38:31Z</time>
        <speed>0.98414886</speed>
      </trkpt>
      <trkpt lat="29.2295601" lon="119.6509717">
        <ele>1131.82</ele>
        <time>2026-05-19T06:38:41Z</time>
        <speed>0.9867225</speed>
      </trkpt>
      <trkpt lat="29.2294676" lon="119.6509873">
        <ele>1131.68</ele>
        <time>2026-05-19T06:38:57Z</time>
        <speed>0.47920638</speed>
      </trkpt>
      <trkpt lat="29.2293627" lon="119.6510102">
        <ele>1131.43</ele>
        <time>2026-05-19T06:39:07Z</time>
        <speed>0.7473767</speed>
      </trkpt>
      <trkpt lat="29.2292664" lon="119.6509979">
        <ele>1130.64</ele>
        <time>2026-05-19T06:39:15Z</time>
        <speed>0.9162056</speed>
      </trkpt>
      <trkpt lat="29.2291732" lon="119.6509656">
        <ele>1129.16</ele>
        <time>2026-05-19T06:39:31Z</time>
        <speed>0.6784039</speed>
      </trkpt>
      <trkpt lat="29.2290768" lon="119.6509274">
        <ele>1127.2</ele>
        <time>2026-05-19T06:39:55Z</time>
        <speed>0.37111473</speed>
      </trkpt>
      <trkpt lat="29.2289934" lon="119.6508733">
        <ele>1123.89</ele>
        <time>2026-05-19T06:40:07Z</time>
        <speed>0.8827486</speed>
      </trkpt>
      <trkpt lat="29.2288999" lon="119.6508845">
        <ele>1120.71</ele>
        <time>2026-05-19T06:40:55Z</time>
        <speed>0.66193277</speed>
      </trkpt>
      <trkpt lat="29.228811" lon="119.6509234">
        <ele>1116.96</ele>
        <time>2026-05-19T06:41:07Z</time>
        <speed>0.81532</speed>
      </trkpt>
      <trkpt lat="29.2287115" lon="119.650947">
        <ele>1114.18</ele>
        <time>2026-05-19T06:41:31Z</time>
        <speed>0.59193057</speed>
      </trkpt>
      <trkpt lat="29.2286168" lon="119.6509721">
        <ele>1111.95</ele>
        <time>2026-05-19T06:41:41Z</time>
        <speed>0.91569084</speed>
      </trkpt>
      <trkpt lat="29.2285193" lon="119.6509981">
        <ele>1110.47</ele>
        <time>2026-05-19T06:41:49Z</time>
        <speed>1.1416539</speed>
      </trkpt>
      <trkpt lat="29.2284146" lon="119.650989">
        <ele>1109.36</ele>
        <time>2026-05-19T06:41:59Z</time>
        <speed>0.99495804</speed>
      </trkpt>
      <trkpt lat="29.2283111" lon="119.6509704">
        <ele>1108.48</ele>
        <time>2026-05-19T06:42:09Z</time>
        <speed>1.1076822</speed>
      </trkpt>
      <trkpt lat="29.2282161" lon="119.6509151">
        <ele>1107.63</ele>
        <time>2026-05-19T06:42:21Z</time>
        <speed>1.0829755</speed>
      </trkpt>
      <trkpt lat="29.2281194" lon="119.6508917">
        <ele>1105.21</ele>
        <time>2026-05-19T06:42:31Z</time>
        <speed>0.8240703</speed>
      </trkpt>
      <trkpt lat="29.2280267" lon="119.6508639">
        <ele>1101.85</ele>
        <time>2026-05-19T06:42:43Z</time>
        <speed>0.9645894</speed>
      </trkpt>
      <trkpt lat="29.2279353" lon="119.6508793">
        <ele>1097.44</ele>
        <time>2026-05-19T06:43:03Z</time>
        <speed>0.3911889</speed>
      </trkpt>
      <trkpt lat="29.2278267" lon="119.6508931">
        <ele>1094.07</ele>
        <time>2026-05-19T06:43:11Z</time>
        <speed>1.0634161</speed>
      </trkpt>
      <trkpt lat="29.2277303" lon="119.6509065">
        <ele>1091.54</ele>
        <time>2026-05-19T06:43:19Z</time>
        <speed>1.1776844</speed>
      </trkpt>
      <trkpt lat="29.2276342" lon="119.650901">
        <ele>1088.64</ele>
        <time>2026-05-19T06:43:29Z</time>
        <speed>1.1241534</speed>
      </trkpt>
      <trkpt lat="29.2275454" lon="119.6509207">
        <ele>1085.53</ele>
        <time>2026-05-19T06:43:47Z</time>
        <speed>0.5595031</speed>
      </trkpt>
      <trkpt lat="29.2274567" lon="119.6508983">
        <ele>1082.59</ele>
        <time>2026-05-19T06:44:49Z</time>
        <speed>0.5656797</speed>
      </trkpt>
      <trkpt lat="29.22736" lon="119.6509017">
        <ele>1079.15</ele>
        <time>2026-05-19T06:45:01Z</time>
        <speed>0.8014225</speed>
      </trkpt>
      <trkpt lat="29.2272563" lon="119.6508782">
        <ele>1076.08</ele>
        <time>2026-05-19T06:45:19Z</time>
        <speed>0.8384825</speed>
      </trkpt>
      <trkpt lat="29.2271577" lon="119.6508526">
        <ele>1072.95</ele>
        <time>2026-05-19T06:45:27Z</time>
        <speed>1.1709931</speed>
      </trkpt>
      <trkpt lat="29.2270646" lon="119.6508487">
        <ele>1070.56</ele>
        <time>2026-05-19T06:45:39Z</time>
        <speed>0.8683364</speed>
      </trkpt>
      <trkpt lat="29.2269682" lon="119.6508456">
        <ele>1068.04</ele>
        <time>2026-05-19T06:45:53Z</time>
        <speed>1.041283</speed>
      </trkpt>
      <trkpt lat="29.226913" lon="119.6508433">
        <ele>1065.05</ele>
        <time>2026-05-19T06:46:07Z</time>
        <speed>0.0</speed>
      </trkpt>
      <trkpt lat="29.2268315" lon="119.6508708">
        <ele>1062.62</ele>
        <time>2026-05-19T06:46:39Z</time>
        <speed>0.8014225</speed>
      </trkpt>
      <trkpt lat="29.2267443" lon="119.6509003">
        <ele>1061.41</ele>
        <time>2026-05-19T06:46:55Z</time>
        <speed>1.4932091</speed>
      </trkpt>
      <trkpt lat="29.2266591" lon="119.6508585">
        <ele>1059.73</ele>
        <time>2026-05-19T06:47:17Z</time>
        <speed>0.98775196</speed>
      </trkpt>
      <trkpt lat="29.22657" lon="119.650836">
        <ele>1056.7</ele>
        <time>2026-05-19T06:47:33Z</time>
        <speed>0.62847584</speed>
      </trkpt>
      <trkpt lat="29.2264834" lon="119.6507901">
        <ele>1053.69</ele>
        <time>2026-05-19T06:47:47Z</time>
        <speed>1.1138589</speed>
      </trkpt>
      <trkpt lat="29.2263942" lon="119.6507989">
        <ele>1050.99</ele>
        <time>2026-05-19T06:48:03Z</time>
        <speed>1.1478306</speed>
      </trkpt>
      <trkpt lat="29.2263041" lon="119.6508118">
        <ele>1048.93</ele>
        <time>2026-05-19T06:48:13Z</time>
        <speed>1.0876081</speed>
      </trkpt>
      <trkpt lat="29.2262088" lon="119.6508355">
        <ele>1047.15</ele>
        <time>2026-05-19T06:48:23Z</time>
        <speed>0.97848696</speed>
      </trkpt>
      <trkpt lat="29.2261092" lon="119.6508742">
        <ele>1045.37</ele>
        <time>2026-05-19T06:48:41Z</time>
        <speed>0.8127464</speed>
      </trkpt>
      <trkpt lat="29.2260147" lon="119.6509008">
        <ele>1043.7</ele>
        <time>2026-05-19T06:49:03Z</time>
        <speed>0.59244525</speed>
      </trkpt>
      <trkpt lat="29.2259187" lon="119.650944">
        <ele>1042.8</ele>
        <time>2026-05-19T06:50:01Z</time>
        <speed>0.81480527</speed>
      </trkpt>
      <trkpt lat="29.2258158" lon="119.6509594">
        <ele>1044.48</ele>
        <time>2026-05-19T06:50:25Z</time>
        <speed>0.8456886</speed>
      </trkpt>
      <trkpt lat="29.2257217" lon="119.6509523">
        <ele>1044.44</ele>
        <time>2026-05-19T06:50:35Z</time>
        <speed>0.86730695</speed>
      </trkpt>
      <trkpt lat="29.2256288" lon="119.650943">
        <ele>1043.18</ele>
        <time>2026-05-19T06:50:47Z</time>
        <speed>1.0016495</speed>
      </trkpt>
      <trkpt lat="29.225541" lon="119.6509034">
        <ele>1042.28</ele>
        <time>2026-05-19T06:50:57Z</time>
        <speed>1.1993028</speed>
      </trkpt>
      <trkpt lat="29.2254524" lon="119.6508926">
        <ele>1041.56</ele>
        <time>2026-05-19T06:51:15Z</time>
        <speed>0.83796775</speed>
      </trkpt>
      <trkpt lat="29.2253681" lon="119.6508544">
        <ele>1039.51</ele>
        <time>2026-05-19T06:51:45Z</time>
        <speed>0.6089164</speed>
      </trkpt>
      <trkpt lat="29.2252764" lon="119.6508197">
        <ele>1038.0</ele>
        <time>2026-05-19T06:52:39Z</time>
        <speed>0.6171519</speed>
      </trkpt>
      <trkpt lat="29.2251842" lon="119.65081">
        <ele>1035.25</ele>
        <time>2026-05-19T06:52:53Z</time>
        <speed>1.0381948</speed>
      </trkpt>
      <trkpt lat="29.2250909" lon="119.6508237">
        <ele>1032.95</ele>
        <time>2026-05-19T06:53:15Z</time>
        <speed>0.5739153</speed>
      </trkpt>
      <trkpt lat="29.2249835" lon="119.6508712">
        <ele>1030.86</ele>
        <time>2026-05-19T06:53:27Z</time>
        <speed>0.9769428</speed>
      </trkpt>
      <trkpt lat="29.2249036" lon="119.6509416">
        <ele>1030.53</ele>
        <time>2026-05-19T06:53:37Z</time>
        <speed>1.0551805</speed>
      </trkpt>
      <trkpt lat="29.2248121" lon="119.6509663">
        <ele>1030.56</ele>
        <time>2026-05-19T06:53:51Z</time>
        <speed>0.7767158</speed>
      </trkpt>
      <trkpt lat="29.2247341" lon="119.6510316">
        <ele>1029.59</ele>
        <time>2026-05-19T06:54:05Z</time>
        <speed>0.89973444</speed>
      </trkpt>
      <trkpt lat="29.2247074" lon="119.651139">
        <ele>1028.13</ele>
        <time>2026-05-19T06:54:17Z</time>
        <speed>0.8101728</speed>
      </trkpt>
      <trkpt lat="29.2247239" lon="119.651264">
        <ele>1027.43</ele>
        <time>2026-05-19T06:54:35Z</time>
        <speed>0.7741422</speed>
      </trkpt>
      <trkpt lat="29.2246927" lon="119.6513796">
        <ele>1026.43</ele>
        <time>2026-05-19T06:54:55Z</time>
        <speed>0.6557561</speed>
      </trkpt>
      <trkpt lat="29.2246465" lon="119.6514891">
        <ele>1026.37</ele>
        <time>2026-05-19T06:55:13Z</time>
        <speed>0.6135489</speed>
      </trkpt>
      <trkpt lat="29.2245801" lon="119.6515918">
        <ele>1025.87</ele>
        <time>2026-05-19T06:55:25Z</time>
        <speed>0.9589275</speed>
      </trkpt>
      <trkpt lat="29.2244924" lon="119.6516643">
        <ele>1026.1</ele>
        <time>2026-05-19T06:55:35Z</time>
        <speed>1.0901817</speed>
      </trkpt>
      <trkpt lat="29.2244099" lon="119.6517273">
        <ele>1027.69</ele>
        <time>2026-05-19T06:55:43Z</time>
        <speed>1.0381948</speed>
      </trkpt>
      <trkpt lat="29.2243901" lon="119.6517435">
        <ele>1029.11</ele>
        <time>2026-05-19T06:55:53Z</time>
        <speed>0.0</speed>
      </trkpt>
      <trkpt lat="29.2243804" lon="119.6518344">
        <ele>1029.93</ele>
        <time>2026-05-19T06:56:17Z</time>
        <speed>1.0551805</speed>
      </trkpt>
      <trkpt lat="29.2243938" lon="119.6519533">
        <ele>1029.1</ele>
        <time>2026-05-19T06:56:27Z</time>
        <speed>0.94091225</speed>
      </trkpt>
      <trkpt lat="29.224416" lon="119.6520827">
        <ele>1029.23</ele>
        <time>2026-05-19T06:56:37Z</time>
        <speed>0.7139197</speed>
      </trkpt>
      <trkpt lat="29.2244291" lon="119.6521981">
        <ele>1029.95</ele>
        <time>2026-05-19T06:56:47Z</time>
        <speed>0.97179556</speed>
      </trkpt>
      <trkpt lat="29.2244307" lon="119.6523214">
        <ele>1030.83</ele>
        <time>2026-05-19T06:56:59Z</time>
        <speed>1.078343</speed>
      </trkpt>
      <trkpt lat="29.2244103" lon="119.6524372">
        <ele>1031.89</ele>
        <time>2026-05-19T06:57:13Z</time>
        <speed>1.0680486</speed>
      </trkpt>
      <trkpt lat="29.2243596" lon="119.6525322">
        <ele>1031.81</ele>
        <time>2026-05-19T06:57:25Z</time>
        <speed>0.8065697</speed>
      </trkpt>
      <trkpt lat="29.224278" lon="119.6525958">
        <ele>1032.02</ele>
        <time>2026-05-19T06:57:35Z</time>
        <speed>1.0073113</speed>
      </trkpt>
      <trkpt lat="29.2241937" lon="119.6526555">
        <ele>1031.84</ele>
        <time>2026-05-19T06:57:45Z</time>
        <speed>1.1009909</speed>
      </trkpt>
      <trkpt lat="29.2241078" lon="119.6527073">
        <ele>1031.91</ele>
        <time>2026-05-19T06:57:55Z</time>
        <speed>1.20445</speed>
      </trkpt>
      <trkpt lat="29.2240229" lon="119.6527639">
        <ele>1031.78</ele>
        <time>2026-05-19T06:58:05Z</time>
        <speed>1.0407684</speed>
      </trkpt>
      <trkpt lat="29.2239344" lon="119.652806">
        <ele>1032.04</ele>
        <time>2026-05-19T06:58:13Z</time>
        <speed>1.4751939</speed>
      </trkpt>
      <trkpt lat="29.2238688" lon="119.6528782">
        <ele>1032.03</ele>
        <time>2026-05-19T06:58:21Z</time>
        <speed>1.4144567</speed>
      </trkpt>
      <trkpt lat="29.2238134" lon="119.6529612">
        <ele>1031.84</ele>
        <time>2026-05-19T06:58:31Z</time>
        <speed>0.7381117</speed>
      </trkpt>
      <trkpt lat="29.2237719" lon="119.6530607">
        <ele>1031.22</ele>
        <time>2026-05-19T06:58:43Z</time>
        <speed>1.1869495</speed>
      </trkpt>
      <trkpt lat="29.2237306" lon="119.6531576">
        <ele>1029.28</ele>
        <time>2026-05-19T06:58:53Z</time>
        <speed>1.3073944</speed>
      </trkpt>
      <trkpt lat="29.2237595" lon="119.6532495">
        <ele>1027.27</ele>
        <time>2026-05-19T06:59:03Z</time>
        <speed>0.8549536</speed>
      </trkpt>
      <trkpt lat="29.2238032" lon="119.6533477">
        <ele>1025.34</ele>
        <time>2026-05-19T06:59:13Z</time>
        <speed>0.7828925</speed>
      </trkpt>
      <trkpt lat="29.2238256" lon="119.6534518">
        <ele>1024.25</ele>
        <time>2026-05-19T06:59:23Z</time>
        <speed>0.87657195</speed>
      </trkpt>
      <trkpt lat="29.2238359" lon="119.6535652">
        <ele>1024.06</ele>
        <time>2026-05-19T06:59:33Z</time>
        <speed>1.0289297</speed>
      </trkpt>
      <trkpt lat="29.2238688" lon="119.653679">
        <ele>1024.72</ele>
        <time>2026-05-19T06:59:41Z</time>
        <speed>1.1437128</speed>
      </trkpt>
      <trkpt lat="29.223903" lon="119.6537834">
        <ele>1026.13</ele>
        <time>2026-05-19T06:59:51Z</time>
        <speed>1.0057672</speed>
      </trkpt>
      <trkpt lat="29.2239378" lon="119.6538964">
        <ele>1028.01</ele>
        <time>2026-05-19T07:00:01Z</time>
        <speed>1.1401098</speed>
      </trkpt>
      <trkpt lat="29.2239598" lon="119.6540103">
        <ele>1029.9</ele>
        <time>2026-05-19T07:00:11Z</time>
        <speed>1.0423125</speed>
      </trkpt>
      <trkpt lat="29.2239904" lon="119.6541293">
        <ele>1031.62</ele>
        <time>2026-05-19T07:00:21Z</time>
        <speed>1.1339331</speed>
      </trkpt>
      <trkpt lat="29.2240148" lon="119.6542361">
        <ele>1033.68</ele>
        <time>2026-05-19T07:00:31Z</time>
        <speed>0.9285589</speed>
      </trkpt>
      <trkpt lat="29.2240241" lon="119.6543406">
        <ele>1036.14</ele>
        <time>2026-05-19T07:00:39Z</time>
        <speed>1.1998175</speed>
      </trkpt>
      <trkpt lat="29.2240206" lon="119.6544509">
        <ele>1037.33</ele>
        <time>2026-05-19T07:00:47Z</time>
        <speed>1.2394512</speed>
      </trkpt>
      <trkpt lat="29.2240159" lon="119.6545638">
        <ele>1037.31</ele>
        <time>2026-05-19T07:00:57Z</time>
        <speed>0.9059111</speed>
      </trkpt>
      <trkpt lat="29.2240108" lon="119.6546812">
        <ele>1037.22</ele>
        <time>2026-05-19T07:01:07Z</time>
        <speed>1.0490038</speed>
      </trkpt>
      <trkpt lat="29.2239973" lon="119.6547938">
        <ele>1037.77</ele>
        <time>2026-05-19T07:01:31Z</time>
        <speed>0.6516383</speed>
      </trkpt>
      <trkpt lat="29.2239525" lon="119.6548842">
        <ele>1037.61</ele>
        <time>2026-05-19T07:01:43Z</time>
        <speed>0.8760572</speed>
      </trkpt>
      <trkpt lat="29.2239307" lon="119.6549942">
        <ele>1038.3</ele>
        <time>2026-05-19T07:01:53Z</time>
        <speed>1.2209212</speed>
      </trkpt>
      <trkpt lat="29.2239381" lon="119.6551001">
        <ele>1038.43</ele>
        <time>2026-05-19T07:02:03Z</time>
        <speed>1.0294445</speed>
      </trkpt>
      <trkpt lat="29.2239636" lon="119.655204">
        <ele>1038.63</ele>
        <time>2026-05-19T07:02:11Z</time>
        <speed>1.0644456</speed>
      </trkpt>
      <trkpt lat="29.224009" lon="119.6553047">
        <ele>1038.66</ele>
        <time>2026-05-19T07:02:21Z</time>
        <speed>1.0603278</speed>
      </trkpt>
      <trkpt lat="29.2240285" lon="119.6554245">
        <ele>1038.46</ele>
        <time>2026-05-19T07:02:59Z</time>
        <speed>1.1606987</speed>
      </trkpt>
      <trkpt lat="29.2240265" lon="119.6555301">
        <ele>1038.52</ele>
        <time>2026-05-19T07:03:13Z</time>
        <speed>0.0</speed>
      </trkpt>
      <trkpt lat="29.2240206" lon="119.6556409">
        <ele>1038.86</ele>
        <time>2026-05-19T07:03:25Z</time>
        <speed>0.95583916</speed>
      </trkpt>
      <trkpt lat="29.2239946" lon="119.6557576">
        <ele>1039.56</ele>
        <time>2026-05-19T07:03:37Z</time>
        <speed>0.9697367</speed>
      </trkpt>
      <trkpt lat="29.223961" lon="119.6558801">
        <ele>1040.01</ele>
        <time>2026-05-19T07:03:51Z</time>
        <speed>0.73965585</speed>
      </trkpt>
      <trkpt lat="29.2239474" lon="119.6559944">
        <ele>1040.61</ele>
        <time>2026-05-19T07:03:59Z</time>
        <speed>1.0613573</speed>
      </trkpt>
      <trkpt lat="29.2239287" lon="119.6561101">
        <ele>1041.46</ele>
        <time>2026-05-19T07:04:09Z</time>
        <speed>1.0680486</speed>
      </trkpt>
      <trkpt lat="29.2239239" lon="119.6562165">
        <ele>1041.57</ele>
        <time>2026-05-19T07:04:17Z</time>
        <speed>1.2420248</speed>
      </trkpt>
      <trkpt lat="29.2239255" lon="119.656332">
        <ele>1041.32</ele>
        <time>2026-05-19T07:04:27Z</time>
        <speed>1.0958436</speed>
      </trkpt>
      <trkpt lat="29.223915" lon="119.6564551">
        <ele>1041.18</ele>
        <time>2026-05-19T07:04:37Z</time>
        <speed>1.1771697</speed>
      </trkpt>
      <trkpt lat="29.2238917" lon="119.656582">
        <ele>1040.89</ele>
        <time>2026-05-19T07:04:47Z</time>
        <speed>1.1735667</speed>
      </trkpt>
      <trkpt lat="29.2238666" lon="119.6566923">
        <ele>1040.77</ele>
        <time>2026-05-19T07:04:55Z</time>
        <speed>1.1390803</speed>
      </trkpt>
      <trkpt lat="29.2238517" lon="119.656806">
        <ele>1041.0</ele>
        <time>2026-05-19T07:05:09Z</time>
        <speed>0.811717</speed>
      </trkpt>
      <trkpt lat="29.2238235" lon="119.6569065">
        <ele>1040.14</ele>
        <time>2026-05-19T07:05:21Z</time>
        <speed>0.8184083</speed>
      </trkpt>
      <trkpt lat="29.2237917" lon="119.65702">
        <ele>1039.3</ele>
        <time>2026-05-19T07:13:35Z</time>
        <speed>0.5420025</speed>
      </trkpt>
      <trkpt lat="29.223765" lon="119.6571233">
        <ele>1040.98</ele>
        <time>2026-05-19T07:13:49Z</time>
        <speed>0.58729804</speed>
      </trkpt>
      <trkpt lat="29.2237299" lon="119.6572309">
        <ele>1042.19</ele>
        <time>2026-05-19T07:14:01Z</time>
        <speed>0.84826225</speed>
      </trkpt>
      <trkpt lat="29.223746" lon="119.6573469">
        <ele>1043.06</ele>
        <time>2026-05-19T07:14:13Z</time>
        <speed>0.98414886</speed>
      </trkpt>
      <trkpt lat="29.2238057" lon="119.6574393">
        <ele>1043.08</ele>
        <time>2026-05-19T07:14:27Z</time>
        <speed>0.7828925</speed>
      </trkpt>
      <trkpt lat="29.2238934" lon="119.6575091">
        <ele>1041.54</ele>
        <time>2026-05-19T07:14:37Z</time>
        <speed>0.9836342</speed>
      </trkpt>
      <trkpt lat="29.2239679" lon="119.657589">
        <ele>1040.23</ele>
        <time>2026-05-19T07:14:47Z</time>
        <speed>1.009885</speed>
      </trkpt>
      <trkpt lat="29.2240077" lon="119.6576995">
        <ele>1040.43</ele>
        <time>2026-05-19T07:14:57Z</time>
        <speed>1.139595</speed>
      </trkpt>
      <trkpt lat="29.2240199" lon="119.6578202">
        <ele>1041.15</ele>
        <time>2026-05-19T07:15:07Z</time>
        <speed>1.1205503</speed>
      </trkpt>
      <trkpt lat="29.2240396" lon="119.6579345">
        <ele>1041.34</ele>
        <time>2026-05-19T07:15:15Z</time>
        <speed>1.1004761</speed>
      </trkpt>
      <trkpt lat="29.2240842" lon="119.6580351">
        <ele>1040.51</ele>
        <time>2026-05-19T07:15:25Z</time>
        <speed>1.0423125</speed>
      </trkpt>
      <trkpt lat="29.2241487" lon="119.6581252">
        <ele>1039.56</ele>
        <time>2026-05-19T07:15:35Z</time>
        <speed>1.1128294</speed>
      </trkpt>
      <trkpt lat="29.2241982" lon="119.6582172">
        <ele>1038.8</ele>
        <time>2026-05-19T07:15:47Z</time>
        <speed>0.83899724</speed>
      </trkpt>
      <trkpt lat="29.2242356" lon="119.6583144">
        <ele>1038.54</ele>
        <time>2026-05-19T07:15:57Z</time>
        <speed>0.93936807</speed>
      </trkpt>
      <trkpt lat="29.2242798" lon="119.6584164">
        <ele>1039.51</ele>
        <time>2026-05-19T07:16:09Z</time>
        <speed>0.89921975</speed>
      </trkpt>
      <trkpt lat="29.2243059" lon="119.6585326">
        <ele>1041.79</ele>
        <time>2026-05-19T07:16:19Z</time>
        <speed>1.059813</speed>
      </trkpt>
      <trkpt lat="29.224259" lon="119.6586337">
        <ele>1044.93</ele>
        <time>2026-05-19T07:16:29Z</time>
        <speed>0.9146614</speed>
      </trkpt>
      <trkpt lat="29.2242089" lon="119.6587407">
        <ele>1046.38</ele>
        <time>2026-05-19T07:16:41Z</time>
        <speed>1.0026789</speed>
      </trkpt>
      <trkpt lat="29.2242089" lon="119.6587407">
        <ele>1046.38</ele>
        <time>2026-05-19T07:16:45Z</time>
        <speed>1.0026789</speed>
      </trkpt>
      <extensions>
        <PauseTimes>1779175005000:pause</PauseTimes>
      </extensions>
    </trkseg>
  </trk>
  <wpt lat="29.2239356" lon="119.6589986">
    <ele>1049.2</ele>
    <time>2026-05-19T04:51:53Z</time>
    <name><![CDATA[停车场
        ]]>
    </name>
    <cmt>停车场
        </cmt>
    <desc><![CDATA[]]>
    </desc>
    <sym>Flag, Blue</sym>
    <type>user</type>
    <extensions>
      <PosType>0</PosType>
      <Speed>0.028824445</Speed>
      <Accuracy>1.3</Accuracy>
      <Time>1779166313206</Time>
      <description><![CDATA[]]>
      </description>
      <FileId>1613719125</FileId>
      <FileSize>1408066</FileSize>
      <FileType>0</FileType>
    </extensions>
  </wpt>
  <wpt lat="29.2243436" lon="119.6585387">
    <ele>1037.5</ele>
    <time>2026-05-19T04:53:47Z</time>
    <name><![CDATA[直行
        ]]>
    </name>
    <cmt>直行
        </cmt>
    <desc><![CDATA[]]>
    </desc>
    <sym>Flag, Blue</sym>
    <type>user</type>
    <extensions>
      <PosType>0</PosType>
      <Speed>1.0309886</Speed>
      <Accuracy>1.3</Accuracy>
      <Time>1779166427252</Time>
      <description><![CDATA[]]>
      </description>
      <FileId>1613719124</FileId>
      <FileSize>1475934</FileSize>
      <FileType>0</FileType>
    </extensions>
  </wpt>
  <wpt lat="29.2255821" lon="119.6589514">
    <ele>1050.4</ele>
    <time>2026-05-19T04:56:33Z</time>
    <name><![CDATA[左转
        ]]>
    </name>
    <cmt>左转
        </cmt>
    <desc><![CDATA[]]>
    </desc>
    <sym>Flag, Blue</sym>
    <type>user</type>
    <extensions>
      <PosType>0</PosType>
      <Speed>1.3459986</Speed>
      <Accuracy>1.4</Accuracy>
      <Time>1779166593236</Time>
      <description><![CDATA[]]>
      </description>
    </extensions>
  </wpt>
  <wpt lat="29.2260523" lon="119.6586444">
    <ele>1065.9</ele>
    <time>2026-05-19T04:58:05Z</time>
    <name><![CDATA[
        ]]>
    </name>
    <cmt>
        </cmt>
    <desc><![CDATA[]]>
    </desc>
    <sym>Flag, Blue</sym>
    <type>user</type>
    <extensions>
      <PosType>0</PosType>
      <Speed>0.9167203</Speed>
      <Accuracy>1.5</Accuracy>
      <Time>1779166685232</Time>
      <description><![CDATA[]]>
      </description>
      <FileId>1613719072</FileId>
      <FileSize>1395521</FileSize>
      <FileType>0</FileType>
    </extensions>
  </wpt>
  <wpt lat="29.2272856" lon="119.6592351">
    <ele>1103.8</ele>
    <time>2026-05-19T05:02:05Z</time>
    <name><![CDATA[
        ]]>
    </name>
    <cmt>
        </cmt>
    <desc><![CDATA[]]>
    </desc>
    <sym>Flag, Blue</sym>
    <type>user</type>
    <extensions>
      <PosType>0</PosType>
      <Speed>1.05621</Speed>
      <Accuracy>1.4</Accuracy>
      <Time>1779166925252</Time>
      <description><![CDATA[]]>
      </description>
      <FileId>1613719070</FileId>
      <FileSize>1258384</FileSize>
      <FileType>0</FileType>
    </extensions>
  </wpt>
  <wpt lat="29.2281504" lon="119.6589814">
    <ele>1152.6</ele>
    <time>2026-05-19T05:05:53Z</time>
    <name><![CDATA[右转
        ]]>
    </name>
    <cmt>右转
        </cmt>
    <desc><![CDATA[]]>
    </desc>
    <sym>Flag, Blue</sym>
    <type>user</type>
    <extensions>
      <PosType>0</PosType>
      <Speed>0.68200696</Speed>
      <Accuracy>1.4</Accuracy>
      <Time>1779167153239</Time>
      <description><![CDATA[]]>
      </description>
    </extensions>
  </wpt>
  <wpt lat="29.229993" lon="119.6591009">
    <ele>1251.8</ele>
    <time>2026-05-19T05:17:23Z</time>
    <name><![CDATA[右转，远眺大盘尖
        ]]>
    </name>
    <cmt>右转，远眺大盘尖
        </cmt>
    <desc><![CDATA[]]>
    </desc>
    <sym>Flag, Blue</sym>
    <type>user</type>
    <extensions>
      <PosType>0</PosType>
      <Speed>0.9615011</Speed>
      <Accuracy>1.3</Accuracy>
      <Time>1779167843258</Time>
      <description><![CDATA[]]>
      </description>
      <FileId>1613719067</FileId>
      <FileSize>942376</FileSize>
      <FileType>0</FileType>
    </extensions>
  </wpt>
  <wpt lat="29.2304087" lon="119.6593584">
    <ele>1242.9</ele>
    <time>2026-05-19T05:21:07Z</time>
    <name><![CDATA[分叉口，往右
        ]]>
    </name>
    <cmt>分叉口，往右
        </cmt>
    <desc><![CDATA[]]>
    </desc>
    <sym>Flag, Blue</sym>
    <type>user</type>
    <extensions>
      <PosType>0</PosType>
      <Speed>0.0</Speed>
      <Accuracy>1.3</Accuracy>
      <Time>1779168067259</Time>
      <description><![CDATA[]]>
      </description>
    </extensions>
  </wpt>
  <wpt lat="29.2312667" lon="119.6595383">
    <ele>1259.1</ele>
    <time>2026-05-19T05:27:59Z</time>
    <name><![CDATA[观景点
        ]]>
    </name>
    <cmt>观景点
        </cmt>
    <desc><![CDATA[]]>
    </desc>
    <sym>Flag, Blue</sym>
    <type>user</type>
    <extensions>
      <PosType>0</PosType>
      <Speed>0.46633834</Speed>
      <Accuracy>0.9</Accuracy>
      <Time>1779168479271</Time>
      <description><![CDATA[]]>
      </description>
      <FileId>1613719066</FileId>
      <FileSize>758548</FileSize>
      <FileType>0</FileType>
    </extensions>
  </wpt>
  <wpt lat="29.2318063" lon="119.6607384">
    <ele>1256.3</ele>
    <time>2026-05-19T05:34:53Z</time>
    <name><![CDATA[
        ]]>
    </name>
    <cmt>
        </cmt>
    <desc><![CDATA[]]>
    </desc>
    <sym>Flag, Blue</sym>
    <type>user</type>
    <extensions>
      <PosType>0</PosType>
      <Speed>1.0392241</Speed>
      <Accuracy>1.4</Accuracy>
      <Time>1779168893268</Time>
      <description><![CDATA[]]>
      </description>
      <FileId>1613719064</FileId>
      <FileSize>1119862</FileSize>
      <FileType>0</FileType>
    </extensions>
  </wpt>
  <wpt lat="29.2321298" lon="119.6610674">
    <ele>1252.6</ele>
    <time>2026-05-19T05:36:01Z</time>
    <name><![CDATA[
        ]]>
    </name>
    <cmt>
        </cmt>
    <desc><![CDATA[]]>
    </desc>
    <sym>Flag, Blue</sym>
    <type>user</type>
    <extensions>
      <PosType>0</PosType>
      <Speed>0.5394289</Speed>
      <Accuracy>1.3</Accuracy>
      <Time>1779168961236</Time>
      <description><![CDATA[]]>
      </description>
      <FileId>1613719062</FileId>
      <FileSize>1370220</FileSize>
      <FileType>0</FileType>
    </extensions>
  </wpt>
  <wpt lat="29.2337498" lon="119.6620909">
    <ele>1321.6</ele>
    <time>2026-05-19T05:47:09Z</time>
    <name><![CDATA[大盘尖
        ]]>
    </name>
    <cmt>大盘尖
        </cmt>
    <desc><![CDATA[]]>
    </desc>
    <sym>Flag, Blue</sym>
    <type>user</type>
    <extensions>
      <PosType>0</PosType>
      <Speed>2.1654365</Speed>
      <Accuracy>1.2</Accuracy>
      <Time>1779169629285</Time>
      <description><![CDATA[]]>
      </description>
      <FileId>1613719060</FileId>
      <FileSize>883689</FileSize>
      <FileType>0</FileType>
    </extensions>
  </wpt>
  <wpt lat="29.23307" lon="119.6616417">
    <ele>1295.9</ele>
    <time>2026-05-19T06:09:35Z</time>
    <name><![CDATA[观景点
        ]]>
    </name>
    <cmt>观景点
        </cmt>
    <desc><![CDATA[]]>
    </desc>
    <sym>Flag, Blue</sym>
    <type>user</type>
    <extensions>
      <PosType>0</PosType>
      <Speed>0.8292175</Speed>
      <Accuracy>1.3</Accuracy>
      <Time>1779170975262</Time>
      <description><![CDATA[]]>
      </description>
      <FileId>1613719059</FileId>
      <FileSize>2219732</FileSize>
      <FileType>0</FileType>
    </extensions>
  </wpt>
  <wpt lat="29.2303924" lon="119.6593377">
    <ele>1255.5</ele>
    <time>2026-05-19T06:20:37Z</time>
    <name><![CDATA[右转
        ]]>
    </name>
    <cmt>右转
        </cmt>
    <desc><![CDATA[]]>
    </desc>
    <sym>Flag, Blue</sym>
    <type>user</type>
    <extensions>
      <PosType>0</PosType>
      <Speed>1.2255536</Speed>
      <Accuracy>1.3</Accuracy>
      <Time>1779171637218</Time>
      <description><![CDATA[]]>
      </description>
      <FileId>1613719057</FileId>
      <FileSize>2857343</FileSize>
      <FileType>0</FileType>
    </extensions>
  </wpt>
  <wpt lat="29.2306872" lon="119.6558924">
    <ele>1198.9</ele>
    <time>2026-05-19T06:27:51Z</time>
    <name><![CDATA[
        ]]>
    </name>
    <cmt>
        </cmt>
    <desc><![CDATA[]]>
    </desc>
    <sym>Flag, Blue</sym>
    <type>user</type>
    <extensions>
      <PosType>0</PosType>
      <Speed>0.89561665</Speed>
      <Accuracy>1.3</Accuracy>
      <Time>1779172071245</Time>
      <description><![CDATA[]]>
      </description>
      <FileId>1613719055</FileId>
      <FileSize>1214160</FileSize>
      <FileType>0</FileType>
    </extensions>
  </wpt>
  <wpt lat="29.2310762" lon="119.6533408">
    <ele>1165.6</ele>
    <time>2026-05-19T06:33:15Z</time>
    <name><![CDATA[左转
        ]]>
    </name>
    <cmt>左转
        </cmt>
    <desc><![CDATA[]]>
    </desc>
    <sym>Flag, Blue</sym>
    <type>user</type>
    <extensions>
      <PosType>0</PosType>
      <Speed>1.1905525</Speed>
      <Accuracy>1.5</Accuracy>
      <Time>1779172395230</Time>
      <description><![CDATA[]]>
      </description>
      <FileId>1613719051</FileId>
      <FileSize>2528113</FileSize>
      <FileType>0</FileType>
    </extensions>
  </wpt>
  <wpt lat="29.2308412" lon="119.6529282">
    <ele>1164.2</ele>
    <time>2026-05-19T06:34:19Z</time>
    <name><![CDATA[
        ]]>
    </name>
    <cmt>
        </cmt>
    <desc><![CDATA[]]>
    </desc>
    <sym>Flag, Blue</sym>
    <type>user</type>
    <extensions>
      <PosType>0</PosType>
      <Speed>0.8585567</Speed>
      <Accuracy>1.5</Accuracy>
      <Time>1779172459244</Time>
      <description><![CDATA[]]>
      </description>
      <FileId>1613719050</FileId>
      <FileSize>1773398</FileSize>
      <FileType>0</FileType>
    </extensions>
  </wpt>
  <wpt lat="29.2296261" lon="119.6512109">
    <ele>1131.5</ele>
    <time>2026-05-19T06:37:59Z</time>
    <name><![CDATA[左转
        ]]>
    </name>
    <cmt>左转
        </cmt>
    <desc><![CDATA[]]>
    </desc>
    <sym>Flag, Blue</sym>
    <type>user</type>
    <extensions>
      <PosType>0</PosType>
      <Speed>1.3089386</Speed>
      <Accuracy>1.4</Accuracy>
      <Time>1779172679235</Time>
      <description><![CDATA[]]>
      </description>
      <FileId>1613719048</FileId>
      <FileSize>2784892</FileSize>
      <FileType>0</FileType>
    </extensions>
  </wpt>
  <wpt lat="29.2276342" lon="119.650901">
    <ele>1081.4</ele>
    <time>2026-05-19T06:43:29Z</time>
    <name><![CDATA[大棚
        ]]>
    </name>
    <cmt>大棚
        </cmt>
    <desc><![CDATA[]]>
    </desc>
    <sym>Flag, Blue</sym>
    <type>user</type>
    <extensions>
      <PosType>0</PosType>
      <Speed>1.1241534</Speed>
      <Accuracy>1.6</Accuracy>
      <Time>1779173009227</Time>
      <description><![CDATA[]]>
      </description>
      <FileId>1613719047</FileId>
      <FileSize>1322604</FileSize>
      <FileType>0</FileType>
    </extensions>
  </wpt>
  <wpt lat="29.226913" lon="119.6508433">
    <ele>1059.4</ele>
    <time>2026-05-19T06:46:07Z</time>
    <name><![CDATA[野草莓
        ]]>
    </name>
    <cmt>野草莓
        </cmt>
    <desc><![CDATA[]]>
    </desc>
    <sym>Flag, Blue</sym>
    <type>user</type>
    <extensions>
      <PosType>0</PosType>
      <Speed>0.0</Speed>
      <Accuracy>1.4</Accuracy>
      <Time>1779173167190</Time>
      <description><![CDATA[]]>
      </description>
      <FileId>1613719045</FileId>
      <FileSize>1326012</FileSize>
      <FileType>0</FileType>
    </extensions>
  </wpt>
  <wpt lat="29.2259187" lon="119.650944">
    <ele>1046.7</ele>
    <time>2026-05-19T06:50:01Z</time>
    <name><![CDATA[
        ]]>
    </name>
    <cmt>
        </cmt>
    <desc><![CDATA[]]>
    </desc>
    <sym>Flag, Blue</sym>
    <type>user</type>
    <extensions>
      <PosType>0</PosType>
      <Speed>0.81480527</Speed>
      <Accuracy>1.4</Accuracy>
      <Time>1779173401250</Time>
      <description><![CDATA[]]>
      </description>
      <FileId>1613719044</FileId>
      <FileSize>1497869</FileSize>
      <FileType>0</FileType>
    </extensions>
  </wpt>
  <wpt lat="29.2249036" lon="119.6509416">
    <ele>1030.6</ele>
    <time>2026-05-19T06:53:37Z</time>
    <name><![CDATA[左转
        ]]>
    </name>
    <cmt>左转
        </cmt>
    <desc><![CDATA[]]>
    </desc>
    <sym>Flag, Blue</sym>
    <type>user</type>
    <extensions>
      <PosType>0</PosType>
      <Speed>1.0551805</Speed>
      <Accuracy>1.5</Accuracy>
      <Time>1779173617240</Time>
      <description><![CDATA[]]>
      </description>
      <FileId>1613719042</FileId>
      <FileSize>2194438</FileSize>
      <FileType>0</FileType>
    </extensions>
  </wpt>
  <wpt lat="29.2238267" lon="119.65688">
    <ele>1044.4</ele>
    <time>2026-05-19T07:08:21Z</time>
    <name><![CDATA[野草莓
        ]]>
    </name>
    <cmt>野草莓
        </cmt>
    <desc><![CDATA[]]>
    </desc>
    <sym>Flag, Blue</sym>
    <type>user</type>
    <extensions>
      <PosType>0</PosType>
      <Speed>0.7957606</Speed>
      <Accuracy>1.4</Accuracy>
      <Time>1779174501243</Time>
      <description><![CDATA[]]>
      </description>
      <FileId>1613719041</FileId>
      <FileSize>2384263</FileSize>
      <FileType>0</FileType>
    </extensions>
  </wpt>
</gpx>