<?xml version='1.0' encoding='UTF-8' standalone='yes' ?>
<gpx version="1.1" creator="GPSBabel - http://www.gpsbabel.org" xmlns:xsi="http://www.w3.org/2001/XMLSchema-instance" xmlns="http://www.topografix.com/GPX/1/1" xsi:schemaLocation="http://www.topografix.com/GPX/1/1 http://www.topografix.com/GPX/1/1/gpx.xsd">
  <metadata>
    <link href="http://www.garmin.com">
      <text>Garmin International</text>
    </link>
    <time>2026-06-10T04:15:48Z</time>
    <bounds minlat="29.4531358" minlon="120.032625" maxlat="29.4561748" maxlon="120.03891" />
  </metadata>
  <extensions>
    <name><![CDATA[官岩山飞鹰道260610]]>
    </name>
    <description><![CDATA[]]>
    </description>
    <TrackId>85607448</TrackId>
    <TrackTypeId>8</TrackTypeId>
    <TrackTags>爬山</TrackTags>
    <BeginTime>1781064948000</BeginTime>
    <EndTime>1781071684000</EndTime>
    <TimeUsed>6736000</TimeUsed>
    <PauseTime>590705</PauseTime>
    <PosStartName>官岩寺</PosStartName>
    <PosEndName>亭</PosEndName>
    <ProductVersion>and_9.0.2</ProductVersion>
    <StartDistrictId>9657</StartDistrictId>
    <EndDistrictId>9657</EndDistrictId>
    <CreaterId>64771087</CreaterId>
    <CreaterName><![CDATA[步履赴山野]]>
    </CreaterName>
    <CreaterIcon>1523534626</CreaterIcon>
    <OriginCreaterId>64771087</OriginCreaterId>
    <OriginCreaterNickname><![CDATA[步履赴山野]]>
    </OriginCreaterNickname>
    <OriginCreaterName><![CDATA[null]]>
    </OriginCreaterName>
    <OriginCreaterIcon>1523534626</OriginCreaterIcon>
    <ThumbnailId>1626167383</ThumbnailId>
    <Distance>2518.0</Distance>
    <ElevationGain>188.61999999999995</ElevationGain>
    <ElevationLoss>177.41999999999993</ElevationLoss>
    <SportAvgSpeed>0.40974436540475273</SportAvgSpeed>
  </extensions>
  <trk>
    <trkseg>
      <trkpt lat="29.4549346" lon="120.0330651">
        <ele>118.5</ele>
        <time>2026-06-10T04:15:49Z</time>
        <speed>0.09419417</speed>
      </trkpt>
      <trkpt lat="29.4548611" lon="120.0330734">
        <ele>118.5</ele>
        <time>2026-06-10T04:16:13Z</time>
        <speed>0.6784039</speed>
      </trkpt>
      <trkpt lat="29.4547778" lon="120.0331032">
        <ele>122.97</ele>
        <time>2026-06-10T04:16:21Z</time>
        <speed>0.9038522</speed>
      </trkpt>
      <trkpt lat="29.4546843" lon="120.0331582">
        <ele>126.21</ele>
        <time>2026-06-10T04:16:55Z</time>
        <speed>0.8250997</speed>
      </trkpt>
      <trkpt lat="29.4546108" lon="120.033235">
        <ele>128.36</ele>
        <time>2026-06-10T04:17:11Z</time>
        <speed>0.7756864</speed>
      </trkpt>
      <trkpt lat="29.4545345" lon="120.0333196">
        <ele>131.26</ele>
        <time>2026-06-10T04:17:23Z</time>
        <speed>0.88738114</speed>
      </trkpt>
      <trkpt lat="29.4544682" lon="120.0334088">
        <ele>132.95</ele>
        <time>2026-06-10T04:17:38Z</time>
        <speed>0.79061335</speed>
      </trkpt>
      <trkpt lat="29.4544354" lon="120.0335233">
        <ele>134.39</ele>
        <time>2026-06-10T04:17:55Z</time>
        <speed>0.8683364</speed>
      </trkpt>
      <trkpt lat="29.4545007" lon="120.0335684">
        <ele>136.55</ele>
        <time>2026-06-10T04:18:13Z</time>
        <speed>0.88944</speed>
      </trkpt>
      <trkpt lat="29.4545971" lon="120.0335587">
        <ele>139.58</ele>
        <time>2026-06-10T04:18:45Z</time>
        <speed>0.42824888</speed>
      </trkpt>
      <trkpt lat="29.4546747" lon="120.0336131">
        <ele>142.64</ele>
        <time>2026-06-10T04:19:17Z</time>
        <speed>1.0474597</speed>
      </trkpt>
      <trkpt lat="29.4547339" lon="120.0335953">
        <ele>144.86</ele>
        <time>2026-06-10T04:20:05Z</time>
        <speed>0.0</speed>
      </trkpt>
      <trkpt lat="29.4547209" lon="120.0336551">
        <ele>147.5</ele>
        <time>2026-06-10T04:21:03Z</time>
        <speed>0.6696536</speed>
      </trkpt>
      <trkpt lat="29.454649" lon="120.033724">
        <ele>150.08</ele>
        <time>2026-06-10T04:21:15Z</time>
        <speed>0.8822339</speed>
      </trkpt>
      <trkpt lat="29.4545817" lon="120.0338383">
        <ele>152.11</ele>
        <time>2026-06-10T04:22:38Z</time>
        <speed>0.5975925</speed>
      </trkpt>
      <trkpt lat="29.45459" lon="120.033965">
        <ele>155.29</ele>
        <time>2026-06-10T04:22:46Z</time>
        <speed>0.9553245</speed>
      </trkpt>
      <trkpt lat="29.4546167" lon="120.0340776">
        <ele>157.66</ele>
        <time>2026-06-10T04:22:53Z</time>
        <speed>0.9753986</speed>
      </trkpt>
      <trkpt lat="29.4545745" lon="120.0341722">
        <ele>158.28</ele>
        <time>2026-06-10T04:23:37Z</time>
        <speed>1.0392241</speed>
      </trkpt>
      <trkpt lat="29.4545047" lon="120.0342762">
        <ele>158.59</ele>
        <time>2026-06-10T04:23:45Z</time>
        <speed>1.4854883</speed>
      </trkpt>
      <trkpt lat="29.4544418" lon="120.0343793">
        <ele>159.02</ele>
        <time>2026-06-10T04:23:53Z</time>
        <speed>1.5328428</speed>
      </trkpt>
      <trkpt lat="29.4543543" lon="120.0344347">
        <ele>159.57</ele>
        <time>2026-06-10T04:24:05Z</time>
        <speed>0.8503211</speed>
      </trkpt>
      <trkpt lat="29.4542542" lon="120.0344602">
        <ele>158.72</ele>
        <time>2026-06-10T04:24:13Z</time>
        <speed>1.2615842</speed>
      </trkpt>
      <trkpt lat="29.4541604" lon="120.0344938">
        <ele>157.21</ele>
        <time>2026-06-10T04:24:21Z</time>
        <speed>1.2466573</speed>
      </trkpt>
      <trkpt lat="29.4540844" lon="120.0345748">
        <ele>156.26</ele>
        <time>2026-06-10T04:24:55Z</time>
        <speed>0.98517835</speed>
      </trkpt>
      <trkpt lat="29.4540594" lon="120.0346918">
        <ele>156.75</ele>
        <time>2026-06-10T04:25:07Z</time>
        <speed>0.9553245</speed>
      </trkpt>
      <trkpt lat="29.4540285" lon="120.0348037">
        <ele>156.04</ele>
        <time>2026-06-10T04:25:20Z</time>
        <speed>1.0340769</speed>
      </trkpt>
      <trkpt lat="29.4539937" lon="120.0349145">
        <ele>155.16</ele>
        <time>2026-06-10T04:25:39Z</time>
        <speed>0.967163</speed>
      </trkpt>
      <trkpt lat="29.453941" lon="120.0350135">
        <ele>155.31</ele>
        <time>2026-06-10T04:25:51Z</time>
        <speed>0.87966025</speed>
      </trkpt>
      <trkpt lat="29.4539088" lon="120.0351139">
        <ele>155.86</ele>
        <time>2026-06-10T04:26:16Z</time>
        <speed>0.7406853</speed>
      </trkpt>
      <trkpt lat="29.4539012" lon="120.0352313">
        <ele>156.09</ele>
        <time>2026-06-10T04:26:51Z</time>
        <speed>0.6212697</speed>
      </trkpt>
      <trkpt lat="29.4538667" lon="120.0353388">
        <ele>156.27</ele>
        <time>2026-06-10T04:27:11Z</time>
        <speed>0.3844975</speed>
      </trkpt>
      <trkpt lat="29.4538531" lon="120.0354442">
        <ele>157.49</ele>
        <time>2026-06-10T04:28:02Z</time>
        <speed>0.33199584</speed>
      </trkpt>
      <trkpt lat="29.4538666" lon="120.035554">
        <ele>160.8</ele>
        <time>2026-06-10T04:28:28Z</time>
        <speed>0.6758303</speed>
      </trkpt>
      <trkpt lat="29.4538233" lon="120.0356567">
        <ele>163.08</ele>
        <time>2026-06-10T04:29:29Z</time>
        <speed>0.8106875</speed>
      </trkpt>
      <trkpt lat="29.453865" lon="120.035755">
        <ele>167.05</ele>
        <time>2026-06-10T04:29:51Z</time>
        <speed>0.7792894</speed>
      </trkpt>
      <trkpt lat="29.4538531" lon="120.0358703">
        <ele>169.95</ele>
        <time>2026-06-10T04:30:11Z</time>
        <speed>0.98517835</speed>
      </trkpt>
      <trkpt lat="29.4537802" lon="120.0359319">
        <ele>172.77</ele>
        <time>2026-06-10T04:30:25Z</time>
        <speed>0.9403975</speed>
      </trkpt>
      <trkpt lat="29.453693" lon="120.0359957">
        <ele>175.75</ele>
        <time>2026-06-10T04:30:45Z</time>
        <speed>1.210112</speed>
      </trkpt>
      <trkpt lat="29.4536232" lon="120.0360341">
        <ele>176.5</ele>
        <time>2026-06-10T04:31:07Z</time>
        <speed>0.0</speed>
      </trkpt>
      <trkpt lat="29.4535966" lon="120.0361219">
        <ele>177.06</ele>
        <time>2026-06-10T04:31:19Z</time>
        <speed>0.89561665</speed>
      </trkpt>
      <trkpt lat="29.4535816" lon="120.0362286">
        <ele>176.91</ele>
        <time>2026-06-10T04:31:31Z</time>
        <speed>1.0042231</speed>
      </trkpt>
      <trkpt lat="29.4535914" lon="120.0363368">
        <ele>178.19</ele>
        <time>2026-06-10T04:31:47Z</time>
        <speed>0.41949862</speed>
      </trkpt>
      <trkpt lat="29.4535711" lon="120.0364474">
        <ele>180.43</ele>
        <time>2026-06-10T04:32:03Z</time>
        <speed>0.73553807</speed>
      </trkpt>
      <trkpt lat="29.4535563" lon="120.0365553">
        <ele>182.01</ele>
        <time>2026-06-10T04:32:22Z</time>
        <speed>0.42721945</speed>
      </trkpt>
      <trkpt lat="29.4535365" lon="120.0366602">
        <ele>183.94</ele>
        <time>2026-06-10T04:32:38Z</time>
        <speed>0.6902425</speed>
      </trkpt>
      <trkpt lat="29.4535285" lon="120.0367777">
        <ele>185.52</ele>
        <time>2026-06-10T04:33:18Z</time>
        <speed>1.0834903</speed>
      </trkpt>
      <trkpt lat="29.4535264" lon="120.0369009">
        <ele>187.96</ele>
        <time>2026-06-10T04:33:32Z</time>
        <speed>0.90230805</speed>
      </trkpt>
      <trkpt lat="29.4535246" lon="120.0370169">
        <ele>190.47</ele>
        <time>2026-06-10T04:33:44Z</time>
        <speed>0.8266439</speed>
      </trkpt>
      <trkpt lat="29.4535024" lon="120.0371233">
        <ele>192.89</ele>
        <time>2026-06-10T04:33:58Z</time>
        <speed>0.63156414</speed>
      </trkpt>
      <trkpt lat="29.453466" lon="120.0372275">
        <ele>195.18</ele>
        <time>2026-06-10T04:34:19Z</time>
        <speed>0.89510196</speed>
      </trkpt>
      <trkpt lat="29.4534054" lon="120.0373064">
        <ele>198.03</ele>
        <time>2026-06-10T04:34:31Z</time>
        <speed>0.96356</speed>
      </trkpt>
      <trkpt lat="29.4533961" lon="120.0374002">
        <ele>200.94</ele>
        <time>2026-06-10T04:34:53Z</time>
        <speed>0.60531336</speed>
      </trkpt>
      <trkpt lat="29.4533499" lon="120.0374911">
        <ele>202.47</ele>
        <time>2026-06-10T04:35:09Z</time>
        <speed>0.0</speed>
      </trkpt>
      <trkpt lat="29.4533136" lon="120.0375947">
        <ele>205.71</ele>
        <time>2026-06-10T04:35:37Z</time>
        <speed>0.0</speed>
      </trkpt>
      <trkpt lat="29.4532644" lon="120.0376844">
        <ele>201.88</ele>
        <time>2026-06-10T04:35:47Z</time>
        <speed>0.8276733</speed>
      </trkpt>
      <trkpt lat="29.4532969" lon="120.0377909">
        <ele>196.68</ele>
        <time>2026-06-10T04:35:55Z</time>
        <speed>1.1385655</speed>
      </trkpt>
      <trkpt lat="29.45331" lon="120.0378964">
        <ele>193.68</ele>
        <time>2026-06-10T04:36:09Z</time>
        <speed>0.4287636</speed>
      </trkpt>
      <trkpt lat="29.4532818" lon="120.0380035">
        <ele>196.74</ele>
        <time>2026-06-10T04:37:03Z</time>
        <speed>0.42413113</speed>
      </trkpt>
      <trkpt lat="29.4532399" lon="120.0381133">
        <ele>202.79</ele>
        <time>2026-06-10T04:37:26Z</time>
        <speed>0.9753986</speed>
      </trkpt>
      <trkpt lat="29.4532247" lon="120.0382276">
        <ele>205.93</ele>
        <time>2026-06-10T04:38:02Z</time>
        <speed>0.49413332</speed>
      </trkpt>
      <trkpt lat="29.4532009" lon="120.0383333">
        <ele>204.54</ele>
        <time>2026-06-10T04:38:17Z</time>
        <speed>0.68612474</speed>
      </trkpt>
      <trkpt lat="29.4531358" lon="120.0384166">
        <ele>201.9</ele>
        <time>2026-06-10T04:38:34Z</time>
        <speed>0.75612694</speed>
      </trkpt>
      <trkpt lat="29.453141" lon="120.0385095">
        <ele>199.32</ele>
        <time>2026-06-10T04:38:55Z</time>
        <speed>0.670683</speed>
      </trkpt>
      <trkpt lat="29.4531803" lon="120.0386124">
        <ele>195.53</ele>
        <time>2026-06-10T04:39:32Z</time>
        <speed>0.5044278</speed>
      </trkpt>
      <trkpt lat="29.4532647" lon="120.0386977">
        <ele>191.39</ele>
        <time>2026-06-10T04:39:49Z</time>
        <speed>0.83539414</speed>
      </trkpt>
      <trkpt lat="29.4533084" lon="120.0388088">
        <ele>189.8</ele>
        <time>2026-06-10T04:40:07Z</time>
        <speed>0.8729689</speed>
      </trkpt>
      <trkpt lat="29.4533493" lon="120.03891">
        <ele>191.18</ele>
        <time>2026-06-10T04:40:47Z</time>
        <speed>0.0</speed>
      </trkpt>
      <trkpt lat="29.4534267" lon="120.0388517">
        <ele>192.52</ele>
        <time>2026-06-10T04:43:46Z</time>
        <speed>1.0279002</speed>
      </trkpt>
      <trkpt lat="29.4534817" lon="120.03877">
        <ele>194.62</ele>
        <time>2026-06-10T04:44:18Z</time>
        <speed>0.87451303</speed>
      </trkpt>
      <trkpt lat="29.4535268" lon="120.0386785">
        <ele>198.78</ele>
        <time>2026-06-10T04:44:58Z</time>
        <speed>0.6331083</speed>
      </trkpt>
      <trkpt lat="29.453466" lon="120.0386276">
        <ele>201.41</ele>
        <time>2026-06-10T04:45:22Z</time>
        <speed>0.79781944</speed>
      </trkpt>
      <trkpt lat="29.4534317" lon="120.03852">
        <ele>204.76</ele>
        <time>2026-06-10T04:48:59Z</time>
        <speed>0.657815</speed>
      </trkpt>
      <trkpt lat="29.4533383" lon="120.0385067">
        <ele>208.99</ele>
        <time>2026-06-10T04:49:57Z</time>
        <speed>0.50133944</speed>
      </trkpt>
      <trkpt lat="29.4533967" lon="120.0384183">
        <ele>214.24</ele>
        <time>2026-06-10T04:52:17Z</time>
        <speed>0.39067417</speed>
      </trkpt>
      <trkpt lat="29.45333" lon="120.0384967">
        <ele>223.69</ele>
        <time>2026-06-10T04:53:52Z</time>
        <speed>0.6104606</speed>
      </trkpt>
      <trkpt lat="29.4534133" lon="120.0385533">
        <ele>227.78</ele>
        <time>2026-06-10T04:55:43Z</time>
        <speed>0.46530887</speed>
      </trkpt>
      <trkpt lat="29.4534983" lon="120.0384867">
        <ele>225.12</ele>
        <time>2026-06-10T04:57:33Z</time>
        <speed>0.7442883</speed>
      </trkpt>
      <trkpt lat="29.4535617" lon="120.03839">
        <ele>220.51</ele>
        <time>2026-06-10T04:57:51Z</time>
        <speed>0.65678555</speed>
      </trkpt>
      <trkpt lat="29.4536095" lon="120.0382962">
        <ele>218.48</ele>
        <time>2026-06-10T04:58:05Z</time>
        <speed>0.59193057</speed>
      </trkpt>
      <trkpt lat="29.4536468" lon="120.0381989">
        <ele>218.15</ele>
        <time>2026-06-10T04:58:19Z</time>
        <speed>1.089667</speed>
      </trkpt>
      <trkpt lat="29.4536771" lon="120.0381421">
        <ele>217.74</ele>
        <time>2026-06-10T04:58:23Z</time>
        <speed>0.0</speed>
      </trkpt>
      <trkpt lat="29.4537391" lon="120.0380786">
        <ele>217.42</ele>
        <time>2026-06-10T04:58:37Z</time>
        <speed>0.7803189</speed>
      </trkpt>
      <trkpt lat="29.4538047" lon="120.0379943">
        <ele>217.24</ele>
        <time>2026-06-10T04:58:47Z</time>
        <speed>0.82818806</speed>
      </trkpt>
      <trkpt lat="29.4538505" lon="120.0378905">
        <ele>218.13</ele>
        <time>2026-06-10T04:58:59Z</time>
        <speed>0.8142906</speed>
      </trkpt>
      <trkpt lat="29.4539206" lon="120.0378052">
        <ele>219.92</ele>
        <time>2026-06-10T04:59:29Z</time>
        <speed>1.108197</speed>
      </trkpt>
      <trkpt lat="29.4540028" lon="120.0377332">
        <ele>221.85</ele>
        <time>2026-06-10T04:59:37Z</time>
        <speed>1.4314425</speed>
      </trkpt>
      <trkpt lat="29.4540295" lon="120.0376357">
        <ele>223.2</ele>
        <time>2026-06-10T04:59:47Z</time>
        <speed>1.3660728</speed>
      </trkpt>
      <trkpt lat="29.4540624" lon="120.0375368">
        <ele>222.9</ele>
        <time>2026-06-10T05:00:01Z</time>
        <speed>0.67685974</speed>
      </trkpt>
      <trkpt lat="29.4541123" lon="120.0374409">
        <ele>221.14</ele>
        <time>2026-06-10T05:00:17Z</time>
        <speed>0.7061989</speed>
      </trkpt>
      <trkpt lat="29.4541783" lon="120.0373679">
        <ele>220.26</ele>
        <time>2026-06-10T05:00:43Z</time>
        <speed>0.5559</speed>
      </trkpt>
      <trkpt lat="29.4542434" lon="120.0372859">
        <ele>218.99</ele>
        <time>2026-06-10T05:00:55Z</time>
        <speed>1.0819461</speed>
      </trkpt>
      <trkpt lat="29.4542545" lon="120.0372432">
        <ele>217.79</ele>
        <time>2026-06-10T05:00:59Z</time>
        <speed>0.0</speed>
      </trkpt>
      <trkpt lat="29.4543041" lon="120.0371848">
        <ele>216.98</ele>
        <time>2026-06-10T05:01:09Z</time>
        <speed>0.0</speed>
      </trkpt>
      <trkpt lat="29.4543493" lon="120.0370945">
        <ele>216.13</ele>
        <time>2026-06-10T05:01:29Z</time>
        <speed>1.0078261</speed>
      </trkpt>
      <trkpt lat="29.4543683" lon="120.0370775">
        <ele>215.94</ele>
        <time>2026-06-10T05:01:35Z</time>
        <speed>0.0</speed>
      </trkpt>
      <trkpt lat="29.4544364" lon="120.0370625">
        <ele>216.48</ele>
        <time>2026-06-10T05:02:15Z</time>
        <speed>1.1061381</speed>
      </trkpt>
      <trkpt lat="29.454524" lon="120.0370876">
        <ele>218.21</ele>
        <time>2026-06-10T05:02:45Z</time>
        <speed>1.0237825</speed>
      </trkpt>
      <trkpt lat="29.4545352" lon="120.0371069">
        <ele>219.11</ele>
        <time>2026-06-10T05:02:55Z</time>
        <speed>0.0</speed>
      </trkpt>
      <trkpt lat="29.454555" lon="120.0370217">
        <ele>219.84</ele>
        <time>2026-06-10T05:04:31Z</time>
        <speed>0.3124364</speed>
      </trkpt>
      <trkpt lat="29.454545" lon="120.0371367">
        <ele>221.37</ele>
        <time>2026-06-10T05:04:53Z</time>
        <speed>1.55652</speed>
      </trkpt>
      <trkpt lat="29.454535" lon="120.0371445">
        <ele>223.36</ele>
        <time>2026-06-10T05:05:03Z</time>
        <speed>0.0</speed>
      </trkpt>
      <trkpt lat="29.4545636" lon="120.03706">
        <ele>224.15</ele>
        <time>2026-06-10T05:05:15Z</time>
        <speed>1.2039353</speed>
      </trkpt>
      <trkpt lat="29.4546331" lon="120.0369662">
        <ele>223.61</ele>
        <time>2026-06-10T05:05:25Z</time>
        <speed>1.0608425</speed>
      </trkpt>
      <trkpt lat="29.4547174" lon="120.0368619">
        <ele>222.66</ele>
        <time>2026-06-10T05:05:33Z</time>
        <speed>1.714025</speed>
      </trkpt>
      <trkpt lat="29.4547803" lon="120.0368394">
        <ele>222.55</ele>
        <time>2026-06-10T05:05:47Z</time>
        <speed>0.0</speed>
      </trkpt>
      <trkpt lat="29.4546933" lon="120.0368767">
        <ele>223.17</ele>
        <time>2026-06-10T05:09:41Z</time>
        <speed>0.6583297</speed>
      </trkpt>
      <trkpt lat="29.4546367" lon="120.0369683">
        <ele>224.48</ele>
        <time>2026-06-10T05:10:25Z</time>
        <speed>0.9162056</speed>
      </trkpt>
      <trkpt lat="29.4545633" lon="120.03705">
        <ele>225.0</ele>
        <time>2026-06-10T05:11:29Z</time>
        <speed>0.19816805</speed>
      </trkpt>
      <trkpt lat="29.4544917" lon="120.037125">
        <ele>225.3</ele>
        <time>2026-06-10T05:11:43Z</time>
        <speed>0.96253055</speed>
      </trkpt>
      <trkpt lat="29.45441" lon="120.03703">
        <ele>224.66</ele>
        <time>2026-06-10T05:13:07Z</time>
        <speed>0.0</speed>
      </trkpt>
      <trkpt lat="29.45441" lon="120.0371367">
        <ele>219.73</ele>
        <time>2026-06-10T05:14:03Z</time>
        <speed>1.7078483</speed>
      </trkpt>
      <trkpt lat="29.454386" lon="120.0372433">
        <ele>219.89</ele>
        <time>2026-06-10T05:14:11Z</time>
        <speed>1.5251219</speed>
      </trkpt>
      <trkpt lat="29.4543244" lon="120.0373423">
        <ele>221.61</ele>
        <time>2026-06-10T05:14:19Z</time>
        <speed>1.7479967</speed>
      </trkpt>
      <trkpt lat="29.4542445" lon="120.0373122">
        <ele>222.81</ele>
        <time>2026-06-10T05:14:27Z</time>
        <speed>1.3995297</speed>
      </trkpt>
      <trkpt lat="29.4542084" lon="120.0373809">
        <ele>223.19</ele>
        <time>2026-06-10T05:14:39Z</time>
        <speed>1.0253266</speed>
      </trkpt>
      <trkpt lat="29.4541379" lon="120.0374425">
        <ele>222.68</ele>
        <time>2026-06-10T05:14:54Z</time>
        <speed>0.7432589</speed>
      </trkpt>
      <trkpt lat="29.4540837" lon="120.0375314">
        <ele>220.71</ele>
        <time>2026-06-10T05:15:01Z</time>
        <speed>1.1226091</speed>
      </trkpt>
      <trkpt lat="29.4540344" lon="120.0376372">
        <ele>219.42</ele>
        <time>2026-06-10T05:15:13Z</time>
        <speed>0.94914776</speed>
      </trkpt>
      <trkpt lat="29.454028" lon="120.0377539">
        <ele>220.53</ele>
        <time>2026-06-10T05:15:19Z</time>
        <speed>1.4757086</speed>
      </trkpt>
      <trkpt lat="29.4540243" lon="120.0377724">
        <ele>221.72</ele>
        <time>2026-06-10T05:15:21Z</time>
        <speed>0.0</speed>
      </trkpt>
      <trkpt lat="29.4539777" lon="120.0378463">
        <ele>222.61</ele>
        <time>2026-06-10T05:15:29Z</time>
        <speed>1.0315033</speed>
      </trkpt>
      <trkpt lat="29.4538939" lon="120.0378935">
        <ele>222.87</ele>
        <time>2026-06-10T05:15:35Z</time>
        <speed>1.4010739</speed>
      </trkpt>
      <trkpt lat="29.4538407" lon="120.037978">
        <ele>223.05</ele>
        <time>2026-06-10T05:15:47Z</time>
        <speed>1.3423955</speed>
      </trkpt>
      <trkpt lat="29.4537802" lon="120.0380684">
        <ele>222.86</ele>
        <time>2026-06-10T05:15:57Z</time>
        <speed>0.96356</speed>
      </trkpt>
      <trkpt lat="29.4537182" lon="120.0381583">
        <ele>221.76</ele>
        <time>2026-06-10T05:16:03Z</time>
        <speed>1.5781384</speed>
      </trkpt>
      <trkpt lat="29.4536709" lon="120.0382507">
        <ele>220.49</ele>
        <time>2026-06-10T05:16:09Z</time>
        <speed>1.4180597</speed>
      </trkpt>
      <trkpt lat="29.4535905" lon="120.0382809">
        <ele>219.8</ele>
        <time>2026-06-10T05:16:17Z</time>
        <speed>1.4298984</speed>
      </trkpt>
      <trkpt lat="29.4535724" lon="120.0383605">
        <ele>219.03</ele>
        <time>2026-06-10T05:16:27Z</time>
        <speed>1.1148883</speed>
      </trkpt>
      <trkpt lat="29.4535485" lon="120.0384551">
        <ele>217.73</ele>
        <time>2026-06-10T05:16:37Z</time>
        <speed>0.85392416</speed>
      </trkpt>
      <trkpt lat="29.4534997" lon="120.0385441">
        <ele>216.64</ele>
        <time>2026-06-10T05:16:47Z</time>
        <speed>1.0176058</speed>
      </trkpt>
      <trkpt lat="29.4534459" lon="120.0386223">
        <ele>216.84</ele>
        <time>2026-06-10T05:17:03Z</time>
        <speed>0.0</speed>
      </trkpt>
      <trkpt lat="29.4534097" lon="120.0385645">
        <ele>217.17</ele>
        <time>2026-06-10T05:17:39Z</time>
        <speed>0.6011956</speed>
      </trkpt>
      <trkpt lat="29.4533417" lon="120.038455">
        <ele>217.65</ele>
        <time>2026-06-10T05:19:58Z</time>
        <speed>0.42464584</speed>
      </trkpt>
      <trkpt lat="29.453395" lon="120.03836">
        <ele>222.88</ele>
        <time>2026-06-10T05:20:12Z</time>
        <speed>0.7412</speed>
      </trkpt>
      <trkpt lat="29.4534864" lon="120.0383256">
        <ele>227.92</ele>
        <time>2026-06-10T05:21:08Z</time>
        <speed>1.0140028</speed>
      </trkpt>
      <trkpt lat="29.4535087" lon="120.0383097">
        <ele>233.33</ele>
        <time>2026-06-10T05:21:19Z</time>
        <speed>0.0</speed>
      </trkpt>
      <trkpt lat="29.4535446" lon="120.038236">
        <ele>237.79</ele>
        <time>2026-06-10T05:21:42Z</time>
        <speed>0.46633834</speed>
      </trkpt>
      <trkpt lat="29.453587" lon="120.0381475">
        <ele>242.87</ele>
        <time>2026-06-10T05:22:00Z</time>
        <speed>0.4519261</speed>
      </trkpt>
      <trkpt lat="29.45364" lon="120.0380403">
        <ele>246.93</ele>
        <time>2026-06-10T05:22:28Z</time>
        <speed>0.5790625</speed>
      </trkpt>
      <trkpt lat="29.4536994" lon="120.0379368">
        <ele>251.09</ele>
        <time>2026-06-10T05:23:24Z</time>
        <speed>0.43030778</speed>
      </trkpt>
      <trkpt lat="29.4537532" lon="120.0378441">
        <ele>254.49</ele>
        <time>2026-06-10T05:24:02Z</time>
        <speed>0.24294889</speed>
      </trkpt>
      <trkpt lat="29.4538041" lon="120.0377475">
        <ele>257.33</ele>
        <time>2026-06-10T05:24:58Z</time>
        <speed>0.7828925</speed>
      </trkpt>
      <trkpt lat="29.4538416" lon="120.0376443">
        <ele>260.2</ele>
        <time>2026-06-10T05:25:28Z</time>
        <speed>0.6506089</speed>
      </trkpt>
      <trkpt lat="29.4538933" lon="120.03756">
        <ele>262.61</ele>
        <time>2026-06-10T05:26:44Z</time>
        <speed>0.26456723</speed>
      </trkpt>
      <trkpt lat="29.4539667" lon="120.0374767">
        <ele>263.94</ele>
        <time>2026-06-10T05:26:52Z</time>
        <speed>1.2723933</speed>
      </trkpt>
      <trkpt lat="29.4540259" lon="120.0373595">
        <ele>264.65</ele>
        <time>2026-06-10T05:27:02Z</time>
        <speed>1.2353333</speed>
      </trkpt>
      <trkpt lat="29.4540659" lon="120.0372415">
        <ele>266.18</ele>
        <time>2026-06-10T05:27:06Z</time>
        <speed>1.9662389</speed>
      </trkpt>
      <trkpt lat="29.4540998" lon="120.037118">
        <ele>267.91</ele>
        <time>2026-06-10T05:27:12Z</time>
        <speed>2.375443</speed>
      </trkpt>
      <trkpt lat="29.4541073" lon="120.0370418">
        <ele>270.27</ele>
        <time>2026-06-10T05:27:26Z</time>
        <speed>0.0</speed>
      </trkpt>
      <trkpt lat="29.4541549" lon="120.0369737">
        <ele>273.81</ele>
        <time>2026-06-10T05:27:50Z</time>
        <speed>1.13033</speed>
      </trkpt>
      <trkpt lat="29.4542105" lon="120.03687">
        <ele>276.73</ele>
        <time>2026-06-10T05:27:56Z</time>
        <speed>2.003299</speed>
      </trkpt>
      <trkpt lat="29.4542139" lon="120.0368581">
        <ele>280.03</ele>
        <time>2026-06-10T05:28:28Z</time>
        <speed>0.0</speed>
      </trkpt>
      <trkpt lat="29.4542475" lon="120.036792">
        <ele>281.39</ele>
        <time>2026-06-10T05:29:00Z</time>
        <speed>0.64288807</speed>
      </trkpt>
      <trkpt lat="29.4542955" lon="120.0366992">
        <ele>283.33</ele>
        <time>2026-06-10T05:29:24Z</time>
        <speed>0.41743973</speed>
      </trkpt>
      <trkpt lat="29.4543647" lon="120.0366034">
        <ele>285.77</ele>
        <time>2026-06-10T05:30:16Z</time>
        <speed>0.6995075</speed>
      </trkpt>
      <trkpt lat="29.4543647" lon="120.0366034">
        <ele>285.77</ele>
        <time>2026-06-10T05:31:23Z</time>
        <speed>0.6995075</speed>
      </trkpt>
      <extensions>
        <PauseTimes>1781069483000:pause</PauseTimes>
      </extensions>
    </trkseg>
  </trk>
  <trk>
    <trkseg>
      <trkpt lat="29.4543183" lon="120.0367183">
        <ele>287.46</ele>
        <time>2026-06-10T05:31:39Z</time>
        <speed>0.0</speed>
      </trkpt>
      <trkpt lat="29.4543183" lon="120.0367183">
        <ele>287.46</ele>
        <time>2026-06-10T05:31:40Z</time>
        <speed>0.0</speed>
      </trkpt>
      <trkpt lat="29.4543183" lon="120.0367183">
        <ele>287.46</ele>
        <time>2026-06-10T05:31:46Z</time>
        <speed>0.0</speed>
      </trkpt>
      <extensions>
        <PauseTimes>1781069506000:pause</PauseTimes>
      </extensions>
    </trkseg>
  </trk>
  <trk>
    <trkseg>
      <trkpt lat="29.4543046" lon="120.0367337">
        <ele>289.2</ele>
        <time>2026-06-10T05:41:16Z</time>
        <speed>0.0</speed>
      </trkpt>
      <trkpt lat="29.4543046" lon="120.0367337">
        <ele>289.2</ele>
        <time>2026-06-10T05:41:25Z</time>
        <speed>0.0</speed>
      </trkpt>
      <trkpt lat="29.4543689" lon="120.0366737">
        <ele>291.31</ele>
        <time>2026-06-10T05:41:38Z</time>
        <speed>1.6198308</speed>
      </trkpt>
      <trkpt lat="29.4544409" lon="120.0365832">
        <ele>293.8</ele>
        <time>2026-06-10T05:41:48Z</time>
        <speed>1.287835</speed>
      </trkpt>
      <trkpt lat="29.4544924" lon="120.0364532">
        <ele>293.76</ele>
        <time>2026-06-10T05:41:58Z</time>
        <speed>1.4952681</speed>
      </trkpt>
      <trkpt lat="29.4545393" lon="120.0363252">
        <ele>294.03</ele>
        <time>2026-06-10T05:42:08Z</time>
        <speed>1.3310716</speed>
      </trkpt>
      <trkpt lat="29.45459" lon="120.0362141">
        <ele>293.93</ele>
        <time>2026-06-10T05:42:18Z</time>
        <speed>1.2214358</speed>
      </trkpt>
      <trkpt lat="29.4546495" lon="120.0361042">
        <ele>292.59</ele>
        <time>2026-06-10T05:42:25Z</time>
        <speed>1.6913772</speed>
      </trkpt>
      <trkpt lat="29.454712" lon="120.0360165">
        <ele>290.87</ele>
        <time>2026-06-10T05:42:34Z</time>
        <speed>1.4499725</speed>
      </trkpt>
      <trkpt lat="29.4547674" lon="120.0359194">
        <ele>289.77</ele>
        <time>2026-06-10T05:42:42Z</time>
        <speed>1.5487992</speed>
      </trkpt>
      <trkpt lat="29.4548486" lon="120.0358705">
        <ele>289.74</ele>
        <time>2026-06-10T05:42:50Z</time>
        <speed>1.5179158</speed>
      </trkpt>
      <trkpt lat="29.4549542" lon="120.0358177">
        <ele>290.32</ele>
        <time>2026-06-10T05:42:59Z</time>
        <speed>1.4499725</speed>
      </trkpt>
      <trkpt lat="29.4550124" lon="120.0357357">
        <ele>291.39</ele>
        <time>2026-06-10T05:43:07Z</time>
        <speed>1.4952681</speed>
      </trkpt>
      <trkpt lat="29.4550588" lon="120.0356269">
        <ele>293.16</ele>
        <time>2026-06-10T05:43:17Z</time>
        <speed>1.343425</speed>
      </trkpt>
      <trkpt lat="29.455106" lon="120.0355293">
        <ele>295.11</ele>
        <time>2026-06-10T05:43:26Z</time>
        <speed>1.269305</speed>
      </trkpt>
      <trkpt lat="29.4551513" lon="120.0354365">
        <ele>295.67</ele>
        <time>2026-06-10T05:43:34Z</time>
        <speed>1.2919527</speed>
      </trkpt>
      <trkpt lat="29.4552028" lon="120.0353521">
        <ele>296.67</ele>
        <time>2026-06-10T05:43:44Z</time>
        <speed>1.0608425</speed>
      </trkpt>
      <trkpt lat="29.4552509" lon="120.0352608">
        <ele>296.34</ele>
        <time>2026-06-10T05:43:54Z</time>
        <speed>1.0942994</speed>
      </trkpt>
      <trkpt lat="29.4553201" lon="120.0351752">
        <ele>294.69</ele>
        <time>2026-06-10T05:44:06Z</time>
        <speed>1.2214358</speed>
      </trkpt>
      <trkpt lat="29.4553847" lon="120.0350906">
        <ele>292.59</ele>
        <time>2026-06-10T05:44:15Z</time>
        <speed>1.4896061</speed>
      </trkpt>
      <trkpt lat="29.4554541" lon="120.0350411">
        <ele>291.69</ele>
        <time>2026-06-10T05:44:32Z</time>
        <speed>0.0</speed>
      </trkpt>
      <trkpt lat="29.455506" lon="120.0349592">
        <ele>290.66</ele>
        <time>2026-06-10T05:44:46Z</time>
        <speed>1.1663605</speed>
      </trkpt>
      <trkpt lat="29.4555663" lon="120.0348748">
        <ele>290.2</ele>
        <time>2026-06-10T05:45:07Z</time>
        <speed>0.58420974</speed>
      </trkpt>
      <trkpt lat="29.4556465" lon="120.0348001">
        <ele>288.91</ele>
        <time>2026-06-10T05:45:22Z</time>
        <speed>1.1740814</speed>
      </trkpt>
      <trkpt lat="29.4556851" lon="120.0347032">
        <ele>286.8</ele>
        <time>2026-06-10T05:45:32Z</time>
        <speed>1.2456278</speed>
      </trkpt>
      <trkpt lat="29.4556851" lon="120.0347032">
        <ele>286.8</ele>
        <time>2026-06-10T05:45:54Z</time>
        <speed>1.2456278</speed>
      </trkpt>
      <extensions>
        <PauseTimes>1781070354000:pause</PauseTimes>
      </extensions>
    </trkseg>
  </trk>
  <trk>
    <trkseg>
      <trkpt lat="29.4556649" lon="120.0347695">
        <ele>284.52</ele>
        <time>2026-06-10T05:45:56Z</time>
        <speed>1.2677609</speed>
      </trkpt>
      <trkpt lat="29.4556649" lon="120.0347695">
        <ele>284.52</ele>
        <time>2026-06-10T05:45:58Z</time>
        <speed>1.2677609</speed>
      </trkpt>
      <trkpt lat="29.4555922" lon="120.0348551">
        <ele>283.69</ele>
        <time>2026-06-10T05:46:05Z</time>
        <speed>1.3974708</speed>
      </trkpt>
      <trkpt lat="29.4555058" lon="120.0349495">
        <ele>284.13</ele>
        <time>2026-06-10T05:46:16Z</time>
        <speed>1.1920967</speed>
      </trkpt>
      <trkpt lat="29.4554569" lon="120.034999">
        <ele>285.32</ele>
        <time>2026-06-10T05:46:27Z</time>
        <speed>0.0</speed>
      </trkpt>
      <trkpt lat="29.4554904" lon="120.0349447">
        <ele>286.21</ele>
        <time>2026-06-10T05:47:05Z</time>
        <speed>0.88377804</speed>
      </trkpt>
      <trkpt lat="29.4555749" lon="120.0348846">
        <ele>285.95</ele>
        <time>2026-06-10T05:47:25Z</time>
        <speed>1.1334183</speed>
      </trkpt>
      <trkpt lat="29.4556472" lon="120.0347845">
        <ele>284.85</ele>
        <time>2026-06-10T05:47:36Z</time>
        <speed>1.1256975</speed>
      </trkpt>
      <trkpt lat="29.4557035" lon="120.0346796">
        <ele>282.64</ele>
        <time>2026-06-10T05:47:52Z</time>
        <speed>0.7499503</speed>
      </trkpt>
      <trkpt lat="29.4557594" lon="120.034587">
        <ele>280.08</ele>
        <time>2026-06-10T05:48:08Z</time>
        <speed>0.7375969</speed>
      </trkpt>
      <trkpt lat="29.4557872" lon="120.0344838">
        <ele>276.3</ele>
        <time>2026-06-10T05:48:28Z</time>
        <speed>0.48023584</speed>
      </trkpt>
      <trkpt lat="29.4557785" lon="120.0343798">
        <ele>273.16</ele>
        <time>2026-06-10T05:48:56Z</time>
        <speed>0.55178225</speed>
      </trkpt>
      <trkpt lat="29.4557454" lon="120.034279">
        <ele>269.87</ele>
        <time>2026-06-10T05:49:16Z</time>
        <speed>0.60171026</speed>
      </trkpt>
      <trkpt lat="29.455686" lon="120.0341948">
        <ele>266.27</ele>
        <time>2026-06-10T05:49:37Z</time>
        <speed>0.0</speed>
      </trkpt>
      <trkpt lat="29.4556137" lon="120.0341131">
        <ele>262.41</ele>
        <time>2026-06-10T05:49:54Z</time>
        <speed>0.71443444</speed>
      </trkpt>
      <trkpt lat="29.4556247" lon="120.0340227">
        <ele>258.96</ele>
        <time>2026-06-10T05:50:34Z</time>
        <speed>1.26004</speed>
      </trkpt>
      <trkpt lat="29.4556008" lon="120.0339598">
        <ele>256.14</ele>
        <time>2026-06-10T05:50:57Z</time>
        <speed>0.0</speed>
      </trkpt>
      <trkpt lat="29.4556008" lon="120.033867">
        <ele>252.21</ele>
        <time>2026-06-10T05:51:28Z</time>
        <speed>1.1658459</speed>
      </trkpt>
      <trkpt lat="29.4555772" lon="120.0338208">
        <ele>247.9</ele>
        <time>2026-06-10T05:51:42Z</time>
        <speed>0.0</speed>
      </trkpt>
      <trkpt lat="29.4555186" lon="120.0337599">
        <ele>245.15</ele>
        <time>2026-06-10T05:52:08Z</time>
        <speed>0.4380286</speed>
      </trkpt>
      <trkpt lat="29.4555619" lon="120.033709">
        <ele>241.04</ele>
        <time>2026-06-10T05:52:52Z</time>
        <speed>0.0</speed>
      </trkpt>
      <trkpt lat="29.455622" lon="120.033629">
        <ele>236.68</ele>
        <time>2026-06-10T05:53:30Z</time>
        <speed>0.5203842</speed>
      </trkpt>
      <trkpt lat="29.4556577" lon="120.0335239">
        <ele>230.41</ele>
        <time>2026-06-10T05:53:57Z</time>
        <speed>0.71289027</speed>
      </trkpt>
      <trkpt lat="29.45573" lon="120.0334634">
        <ele>224.73</ele>
        <time>2026-06-10T05:54:12Z</time>
        <speed>0.7617889</speed>
      </trkpt>
      <trkpt lat="29.4557965" lon="120.0333899">
        <ele>220.76</ele>
        <time>2026-06-10T05:54:40Z</time>
        <speed>0.6295053</speed>
      </trkpt>
      <trkpt lat="29.4558887" lon="120.0333566">
        <ele>216.52</ele>
        <time>2026-06-10T05:55:14Z</time>
        <speed>0.3633939</speed>
      </trkpt>
      <trkpt lat="29.455987" lon="120.0333381">
        <ele>209.93</ele>
        <time>2026-06-10T05:55:50Z</time>
        <speed>0.342805</speed>
      </trkpt>
      <trkpt lat="29.4560656" lon="120.0332763">
        <ele>206.56</ele>
        <time>2026-06-10T05:56:14Z</time>
        <speed>0.5770036</speed>
      </trkpt>
      <trkpt lat="29.4561269" lon="120.0331842">
        <ele>203.14</ele>
        <time>2026-06-10T05:56:30Z</time>
        <speed>0.74222946</speed>
      </trkpt>
      <trkpt lat="29.4561748" lon="120.0330824">
        <ele>199.08</ele>
        <time>2026-06-10T05:56:51Z</time>
        <speed>0.6006808</speed>
      </trkpt>
      <trkpt lat="29.456115" lon="120.0330333">
        <ele>194.1</ele>
        <time>2026-06-10T05:57:20Z</time>
        <speed>1.1293006</speed>
      </trkpt>
      <trkpt lat="29.4560259" lon="120.0329876">
        <ele>190.57</ele>
        <time>2026-06-10T05:57:33Z</time>
        <speed>1.2183475</speed>
      </trkpt>
      <trkpt lat="29.4559165" lon="120.0329626">
        <ele>187.19</ele>
        <time>2026-06-10T05:57:55Z</time>
        <speed>0.620755</speed>
      </trkpt>
      <trkpt lat="29.4558235" lon="120.0329063">
        <ele>182.98</ele>
        <time>2026-06-10T05:58:12Z</time>
        <speed>0.7803189</speed>
      </trkpt>
      <trkpt lat="29.4557166" lon="120.0328882">
        <ele>179.33</ele>
        <time>2026-06-10T05:58:24Z</time>
        <speed>1.0356212</speed>
      </trkpt>
      <trkpt lat="29.4556307" lon="120.0328284">
        <ele>175.79</ele>
        <time>2026-06-10T05:58:38Z</time>
        <speed>1.2353333</speed>
      </trkpt>
      <trkpt lat="29.455594" lon="120.0327304">
        <ele>171.79</ele>
        <time>2026-06-10T05:58:59Z</time>
        <speed>0.5584736</speed>
      </trkpt>
      <trkpt lat="29.4555383" lon="120.0326483">
        <ele>168.01</ele>
        <time>2026-06-10T06:00:04Z</time>
        <speed>0.66193277</speed>
      </trkpt>
      <trkpt lat="29.4554433" lon="120.032625">
        <ele>163.27</ele>
        <time>2026-06-10T06:00:29Z</time>
        <speed>0.4884714</speed>
      </trkpt>
      <trkpt lat="29.4553892" lon="120.032699">
        <ele>160.19</ele>
        <time>2026-06-10T06:01:06Z</time>
        <speed>0.49619222</speed>
      </trkpt>
      <trkpt lat="29.4553231" lon="120.032776">
        <ele>153.74</ele>
        <time>2026-06-10T06:01:22Z</time>
        <speed>0.7484061</speed>
      </trkpt>
      <trkpt lat="29.4552972" lon="120.0328947">
        <ele>149.03</ele>
        <time>2026-06-10T06:01:35Z</time>
        <speed>0.7092872</speed>
      </trkpt>
      <trkpt lat="29.4552157" lon="120.0329293">
        <ele>146.18</ele>
        <time>2026-06-10T06:02:19Z</time>
        <speed>0.6356819</speed>
      </trkpt>
      <trkpt lat="29.4552592" lon="120.0329473">
        <ele>144.94</ele>
        <time>2026-06-10T06:02:58Z</time>
        <speed>0.68561</speed>
      </trkpt>
      <trkpt lat="29.4552714" lon="120.0330283">
        <ele>143.33</ele>
        <time>2026-06-10T06:03:35Z</time>
        <speed>0.5337669</speed>
      </trkpt>
      <trkpt lat="29.4552574" lon="120.0331308">
        <ele>142.63</ele>
        <time>2026-06-10T06:03:46Z</time>
        <speed>0.9872372</speed>
      </trkpt>
      <trkpt lat="29.4551962" lon="120.0332189">
        <ele>142.53</ele>
        <time>2026-06-10T06:03:55Z</time>
        <speed>0.8703953</speed>
      </trkpt>
      <trkpt lat="29.4551321" lon="120.0333031">
        <ele>143.16</ele>
        <time>2026-06-10T06:04:03Z</time>
        <speed>0.88583696</speed>
      </trkpt>
      <trkpt lat="29.4550461" lon="120.0333504">
        <ele>143.31</ele>
        <time>2026-06-10T06:04:13Z</time>
        <speed>0.880175</speed>
      </trkpt>
      <trkpt lat="29.4549401" lon="120.0333842">
        <ele>144.38</ele>
        <time>2026-06-10T06:04:23Z</time>
        <speed>0.0</speed>
      </trkpt>
      <trkpt lat="29.4548564" lon="120.0334477">
        <ele>147.18</ele>
        <time>2026-06-10T06:04:33Z</time>
        <speed>0.8220114</speed>
      </trkpt>
      <trkpt lat="29.4547881" lon="120.0335262">
        <ele>150.59</ele>
        <time>2026-06-10T06:04:43Z</time>
        <speed>0.7602447</speed>
      </trkpt>
      <trkpt lat="29.4547053" lon="120.033572">
        <ele>152.87</ele>
        <time>2026-06-10T06:05:09Z</time>
        <speed>0.52244306</speed>
      </trkpt>
      <trkpt lat="29.4546114" lon="120.0335634">
        <ele>154.09</ele>
        <time>2026-06-10T06:05:19Z</time>
        <speed>1.0762842</speed>
      </trkpt>
      <trkpt lat="29.4545125" lon="120.0335524">
        <ele>154.78</ele>
        <time>2026-06-10T06:05:29Z</time>
        <speed>1.0665045</speed>
      </trkpt>
      <trkpt lat="29.4544414" lon="120.0334689">
        <ele>154.83</ele>
        <time>2026-06-10T06:06:09Z</time>
        <speed>1.0567247</speed>
      </trkpt>
      <trkpt lat="29.454465" lon="120.0333672">
        <ele>152.71</ele>
        <time>2026-06-10T06:06:26Z</time>
        <speed>0.6140636</speed>
      </trkpt>
      <trkpt lat="29.4545333" lon="120.0332752">
        <ele>148.45</ele>
        <time>2026-06-10T06:06:42Z</time>
        <speed>0.5322228</speed>
      </trkpt>
      <trkpt lat="29.4546159" lon="120.0331943">
        <ele>143.95</ele>
        <time>2026-06-10T06:06:56Z</time>
        <speed>0.7448031</speed>
      </trkpt>
      <trkpt lat="29.4547044" lon="120.0331312">
        <ele>140.02</ele>
        <time>2026-06-10T06:07:06Z</time>
        <speed>1.0922406</speed>
      </trkpt>
      <trkpt lat="29.4547915" lon="120.0330749">
        <ele>136.78</ele>
        <time>2026-06-10T06:07:16Z</time>
        <speed>0.8817192</speed>
      </trkpt>
      <trkpt lat="29.4548857" lon="120.0330326">
        <ele>134.34</ele>
        <time>2026-06-10T06:07:22Z</time>
        <speed>1.6229192</speed>
      </trkpt>
      <trkpt lat="29.4549638" lon="120.0329746">
        <ele>132.73</ele>
        <time>2026-06-10T06:07:30Z</time>
        <speed>1.7032158</speed>
      </trkpt>
      <trkpt lat="29.4550564" lon="120.0329284">
        <ele>130.22</ele>
        <time>2026-06-10T06:07:39Z</time>
        <speed>1.1807728</speed>
      </trkpt>
      <trkpt lat="29.4550731" lon="120.0329331">
        <ele>127.63</ele>
        <time>2026-06-10T06:07:51Z</time>
        <speed>0.0</speed>
      </trkpt>
      <trkpt lat="29.4550731" lon="120.0329331">
        <ele>127.63</ele>
        <time>2026-06-10T06:08:02Z</time>
        <speed>0.0</speed>
      </trkpt>
      <extensions>
        <PauseTimes>1781071682000:pause</PauseTimes>
      </extensions>
    </trkseg>
  </trk>
  <wpt lat="29.4549346" lon="120.0330651">
    <ele>118.5</ele>
    <time>2026-06-10T04:15:49Z</time>
    <name><![CDATA[停车场
        ]]>
    </name>
    <cmt>停车场
        </cmt>
    <desc><![CDATA[]]>
    </desc>
    <sym>Flag, Blue</sym>
    <type>user</type>
    <extensions>
      <PosType>0</PosType>
      <Speed>0.09419417</Speed>
      <Accuracy>2.5</Accuracy>
      <Time>1781064949907</Time>
      <description><![CDATA[]]>
      </description>
      <FileId>1626167340</FileId>
      <FileSize>1412235</FileSize>
      <FileType>0</FileType>
    </extensions>
  </wpt>
  <wpt lat="29.4547778" lon="120.0331032">
    <ele>130.5</ele>
    <time>2026-06-10T04:16:21Z</time>
    <name><![CDATA[台阶上山
        ]]>
    </name>
    <cmt>台阶上山
        </cmt>
    <desc><![CDATA[]]>
    </desc>
    <sym>Flag, Blue</sym>
    <type>user</type>
    <extensions>
      <PosType>0</PosType>
      <Speed>0.9038522</Speed>
      <Accuracy>1.5</Accuracy>
      <Time>1781064981978</Time>
      <description><![CDATA[]]>
      </description>
      <FileId>1626167337</FileId>
      <FileSize>1470746</FileSize>
      <FileType>0</FileType>
    </extensions>
  </wpt>
  <wpt lat="29.4547339" lon="120.0335953">
    <ele>151.0</ele>
    <time>2026-06-10T04:20:05Z</time>
    <name><![CDATA[右转
        ]]>
    </name>
    <cmt>右转
        </cmt>
    <desc><![CDATA[]]>
    </desc>
    <sym>Flag, Blue</sym>
    <type>user</type>
    <extensions>
      <PosType>0</PosType>
      <Speed>0.0</Speed>
      <Accuracy>1.2</Accuracy>
      <Time>1781065205918</Time>
      <description><![CDATA[]]>
      </description>
      <FileId>1626167335</FileId>
      <FileSize>2065251</FileSize>
      <FileType>0</FileType>
    </extensions>
  </wpt>
  <wpt lat="29.454649" lon="120.033724">
    <ele>154.8</ele>
    <time>2026-06-10T04:21:15Z</time>
    <name><![CDATA[官岩寺
        ]]>
    </name>
    <cmt>官岩寺
        </cmt>
    <desc><![CDATA[]]>
    </desc>
    <sym>Flag, Blue</sym>
    <type>user</type>
    <extensions>
      <PosType>0</PosType>
      <Speed>0.8822339</Speed>
      <Accuracy>1.6</Accuracy>
      <Time>1781065275970</Time>
      <description><![CDATA[]]>
      </description>
      <FileId>1626167333</FileId>
      <FileSize>1011633</FileSize>
      <FileType>0</FileType>
    </extensions>
  </wpt>
  <wpt lat="29.4546167" lon="120.0340776">
    <ele>159.1</ele>
    <time>2026-06-10T04:22:53Z</time>
    <name><![CDATA[右转
        ]]>
    </name>
    <cmt>右转
        </cmt>
    <desc><![CDATA[]]>
    </desc>
    <sym>Flag, Blue</sym>
    <type>user</type>
    <extensions>
      <PosType>0</PosType>
      <Speed>0.9753986</Speed>
      <Accuracy>1.7</Accuracy>
      <Time>1781065373954</Time>
      <description><![CDATA[]]>
      </description>
      <FileId>1626167331</FileId>
      <FileSize>2513173</FileSize>
      <FileType>0</FileType>
    </extensions>
  </wpt>
  <wpt lat="29.4544418" lon="120.0343793">
    <ele>160.3</ele>
    <time>2026-06-10T04:23:53Z</time>
    <name><![CDATA[土路
        ]]>
    </name>
    <cmt>土路
        </cmt>
    <desc><![CDATA[]]>
    </desc>
    <sym>Flag, Blue</sym>
    <type>user</type>
    <extensions>
      <PosType>0</PosType>
      <Speed>1.5328428</Speed>
      <Accuracy>1.9</Accuracy>
      <Time>1781065433968</Time>
      <description><![CDATA[]]>
      </description>
      <FileId>1626167328</FileId>
      <FileSize>1345813</FileSize>
      <FileType>0</FileType>
    </extensions>
  </wpt>
  <wpt lat="29.4541604" lon="120.0344938">
    <ele>155.0</ele>
    <time>2026-06-10T04:24:21Z</time>
    <name><![CDATA[左转
        ]]>
    </name>
    <cmt>左转
        </cmt>
    <desc><![CDATA[]]>
    </desc>
    <sym>Flag, Blue</sym>
    <type>user</type>
    <extensions>
      <PosType>0</PosType>
      <Speed>1.2466573</Speed>
      <Accuracy>1.6</Accuracy>
      <Time>1781065461973</Time>
      <description><![CDATA[]]>
      </description>
      <FileId>1626167321</FileId>
      <FileSize>2701110</FileSize>
      <FileType>0</FileType>
    </extensions>
  </wpt>
  <wpt lat="29.4540285" lon="120.0348037">
    <ele>154.0</ele>
    <time>2026-06-10T04:25:20Z</time>
    <name><![CDATA[坟墓
        ]]>
    </name>
    <cmt>坟墓
        </cmt>
    <desc><![CDATA[]]>
    </desc>
    <sym>Flag, Blue</sym>
    <type>user</type>
    <extensions>
      <PosType>0</PosType>
      <Speed>1.0340769</Speed>
      <Accuracy>1.4</Accuracy>
      <Time>1781065520009</Time>
      <description><![CDATA[]]>
      </description>
    </extensions>
  </wpt>
  <wpt lat="29.453941" lon="120.0350135">
    <ele>156.6</ele>
    <time>2026-06-10T04:25:51Z</time>
    <name><![CDATA[左转
        ]]>
    </name>
    <cmt>左转
        </cmt>
    <desc><![CDATA[]]>
    </desc>
    <sym>Flag, Blue</sym>
    <type>user</type>
    <extensions>
      <PosType>0</PosType>
      <Speed>0.87966025</Speed>
      <Accuracy>1.4</Accuracy>
      <Time>1781065551977</Time>
      <description><![CDATA[]]>
      </description>
      <FileId>1626167317</FileId>
      <FileSize>2676004</FileSize>
      <FileType>0</FileType>
    </extensions>
  </wpt>
  <wpt lat="29.4539088" lon="120.0351139">
    <ele>156.4</ele>
    <time>2026-06-10T04:26:16Z</time>
    <name><![CDATA[右转
        ]]>
    </name>
    <cmt>右转
        </cmt>
    <desc><![CDATA[]]>
    </desc>
    <sym>Flag, Blue</sym>
    <type>user</type>
    <extensions>
      <PosType>0</PosType>
      <Speed>0.7406853</Speed>
      <Accuracy>1.6</Accuracy>
      <Time>1781065576002</Time>
      <description><![CDATA[]]>
      </description>
      <FileId>1626167314</FileId>
      <FileSize>2800806</FileSize>
      <FileType>0</FileType>
    </extensions>
  </wpt>
  <wpt lat="29.4538667" lon="120.0353388">
    <ele>159.1</ele>
    <time>2026-06-10T04:27:11Z</time>
    <name><![CDATA[开始上山
        ]]>
    </name>
    <cmt>开始上山
        </cmt>
    <desc><![CDATA[]]>
    </desc>
    <sym>Flag, Blue</sym>
    <type>user</type>
    <extensions>
      <PosType>0</PosType>
      <Speed>0.3844975</Speed>
      <Accuracy>1.5</Accuracy>
      <Time>1781065631994</Time>
      <description><![CDATA[]]>
      </description>
    </extensions>
  </wpt>
  <wpt lat="29.4538666" lon="120.035554">
    <ele>166.1</ele>
    <time>2026-06-10T04:28:28Z</time>
    <name><![CDATA[
        ]]>
    </name>
    <cmt>
        </cmt>
    <desc><![CDATA[]]>
    </desc>
    <sym>Flag, Blue</sym>
    <type>user</type>
    <extensions>
      <PosType>0</PosType>
      <Speed>0.6758303</Speed>
      <Accuracy>1.4</Accuracy>
      <Time>1781065708021</Time>
      <description><![CDATA[]]>
      </description>
      <FileId>1626167312</FileId>
      <FileSize>2515938</FileSize>
      <FileType>0</FileType>
    </extensions>
  </wpt>
  <wpt lat="29.4535914" lon="120.0363368">
    <ele>183.4</ele>
    <time>2026-06-10T04:31:47Z</time>
    <name><![CDATA[
        ]]>
    </name>
    <cmt>
        </cmt>
    <desc><![CDATA[]]>
    </desc>
    <sym>Flag, Blue</sym>
    <type>user</type>
    <extensions>
      <PosType>0</PosType>
      <Speed>0.41949862</Speed>
      <Accuracy>1.7</Accuracy>
      <Time>1781065907942</Time>
      <description><![CDATA[]]>
      </description>
      <FileId>1626167304</FileId>
      <FileSize>1262475</FileSize>
      <FileType>0</FileType>
    </extensions>
  </wpt>
  <wpt lat="29.4535365" lon="120.0366602">
    <ele>187.6</ele>
    <time>2026-06-10T04:32:38Z</time>
    <name><![CDATA[右转
        ]]>
    </name>
    <cmt>右转
        </cmt>
    <desc><![CDATA[]]>
    </desc>
    <sym>Flag, Blue</sym>
    <type>user</type>
    <extensions>
      <PosType>0</PosType>
      <Speed>0.6902425</Speed>
      <Accuracy>1.5</Accuracy>
      <Time>1781065958003</Time>
      <description><![CDATA[]]>
      </description>
      <FileId>1626167298</FileId>
      <FileSize>2753419</FileSize>
      <FileType>0</FileType>
    </extensions>
  </wpt>
  <wpt lat="29.45331" lon="120.0378964">
    <ele>200.8</ele>
    <time>2026-06-10T04:36:09Z</time>
    <name><![CDATA[左转
        ]]>
    </name>
    <cmt>左转
        </cmt>
    <desc><![CDATA[]]>
    </desc>
    <sym>Flag, Blue</sym>
    <type>user</type>
    <extensions>
      <PosType>0</PosType>
      <Speed>0.4287636</Speed>
      <Accuracy>1.6</Accuracy>
      <Time>1781066169970</Time>
      <description><![CDATA[]]>
      </description>
      <FileId>1626167295</FileId>
      <FileSize>2594589</FileSize>
      <FileType>0</FileType>
    </extensions>
  </wpt>
  <wpt lat="29.4532399" lon="120.0381133">
    <ele>210.1</ele>
    <time>2026-06-10T04:37:26Z</time>
    <name><![CDATA[下坡
        ]]>
    </name>
    <cmt>下坡
        </cmt>
    <desc><![CDATA[]]>
    </desc>
    <sym>Flag, Blue</sym>
    <type>user</type>
    <extensions>
      <PosType>0</PosType>
      <Speed>0.9753986</Speed>
      <Accuracy>1.5</Accuracy>
      <Time>1781066246011</Time>
      <description><![CDATA[]]>
      </description>
    </extensions>
  </wpt>
  <wpt lat="29.453141" lon="120.0385095">
    <ele>190.5</ele>
    <time>2026-06-10T04:38:55Z</time>
    <name><![CDATA[穿出树林
        ]]>
    </name>
    <cmt>穿出树林
        </cmt>
    <desc><![CDATA[]]>
    </desc>
    <sym>Flag, Blue</sym>
    <type>user</type>
    <extensions>
      <PosType>0</PosType>
      <Speed>0.670683</Speed>
      <Accuracy>1.7</Accuracy>
      <Time>1781066335985</Time>
      <description><![CDATA[]]>
      </description>
      <FileId>1626167290</FileId>
      <FileSize>2097184</FileSize>
      <FileType>0</FileType>
    </extensions>
  </wpt>
  <wpt lat="29.4533183" lon="120.0388583">
    <ele>195.0</ele>
    <time>2026-06-10T04:43:08Z</time>
    <name><![CDATA[往上爬
        ]]>
    </name>
    <cmt>往上爬
        </cmt>
    <desc><![CDATA[]]>
    </desc>
    <sym>Flag, Blue</sym>
    <type>user</type>
    <extensions>
      <PosType>0</PosType>
      <Speed>1.1751108</Speed>
      <Accuracy>1.4</Accuracy>
      <Time>1781066588036</Time>
      <description><![CDATA[]]>
      </description>
      <FileId>1626167287</FileId>
      <FileSize>1071635</FileSize>
      <FileType>0</FileType>
    </extensions>
  </wpt>
  <wpt lat="29.4534817" lon="120.03877">
    <ele>204.3</ele>
    <time>2026-06-10T04:44:18Z</time>
    <name><![CDATA[这里好上一点
        ]]>
    </name>
    <cmt>这里好上一点
        </cmt>
    <desc><![CDATA[]]>
    </desc>
    <sym>Flag, Blue</sym>
    <type>user</type>
    <extensions>
      <PosType>0</PosType>
      <Speed>0.87451303</Speed>
      <Accuracy>1.5</Accuracy>
      <Time>1781066658010</Time>
      <description><![CDATA[]]>
      </description>
      <FileId>1626167283</FileId>
      <FileSize>2497186</FileSize>
      <FileType>0</FileType>
    </extensions>
  </wpt>
  <wpt lat="29.4534317" lon="120.03852">
    <ele>214.6</ele>
    <time>2026-06-10T04:48:59Z</time>
    <name><![CDATA[攀岩
        ]]>
    </name>
    <cmt>攀岩
        </cmt>
    <desc><![CDATA[]]>
    </desc>
    <sym>Flag, Blue</sym>
    <type>user</type>
    <extensions>
      <PosType>0</PosType>
      <Speed>0.657815</Speed>
      <Accuracy>1.5</Accuracy>
      <Time>1781066939988</Time>
      <description><![CDATA[]]>
      </description>
      <FileId>1626167277</FileId>
      <FileSize>1129508</FileSize>
      <FileType>0</FileType>
    </extensions>
  </wpt>
  <wpt lat="29.4533967" lon="120.0384183">
    <ele>236.2</ele>
    <time>2026-06-10T04:52:17Z</time>
    <name><![CDATA[走错了，忘记去飞鹰道了
        ]]>
    </name>
    <cmt>走错了，忘记去飞鹰道了
        </cmt>
    <desc><![CDATA[]]>
    </desc>
    <sym>Flag, Blue</sym>
    <type>user</type>
    <extensions>
      <PosType>0</PosType>
      <Speed>0.39067417</Speed>
      <Accuracy>1.4</Accuracy>
      <Time>1781067137974</Time>
      <description><![CDATA[]]>
      </description>
    </extensions>
  </wpt>
  <wpt lat="29.4534133" lon="120.0385533">
    <ele>221.6</ele>
    <time>2026-06-10T04:55:43Z</time>
    <name><![CDATA[去飞鹰道
        ]]>
    </name>
    <cmt>去飞鹰道
        </cmt>
    <desc><![CDATA[]]>
    </desc>
    <sym>Flag, Blue</sym>
    <type>user</type>
    <extensions>
      <PosType>0</PosType>
      <Speed>0.46530887</Speed>
      <Accuracy>1.6</Accuracy>
      <Time>1781067343983</Time>
      <description><![CDATA[]]>
      </description>
      <FileId>1626167222</FileId>
      <FileSize>1997552</FileSize>
      <FileType>0</FileType>
    </extensions>
  </wpt>
  <wpt lat="29.4536095" lon="120.0382962">
    <ele>217.7</ele>
    <time>2026-06-10T04:58:05Z</time>
    <name><![CDATA[
        ]]>
    </name>
    <cmt>
        </cmt>
    <desc><![CDATA[]]>
    </desc>
    <sym>Flag, Blue</sym>
    <type>user</type>
    <extensions>
      <PosType>0</PosType>
      <Speed>0.59193057</Speed>
      <Accuracy>1.8</Accuracy>
      <Time>1781067485938</Time>
      <description><![CDATA[]]>
      </description>
      <FileId>1626167219</FileId>
      <FileSize>1608933</FileSize>
      <FileType>0</FileType>
    </extensions>
  </wpt>
  <wpt lat="29.4538505" lon="120.0378905">
    <ele>222.3</ele>
    <time>2026-06-10T04:58:59Z</time>
    <name><![CDATA[洞穴
        ]]>
    </name>
    <cmt>洞穴
        </cmt>
    <desc><![CDATA[]]>
    </desc>
    <sym>Flag, Blue</sym>
    <type>user</type>
    <extensions>
      <PosType>0</PosType>
      <Speed>0.8142906</Speed>
      <Accuracy>2.0</Accuracy>
      <Time>1781067539920</Time>
      <description><![CDATA[]]>
      </description>
      <FileId>1626167214</FileId>
      <FileSize>1181667</FileSize>
      <FileType>0</FileType>
    </extensions>
  </wpt>
  <wpt lat="29.4541123" lon="120.0374409">
    <ele>219.1</ele>
    <time>2026-06-10T05:00:17Z</time>
    <name><![CDATA[
        ]]>
    </name>
    <cmt>
        </cmt>
    <desc><![CDATA[]]>
    </desc>
    <sym>Flag, Blue</sym>
    <type>user</type>
    <extensions>
      <PosType>0</PosType>
      <Speed>0.7061989</Speed>
      <Accuracy>1.8</Accuracy>
      <Time>1781067617932</Time>
      <description><![CDATA[]]>
      </description>
      <FileId>1626167210</FileId>
      <FileSize>1378029</FileSize>
      <FileType>0</FileType>
    </extensions>
  </wpt>
  <wpt lat="29.4547517" lon="120.0368533">
    <ele>227.4</ele>
    <time>2026-06-10T05:09:27Z</time>
    <name><![CDATA[到头了
        ]]>
    </name>
    <cmt>到头了
        </cmt>
    <desc><![CDATA[]]>
    </desc>
    <sym>Flag, Blue</sym>
    <type>user</type>
    <extensions>
      <PosType>0</PosType>
      <Speed>0.4838389</Speed>
      <Accuracy>1.8</Accuracy>
      <Time>1781068167902</Time>
      <description><![CDATA[]]>
      </description>
      <FileId>1626167206</FileId>
      <FileSize>905634</FileSize>
      <FileType>0</FileType>
    </extensions>
  </wpt>
  <wpt lat="29.4542445" lon="120.0373122">
    <ele>223.7</ele>
    <time>2026-06-10T05:14:27Z</time>
    <name><![CDATA[原路返回
        ]]>
    </name>
    <cmt>原路返回
        </cmt>
    <desc><![CDATA[]]>
    </desc>
    <sym>Flag, Blue</sym>
    <type>user</type>
    <extensions>
      <PosType>0</PosType>
      <Speed>1.3995297</Speed>
      <Accuracy>2.2</Accuracy>
      <Time>1781068467972</Time>
      <description><![CDATA[]]>
      </description>
    </extensions>
  </wpt>
  <wpt lat="29.4543183" lon="120.0367183">
    <ele>291.5</ele>
    <time>2026-06-10T05:31:40Z</time>
    <name><![CDATA[登顶
        ]]>
    </name>
    <cmt>登顶
        </cmt>
    <desc><![CDATA[]]>
    </desc>
    <sym>Flag, Blue</sym>
    <type>user</type>
    <extensions>
      <PosType>0</PosType>
      <Speed>0.0</Speed>
      <Accuracy>1.0</Accuracy>
      <Time>1781069500971</Time>
      <description><![CDATA[]]>
      </description>
      <FileId>1626167202</FileId>
      <FileSize>1130134</FileSize>
      <FileType>0</FileType>
    </extensions>
  </wpt>
  <wpt lat="29.4545393" lon="120.0363252">
    <ele>293.8</ele>
    <time>2026-06-10T05:42:08Z</time>
    <name><![CDATA[
        ]]>
    </name>
    <cmt>
        </cmt>
    <desc><![CDATA[]]>
    </desc>
    <sym>Flag, Blue</sym>
    <type>user</type>
    <extensions>
      <PosType>0</PosType>
      <Speed>1.3310716</Speed>
      <Accuracy>1.1</Accuracy>
      <Time>1781070128009</Time>
      <description><![CDATA[]]>
      </description>
      <FileId>1626167199</FileId>
      <FileSize>1172663</FileSize>
      <FileType>0</FileType>
    </extensions>
  </wpt>
  <wpt lat="29.4553847" lon="120.0350906">
    <ele>290.5</ele>
    <time>2026-06-10T05:44:15Z</time>
    <name><![CDATA[
        ]]>
    </name>
    <cmt>
        </cmt>
    <desc><![CDATA[]]>
    </desc>
    <sym>Flag, Blue</sym>
    <type>user</type>
    <extensions>
      <PosType>0</PosType>
      <Speed>1.4896061</Speed>
      <Accuracy>1.3</Accuracy>
      <Time>1781070255993</Time>
      <description><![CDATA[]]>
      </description>
      <FileId>1626167196</FileId>
      <FileSize>1281278</FileSize>
      <FileType>0</FileType>
    </extensions>
  </wpt>
  <wpt lat="29.4557785" lon="120.0343798">
    <ele>265.5</ele>
    <time>2026-06-10T05:48:56Z</time>
    <name><![CDATA[
        ]]>
    </name>
    <cmt>
        </cmt>
    <desc><![CDATA[]]>
    </desc>
    <sym>Flag, Blue</sym>
    <type>user</type>
    <extensions>
      <PosType>0</PosType>
      <Speed>0.55178225</Speed>
      <Accuracy>1.0</Accuracy>
      <Time>1781070536019</Time>
      <description><![CDATA[]]>
      </description>
      <FileId>1626167194</FileId>
      <FileSize>1504334</FileSize>
      <FileType>0</FileType>
    </extensions>
  </wpt>
  <wpt lat="29.4556008" lon="120.0339598">
    <ele>247.0</ele>
    <time>2026-06-10T05:50:57Z</time>
    <name><![CDATA[陡坡注意安全
        ]]>
    </name>
    <cmt>陡坡注意安全
        </cmt>
    <desc><![CDATA[]]>
    </desc>
    <sym>Flag, Blue</sym>
    <type>user</type>
    <extensions>
      <PosType>0</PosType>
      <Speed>0.0</Speed>
      <Accuracy>1.4</Accuracy>
      <Time>1781070657943</Time>
      <description><![CDATA[]]>
      </description>
      <FileId>1626167188</FileId>
      <FileSize>1478132</FileSize>
      <FileType>0</FileType>
    </extensions>
  </wpt>
  <wpt lat="29.4555186" lon="120.0337599">
    <ele>235.6</ele>
    <time>2026-06-10T05:52:08Z</time>
    <name><![CDATA[往电塔那边走
        ]]>
    </name>
    <cmt>往电塔那边走
        </cmt>
    <desc><![CDATA[]]>
    </desc>
    <sym>Flag, Blue</sym>
    <type>user</type>
    <extensions>
      <PosType>0</PosType>
      <Speed>0.4380286</Speed>
      <Accuracy>1.1</Accuracy>
      <Time>1781070728037</Time>
      <description><![CDATA[]]>
      </description>
      <FileId>1626167182</FileId>
      <FileSize>2357283</FileSize>
      <FileType>0</FileType>
    </extensions>
  </wpt>
  <wpt lat="29.455987" lon="120.0333381">
    <ele>202.1</ele>
    <time>2026-06-10T05:55:50Z</time>
    <name><![CDATA[好走了
        ]]>
    </name>
    <cmt>好走了
        </cmt>
    <desc><![CDATA[]]>
    </desc>
    <sym>Flag, Blue</sym>
    <type>user</type>
    <extensions>
      <PosType>0</PosType>
      <Speed>0.342805</Speed>
      <Accuracy>1.3</Accuracy>
      <Time>1781070950025</Time>
      <description><![CDATA[]]>
      </description>
    </extensions>
  </wpt>
  <wpt lat="29.4561269" lon="120.0331842">
    <ele>193.7</ele>
    <time>2026-06-10T05:56:30Z</time>
    <name><![CDATA[自助卖水
        ]]>
    </name>
    <cmt>自助卖水
        </cmt>
    <desc><![CDATA[]]>
    </desc>
    <sym>Flag, Blue</sym>
    <type>user</type>
    <extensions>
      <PosType>0</PosType>
      <Speed>0.74222946</Speed>
      <Accuracy>1.1</Accuracy>
      <Time>1781070990027</Time>
      <description><![CDATA[]]>
      </description>
      <FileId>1626167178</FileId>
      <FileSize>1313263</FileSize>
      <FileType>0</FileType>
    </extensions>
  </wpt>
  <wpt lat="29.4560259" lon="120.0329876">
    <ele>182.7</ele>
    <time>2026-06-10T05:57:33Z</time>
    <name><![CDATA[
        ]]>
    </name>
    <cmt>
        </cmt>
    <desc><![CDATA[]]>
    </desc>
    <sym>Flag, Blue</sym>
    <type>user</type>
    <extensions>
      <PosType>0</PosType>
      <Speed>1.2183475</Speed>
      <Accuracy>1.3</Accuracy>
      <Time>1781071053983</Time>
      <description><![CDATA[]]>
      </description>
      <FileId>1626167175</FileId>
      <FileSize>1362047</FileSize>
      <FileType>0</FileType>
    </extensions>
  </wpt>
  <wpt lat="29.455594" lon="120.0327304">
    <ele>163.0</ele>
    <time>2026-06-10T05:58:59Z</time>
    <name><![CDATA[左转
        ]]>
    </name>
    <cmt>左转
        </cmt>
    <desc><![CDATA[]]>
    </desc>
    <sym>Flag, Blue</sym>
    <type>user</type>
    <extensions>
      <PosType>0</PosType>
      <Speed>0.5584736</Speed>
      <Accuracy>1.3</Accuracy>
      <Time>1781071139982</Time>
      <description><![CDATA[]]>
      </description>
      <FileId>1626167073</FileId>
      <FileSize>2514896</FileSize>
      <FileType>0</FileType>
    </extensions>
  </wpt>
  <wpt lat="29.4554433" lon="120.032625">
    <ele>156.1</ele>
    <time>2026-06-10T06:00:29Z</time>
    <name><![CDATA[
        ]]>
    </name>
    <cmt>
        </cmt>
    <desc><![CDATA[]]>
    </desc>
    <sym>Flag, Blue</sym>
    <type>user</type>
    <extensions>
      <PosType>0</PosType>
      <Speed>0.4884714</Speed>
      <Accuracy>1.1</Accuracy>
      <Time>1781071229940</Time>
      <description><![CDATA[]]>
      </description>
      <FileId>1626167071</FileId>
      <FileSize>2415174</FileSize>
      <FileType>0</FileType>
    </extensions>
  </wpt>
  <wpt lat="29.4553231" lon="120.032776">
    <ele>142.8</ele>
    <time>2026-06-10T06:01:22Z</time>
    <name><![CDATA[石板路
        ]]>
    </name>
    <cmt>石板路
        </cmt>
    <desc><![CDATA[]]>
    </desc>
    <sym>Flag, Blue</sym>
    <type>user</type>
    <extensions>
      <PosType>0</PosType>
      <Speed>0.7484061</Speed>
      <Accuracy>1.6</Accuracy>
      <Time>1781071282022</Time>
      <description><![CDATA[]]>
      </description>
      <FileId>1626167070</FileId>
      <FileSize>1330917</FileSize>
      <FileType>0</FileType>
    </extensions>
  </wpt>
  <wpt lat="29.4552592" lon="120.0329473">
    <ele>141.2</ele>
    <time>2026-06-10T06:02:58Z</time>
    <name><![CDATA[直行，右转近道直接到停车场
        ]]>
    </name>
    <cmt>直行，右转近道直接到停车场
        </cmt>
    <desc><![CDATA[]]>
    </desc>
    <sym>Flag, Blue</sym>
    <type>user</type>
    <extensions>
      <PosType>0</PosType>
      <Speed>0.68561</Speed>
      <Accuracy>1.6</Accuracy>
      <Time>1781071378010</Time>
      <description><![CDATA[]]>
      </description>
      <FileId>1626167069</FileId>
      <FileSize>1567600</FileSize>
      <FileType>0</FileType>
    </extensions>
  </wpt>
  <wpt lat="29.4550564" lon="120.0329284">
    <ele>124.2</ele>
    <time>2026-06-10T06:07:39Z</time>
    <name><![CDATA[这里就是近道下山
        ]]>
    </name>
    <cmt>这里就是近道下山
        </cmt>
    <desc><![CDATA[]]>
    </desc>
    <sym>Flag, Blue</sym>
    <type>user</type>
    <extensions>
      <PosType>0</PosType>
      <Speed>1.1807728</Speed>
      <Accuracy>1.5</Accuracy>
      <Time>1781071659998</Time>
      <description><![CDATA[]]>
      </description>
      <FileId>1626167068</FileId>
      <FileSize>1494922</FileSize>
      <FileType>0</FileType>
    </extensions>
  </wpt>
</gpx>