<?xml version='1.0' encoding='UTF-8' standalone='yes' ?>
<gpx version="1.1" creator="GPSBabel - http://www.gpsbabel.org" xmlns:xsi="http://www.w3.org/2001/XMLSchema-instance" xmlns="http://www.topografix.com/GPX/1/1" xsi:schemaLocation="http://www.topografix.com/GPX/1/1 http://www.topografix.com/GPX/1/1/gpx.xsd">
  <metadata>
    <link href="http://www.garmin.com">
      <text>Garmin International</text>
    </link>
    <time>2026-01-18T04:18:27Z</time>
    <bounds minlat="29.4433572" minlon="119.8483607" maxlat="29.4527433" maxlon="119.85662" />
  </metadata>
  <extensions>
    <name><![CDATA[浦江通济湖260118]]>
    </name>
    <description><![CDATA[通济湖保安殿环线]]>
    </description>
    <TrackId>78007335</TrackId>
    <TrackTypeId>8</TrackTypeId>
    <TrackTags>徒步</TrackTags>
    <BeginTime>1768709907000</BeginTime>
    <EndTime>1768717782000</EndTime>
    <TimeUsed>7875000</TimeUsed>
    <PauseTime>4847</PauseTime>
    <PosStartName>同乐绿道停车场</PosStartName>
    <PosEndName>同乐绿道停车场</PosEndName>
    <ProductVersion>and_8.1.1</ProductVersion>
    <StartDistrictId>9657</StartDistrictId>
    <EndDistrictId>9657</EndDistrictId>
    <CreaterId>64771087</CreaterId>
    <CreaterName><![CDATA[步履赴山野]]>
    </CreaterName>
    <CreaterIcon>1523534626</CreaterIcon>
    <OriginCreaterId>64771087</OriginCreaterId>
    <OriginCreaterNickname><![CDATA[步履赴山野]]>
    </OriginCreaterNickname>
    <OriginCreaterName><![CDATA[null]]>
    </OriginCreaterName>
    <OriginCreaterIcon>1523534626</OriginCreaterIcon>
    <ThumbnailId>1545464574</ThumbnailId>
    <Distance>4036.0</Distance>
    <ElevationGain>248.97000000000003</ElevationGain>
    <ElevationLoss>252.69999999999996</ElevationLoss>
    <SportAvgSpeed>0.5128235753485352</SportAvgSpeed>
  </extensions>
  <trk>
    <trkseg>
      <trkpt lat="29.4512217" lon="119.85662">
        <ele>90.6</ele>
        <time>2026-01-18T04:18:29Z</time>
        <speed>1.6182866</speed>
      </trkpt>
      <trkpt lat="29.4511933" lon="119.856515">
        <ele>90.6</ele>
        <time>2026-01-18T04:18:33Z</time>
        <speed>0.64031446</speed>
      </trkpt>
      <trkpt lat="29.4511213" lon="119.8564312">
        <ele>88.62</ele>
        <time>2026-01-18T04:18:45Z</time>
        <speed>0.9033375</speed>
      </trkpt>
      <trkpt lat="29.4510338" lon="119.8563768">
        <ele>90.07</ele>
        <time>2026-01-18T04:18:55Z</time>
        <speed>1.0309886</speed>
      </trkpt>
      <trkpt lat="29.4509487" lon="119.8563204">
        <ele>91.94</ele>
        <time>2026-01-18T04:19:07Z</time>
        <speed>1.059813</speed>
      </trkpt>
      <trkpt lat="29.4508594" lon="119.8562685">
        <ele>91.88</ele>
        <time>2026-01-18T04:19:17Z</time>
        <speed>1.1401098</speed>
      </trkpt>
      <trkpt lat="29.4507755" lon="119.8562135">
        <ele>90.77</ele>
        <time>2026-01-18T04:19:29Z</time>
        <speed>0.8518653</speed>
      </trkpt>
      <trkpt lat="29.4507056" lon="119.856139">
        <ele>91.0</ele>
        <time>2026-01-18T04:19:45Z</time>
        <speed>0.0</speed>
      </trkpt>
      <trkpt lat="29.450651" lon="119.8560483">
        <ele>91.51</ele>
        <time>2026-01-18T04:20:03Z</time>
        <speed>0.82818806</speed>
      </trkpt>
      <trkpt lat="29.4506375" lon="119.8559364">
        <ele>92.41</ele>
        <time>2026-01-18T04:20:25Z</time>
        <speed>0.81532</speed>
      </trkpt>
      <trkpt lat="29.4507004" lon="119.8558482">
        <ele>93.57</ele>
        <time>2026-01-18T04:20:41Z</time>
        <speed>0.68200696</speed>
      </trkpt>
      <trkpt lat="29.4507508" lon="119.8557405">
        <ele>95.3</ele>
        <time>2026-01-18T04:20:57Z</time>
        <speed>0.6650211</speed>
      </trkpt>
      <trkpt lat="29.4508159" lon="119.8556567">
        <ele>97.07</ele>
        <time>2026-01-18T04:21:11Z</time>
        <speed>0.46479416</speed>
      </trkpt>
      <trkpt lat="29.4508841" lon="119.8555462">
        <ele>98.59</ele>
        <time>2026-01-18T04:21:35Z</time>
        <speed>1.2682755</speed>
      </trkpt>
      <trkpt lat="29.450935" lon="119.8554426">
        <ele>100.57</ele>
        <time>2026-01-18T04:21:43Z</time>
        <speed>1.6682147</speed>
      </trkpt>
      <trkpt lat="29.4509609" lon="119.8553301">
        <ele>102.17</ele>
        <time>2026-01-18T04:21:59Z</time>
        <speed>0.6197256</speed>
      </trkpt>
      <trkpt lat="29.450929" lon="119.8552333">
        <ele>104.9</ele>
        <time>2026-01-18T04:22:13Z</time>
        <speed>0.36545277</speed>
      </trkpt>
      <trkpt lat="29.4508638" lon="119.8551403">
        <ele>106.79</ele>
        <time>2026-01-18T04:22:23Z</time>
        <speed>0.9429711</speed>
      </trkpt>
      <trkpt lat="29.4507828" lon="119.8550481">
        <ele>107.96</ele>
        <time>2026-01-18T04:22:37Z</time>
        <speed>0.83642364</speed>
      </trkpt>
      <trkpt lat="29.4507852" lon="119.8549482">
        <ele>109.31</ele>
        <time>2026-01-18T04:22:49Z</time>
        <speed>0.7576711</speed>
      </trkpt>
      <trkpt lat="29.4508435" lon="119.8548565">
        <ele>111.2</ele>
        <time>2026-01-18T04:22:59Z</time>
        <speed>0.89973444</speed>
      </trkpt>
      <trkpt lat="29.4508993" lon="119.8547579">
        <ele>113.52</ele>
        <time>2026-01-18T04:23:11Z</time>
        <speed>0.7993636</speed>
      </trkpt>
      <trkpt lat="29.4508943" lon="119.8546578">
        <ele>116.22</ele>
        <time>2026-01-18T04:23:43Z</time>
        <speed>0.5677386</speed>
      </trkpt>
      <trkpt lat="29.4508235" lon="119.854585">
        <ele>118.58</ele>
        <time>2026-01-18T04:23:55Z</time>
        <speed>0.90797</speed>
      </trkpt>
      <trkpt lat="29.4507345" lon="119.8546111">
        <ele>119.53</ele>
        <time>2026-01-18T04:24:15Z</time>
        <speed>0.62847584</speed>
      </trkpt>
      <trkpt lat="29.4506523" lon="119.8546846">
        <ele>119.61</ele>
        <time>2026-01-18T04:24:29Z</time>
        <speed>0.9265</speed>
      </trkpt>
      <trkpt lat="29.4505636" lon="119.8547366">
        <ele>120.29</ele>
        <time>2026-01-18T04:24:39Z</time>
        <speed>0.9028228</speed>
      </trkpt>
      <trkpt lat="29.4504652" lon="119.8547687">
        <ele>121.2</ele>
        <time>2026-01-18T04:24:53Z</time>
        <speed>0.7412</speed>
      </trkpt>
      <trkpt lat="29.4503832" lon="119.8548304">
        <ele>123.48</ele>
        <time>2026-01-18T04:25:15Z</time>
        <speed>0.5945042</speed>
      </trkpt>
      <trkpt lat="29.4503009" lon="119.8548829">
        <ele>126.07</ele>
        <time>2026-01-18T04:25:31Z</time>
        <speed>0.5795772</speed>
      </trkpt>
      <trkpt lat="29.4502093" lon="119.8549305">
        <ele>128.32</ele>
        <time>2026-01-18T04:25:55Z</time>
        <speed>0.4400875</speed>
      </trkpt>
      <trkpt lat="29.4501292" lon="119.8549873">
        <ele>129.64</ele>
        <time>2026-01-18T04:26:09Z</time>
        <speed>0.67994803</speed>
      </trkpt>
      <trkpt lat="29.4500501" lon="119.8550574">
        <ele>130.61</ele>
        <time>2026-01-18T04:26:19Z</time>
        <speed>0.8359089</speed>
      </trkpt>
      <trkpt lat="29.4499784" lon="119.8551308">
        <ele>131.12</ele>
        <time>2026-01-18T04:26:27Z</time>
        <speed>1.3969561</speed>
      </trkpt>
      <trkpt lat="29.4499003" lon="119.8551919">
        <ele>131.72</ele>
        <time>2026-01-18T04:26:35Z</time>
        <speed>1.1637869</speed>
      </trkpt>
      <trkpt lat="29.4498245" lon="119.855259">
        <ele>132.31</ele>
        <time>2026-01-18T04:26:45Z</time>
        <speed>0.90745527</speed>
      </trkpt>
      <trkpt lat="29.4497482" lon="119.8553474">
        <ele>132.44</ele>
        <time>2026-01-18T04:26:55Z</time>
        <speed>0.9898108</speed>
      </trkpt>
      <trkpt lat="29.4496516" lon="119.8554184">
        <ele>132.46</ele>
        <time>2026-01-18T04:27:19Z</time>
        <speed>0.4004539</speed>
      </trkpt>
      <trkpt lat="29.4495527" lon="119.8554768">
        <ele>131.27</ele>
        <time>2026-01-18T04:27:27Z</time>
        <speed>1.1159178</speed>
      </trkpt>
      <trkpt lat="29.4494564" lon="119.8555133">
        <ele>130.73</ele>
        <time>2026-01-18T04:27:37Z</time>
        <speed>1.0340769</speed>
      </trkpt>
      <trkpt lat="29.4493606" lon="119.8555539">
        <ele>131.36</ele>
        <time>2026-01-18T04:27:49Z</time>
        <speed>0.843115</speed>
      </trkpt>
      <trkpt lat="29.4492627" lon="119.8556002">
        <ele>133.57</ele>
        <time>2026-01-18T04:27:59Z</time>
        <speed>0.972825</speed>
      </trkpt>
      <trkpt lat="29.4491854" lon="119.8556692">
        <ele>135.61</ele>
        <time>2026-01-18T04:28:09Z</time>
        <speed>0.9604717</speed>
      </trkpt>
      <trkpt lat="29.4490845" lon="119.8557041">
        <ele>136.72</ele>
        <time>2026-01-18T04:28:19Z</time>
        <speed>0.7669361</speed>
      </trkpt>
      <trkpt lat="29.4489789" lon="119.8557176">
        <ele>136.84</ele>
        <time>2026-01-18T04:28:33Z</time>
        <speed>0.5672239</speed>
      </trkpt>
      <trkpt lat="29.4488899" lon="119.8556495">
        <ele>136.14</ele>
        <time>2026-01-18T04:28:43Z</time>
        <speed>1.1329036</speed>
      </trkpt>
      <trkpt lat="29.448854" lon="119.8555271">
        <ele>134.61</ele>
        <time>2026-01-18T04:28:59Z</time>
        <speed>0.6197256</speed>
      </trkpt>
      <trkpt lat="29.4488206" lon="119.855414">
        <ele>133.88</ele>
        <time>2026-01-18T04:29:15Z</time>
        <speed>0.41846916</speed>
      </trkpt>
      <trkpt lat="29.4487623" lon="119.8554317">
        <ele>134.4</ele>
        <time>2026-01-18T04:29:33Z</time>
        <speed>0.5584736</speed>
      </trkpt>
      <trkpt lat="29.4487019" lon="119.8555086">
        <ele>135.35</ele>
        <time>2026-01-18T04:30:07Z</time>
        <speed>0.45707333</speed>
      </trkpt>
      <trkpt lat="29.4486236" lon="119.8555987">
        <ele>136.88</ele>
        <time>2026-01-18T04:30:51Z</time>
        <speed>0.4472936</speed>
      </trkpt>
      <trkpt lat="29.4485428" lon="119.8556774">
        <ele>138.0</ele>
        <time>2026-01-18T04:31:01Z</time>
        <speed>0.82612914</speed>
      </trkpt>
      <trkpt lat="29.4484636" lon="119.8557466">
        <ele>139.38</ele>
        <time>2026-01-18T04:31:13Z</time>
        <speed>0.6964192</speed>
      </trkpt>
      <trkpt lat="29.4483706" lon="119.8557531">
        <ele>140.98</ele>
        <time>2026-01-18T04:31:25Z</time>
        <speed>0.7664214</speed>
      </trkpt>
      <trkpt lat="29.4482678" lon="119.8557578">
        <ele>142.97</ele>
        <time>2026-01-18T04:31:43Z</time>
        <speed>0.4889861</speed>
      </trkpt>
      <trkpt lat="29.4482201" lon="119.8558352">
        <ele>144.57</ele>
        <time>2026-01-18T04:32:13Z</time>
        <speed>0.39479193</speed>
      </trkpt>
      <trkpt lat="29.4481433" lon="119.8558796">
        <ele>145.44</ele>
        <time>2026-01-18T04:32:37Z</time>
        <speed>0.46891195</speed>
      </trkpt>
      <trkpt lat="29.4480773" lon="119.8558288">
        <ele>146.8</ele>
        <time>2026-01-18T04:33:13Z</time>
        <speed>0.67531556</speed>
      </trkpt>
      <trkpt lat="29.4480481" lon="119.8557185">
        <ele>148.13</ele>
        <time>2026-01-18T04:33:25Z</time>
        <speed>0.8009078</speed>
      </trkpt>
      <trkpt lat="29.4480193" lon="119.8556054">
        <ele>149.41</ele>
        <time>2026-01-18T04:33:37Z</time>
        <speed>0.6866394</speed>
      </trkpt>
      <trkpt lat="29.4479684" lon="119.8555113">
        <ele>151.69</ele>
        <time>2026-01-18T04:34:09Z</time>
        <speed>0.5327375</speed>
      </trkpt>
      <trkpt lat="29.4479283" lon="119.8554048">
        <ele>154.4</ele>
        <time>2026-01-18T04:34:27Z</time>
        <speed>0.40199804</speed>
      </trkpt>
      <trkpt lat="29.4479139" lon="119.8552959">
        <ele>157.03</ele>
        <time>2026-01-18T04:34:39Z</time>
        <speed>0.7108314</speed>
      </trkpt>
      <trkpt lat="29.4478761" lon="119.8551922">
        <ele>159.29</ele>
        <time>2026-01-18T04:34:57Z</time>
        <speed>0.58935696</speed>
      </trkpt>
      <trkpt lat="29.4478056" lon="119.8551099">
        <ele>161.32</ele>
        <time>2026-01-18T04:35:17Z</time>
        <speed>0.6397997</speed>
      </trkpt>
      <trkpt lat="29.4477136" lon="119.8550655">
        <ele>163.81</ele>
        <time>2026-01-18T04:35:31Z</time>
        <speed>0.59193057</speed>
      </trkpt>
      <trkpt lat="29.4476371" lon="119.8549988">
        <ele>166.25</ele>
        <time>2026-01-18T04:35:41Z</time>
        <speed>0.7643625</speed>
      </trkpt>
      <trkpt lat="29.4475785" lon="119.854905">
        <ele>168.55</ele>
        <time>2026-01-18T04:35:53Z</time>
        <speed>0.85340947</speed>
      </trkpt>
      <trkpt lat="29.4475143" lon="119.8548211">
        <ele>169.91</ele>
        <time>2026-01-18T04:36:03Z</time>
        <speed>0.9352503</speed>
      </trkpt>
      <trkpt lat="29.4474472" lon="119.8547485">
        <ele>170.89</ele>
        <time>2026-01-18T04:36:25Z</time>
        <speed>0.4581028</speed>
      </trkpt>
      <trkpt lat="29.4474128" lon="119.8546565">
        <ele>172.01</ele>
        <time>2026-01-18T04:37:05Z</time>
        <speed>0.4606764</speed>
      </trkpt>
      <trkpt lat="29.4473591" lon="119.8545755">
        <ele>172.44</ele>
        <time>2026-01-18T04:37:17Z</time>
        <speed>0.6506089</speed>
      </trkpt>
      <trkpt lat="29.4472892" lon="119.8545082">
        <ele>173.37</ele>
        <time>2026-01-18T04:37:31Z</time>
        <speed>0.7350233</speed>
      </trkpt>
      <trkpt lat="29.4472096" lon="119.8544482">
        <ele>175.1</ele>
        <time>2026-01-18T04:37:51Z</time>
        <speed>0.40868944</speed>
      </trkpt>
      <trkpt lat="29.44713" lon="119.8543737">
        <ele>177.98</ele>
        <time>2026-01-18T04:38:13Z</time>
        <speed>0.4313372</speed>
      </trkpt>
      <trkpt lat="29.4471103" lon="119.8542706">
        <ele>181.56</ele>
        <time>2026-01-18T04:38:23Z</time>
        <speed>0.8518653</speed>
      </trkpt>
      <trkpt lat="29.4470804" lon="119.8543176">
        <ele>183.99</ele>
        <time>2026-01-18T04:38:47Z</time>
        <speed>0.77517164</speed>
      </trkpt>
      <trkpt lat="29.4470552" lon="119.8544225">
        <ele>187.56</ele>
        <time>2026-01-18T04:38:59Z</time>
        <speed>0.64957947</speed>
      </trkpt>
      <trkpt lat="29.4469805" lon="119.8544673">
        <ele>190.5</ele>
        <time>2026-01-18T04:39:27Z</time>
        <speed>0.78803974</speed>
      </trkpt>
      <trkpt lat="29.4468819" lon="119.8544356">
        <ele>194.24</ele>
        <time>2026-01-18T04:39:51Z</time>
        <speed>0.5502381</speed>
      </trkpt>
      <trkpt lat="29.4467894" lon="119.8543667">
        <ele>196.76</ele>
        <time>2026-01-18T04:40:01Z</time>
        <speed>0.68458056</speed>
      </trkpt>
      <trkpt lat="29.4467367" lon="119.8542568">
        <ele>197.81</ele>
        <time>2026-01-18T04:40:11Z</time>
        <speed>1.0217236</speed>
      </trkpt>
      <trkpt lat="29.4467459" lon="119.8541386">
        <ele>198.49</ele>
        <time>2026-01-18T04:40:25Z</time>
        <speed>0.8719394</speed>
      </trkpt>
      <trkpt lat="29.4467911" lon="119.8540169">
        <ele>199.36</ele>
        <time>2026-01-18T04:40:41Z</time>
        <speed>0.6006808</speed>
      </trkpt>
      <trkpt lat="29.4468138" lon="119.8539054">
        <ele>200.54</ele>
        <time>2026-01-18T04:40:53Z</time>
        <speed>0.81377584</speed>
      </trkpt>
      <trkpt lat="29.4467528" lon="119.8538456">
        <ele>202.24</ele>
        <time>2026-01-18T04:41:07Z</time>
        <speed>0.7082578</speed>
      </trkpt>
      <trkpt lat="29.4466564" lon="119.8538189">
        <ele>204.42</ele>
        <time>2026-01-18T04:41:33Z</time>
        <speed>0.6758303</speed>
      </trkpt>
      <trkpt lat="29.4466086" lon="119.853739">
        <ele>206.95</ele>
        <time>2026-01-18T04:41:45Z</time>
        <speed>0.77208334</speed>
      </trkpt>
      <trkpt lat="29.4465953" lon="119.8536263">
        <ele>208.35</ele>
        <time>2026-01-18T04:42:23Z</time>
        <speed>0.77517164</speed>
      </trkpt>
      <trkpt lat="29.4465753" lon="119.8535155">
        <ele>209.01</ele>
        <time>2026-01-18T04:42:31Z</time>
        <speed>0.99753165</speed>
      </trkpt>
      <trkpt lat="29.4465432" lon="119.8534103">
        <ele>209.61</ele>
        <time>2026-01-18T04:42:43Z</time>
        <speed>0.8688511</speed>
      </trkpt>
      <trkpt lat="29.4464796" lon="119.8533233">
        <ele>210.47</ele>
        <time>2026-01-18T04:43:03Z</time>
        <speed>0.5111192</speed>
      </trkpt>
      <trkpt lat="29.4464022" lon="119.8532622">
        <ele>212.55</ele>
        <time>2026-01-18T04:43:15Z</time>
        <speed>0.9378239</speed>
      </trkpt>
      <trkpt lat="29.4463028" lon="119.8532484">
        <ele>213.86</ele>
        <time>2026-01-18T04:43:27Z</time>
        <speed>0.7267878</speed>
      </trkpt>
      <trkpt lat="29.4461972" lon="119.8532563">
        <ele>215.21</ele>
        <time>2026-01-18T04:43:39Z</time>
        <speed>0.80554026</speed>
      </trkpt>
      <trkpt lat="29.4461152" lon="119.8532148">
        <ele>216.41</ele>
        <time>2026-01-18T04:43:51Z</time>
        <speed>0.9012786</speed>
      </trkpt>
      <trkpt lat="29.4460734" lon="119.8531195">
        <ele>217.78</ele>
        <time>2026-01-18T04:44:03Z</time>
        <speed>0.85083586</speed>
      </trkpt>
      <trkpt lat="29.4460457" lon="119.853007">
        <ele>219.17</ele>
        <time>2026-01-18T04:44:15Z</time>
        <speed>0.898705</speed>
      </trkpt>
      <trkpt lat="29.4459782" lon="119.8529242">
        <ele>220.73</ele>
        <time>2026-01-18T04:44:29Z</time>
        <speed>0.85135055</speed>
      </trkpt>
      <trkpt lat="29.4459002" lon="119.8528575">
        <ele>222.09</ele>
        <time>2026-01-18T04:44:39Z</time>
        <speed>1.1159178</speed>
      </trkpt>
      <trkpt lat="29.4458346" lon="119.8527766">
        <ele>223.21</ele>
        <time>2026-01-18T04:44:51Z</time>
        <speed>0.88635164</speed>
      </trkpt>
      <trkpt lat="29.4457633" lon="119.8526921">
        <ele>222.78</ele>
        <time>2026-01-18T04:45:11Z</time>
        <speed>0.58266556</speed>
      </trkpt>
      <trkpt lat="29.4457099" lon="119.8526027">
        <ele>223.82</ele>
        <time>2026-01-18T04:45:31Z</time>
        <speed>0.41023362</speed>
      </trkpt>
      <trkpt lat="29.445701" lon="119.8524956">
        <ele>226.01</ele>
        <time>2026-01-18T04:45:51Z</time>
        <speed>0.54560554</speed>
      </trkpt>
      <trkpt lat="29.4456936" lon="119.852385">
        <ele>228.15</ele>
        <time>2026-01-18T04:46:01Z</time>
        <speed>0.9105436</speed>
      </trkpt>
      <trkpt lat="29.4456301" lon="119.8523345">
        <ele>229.98</ele>
        <time>2026-01-18T04:46:39Z</time>
        <speed>0.5492086</speed>
      </trkpt>
      <trkpt lat="29.4455494" lon="119.8522841">
        <ele>231.8</ele>
        <time>2026-01-18T04:47:11Z</time>
        <speed>0.18221167</speed>
      </trkpt>
      <trkpt lat="29.4455086" lon="119.8521985">
        <ele>234.51</ele>
        <time>2026-01-18T04:47:53Z</time>
        <speed>0.42001334</speed>
      </trkpt>
      <trkpt lat="29.4454456" lon="119.8522299">
        <ele>237.04</ele>
        <time>2026-01-18T04:48:17Z</time>
        <speed>0.9831194</speed>
      </trkpt>
      <trkpt lat="29.445406" lon="119.8521724">
        <ele>239.39</ele>
        <time>2026-01-18T04:49:09Z</time>
        <speed>0.26044944</speed>
      </trkpt>
      <trkpt lat="29.4453418" lon="119.852108">
        <ele>240.77</ele>
        <time>2026-01-18T04:50:03Z</time>
        <speed>0.5147222</speed>
      </trkpt>
      <trkpt lat="29.4453654" lon="119.852019">
        <ele>243.75</ele>
        <time>2026-01-18T04:50:29Z</time>
        <speed>0.4931039</speed>
      </trkpt>
      <trkpt lat="29.4453655" lon="119.8519149">
        <ele>248.16</ele>
        <time>2026-01-18T04:50:55Z</time>
        <speed>0.54406136</speed>
      </trkpt>
      <trkpt lat="29.4453126" lon="119.8518311">
        <ele>252.05</ele>
        <time>2026-01-18T04:51:19Z</time>
        <speed>0.3824386</speed>
      </trkpt>
      <trkpt lat="29.4452318" lon="119.8517666">
        <ele>256.29</ele>
        <time>2026-01-18T04:51:37Z</time>
        <speed>0.5378847</speed>
      </trkpt>
      <trkpt lat="29.4451317" lon="119.8517117">
        <ele>260.55</ele>
        <time>2026-01-18T04:54:05Z</time>
        <speed>0.5847244</speed>
      </trkpt>
      <trkpt lat="29.4450867" lon="119.85162">
        <ele>263.88</ele>
        <time>2026-01-18T04:54:25Z</time>
        <speed>0.5255314</speed>
      </trkpt>
      <trkpt lat="29.4450304" lon="119.8515269">
        <ele>267.59</ele>
        <time>2026-01-18T04:54:45Z</time>
        <speed>0.65266776</speed>
      </trkpt>
      <trkpt lat="29.4449592" lon="119.8514555">
        <ele>270.91</ele>
        <time>2026-01-18T04:55:03Z</time>
        <speed>0.59862196</speed>
      </trkpt>
      <trkpt lat="29.4448897" lon="119.8513745">
        <ele>274.99</ele>
        <time>2026-01-18T04:55:15Z</time>
        <speed>0.82561445</speed>
      </trkpt>
      <trkpt lat="29.4448075" lon="119.8513094">
        <ele>278.09</ele>
        <time>2026-01-18T04:55:27Z</time>
        <speed>0.9228969</speed>
      </trkpt>
      <trkpt lat="29.4447236" lon="119.8512589">
        <ele>280.46</ele>
        <time>2026-01-18T04:55:45Z</time>
        <speed>0.41023362</speed>
      </trkpt>
      <trkpt lat="29.4446314" lon="119.8512453">
        <ele>282.5</ele>
        <time>2026-01-18T04:55:53Z</time>
        <speed>0.9069406</speed>
      </trkpt>
      <trkpt lat="29.4445354" lon="119.8512727">
        <ele>283.19</ele>
        <time>2026-01-18T04:56:05Z</time>
        <speed>0.7283319</speed>
      </trkpt>
      <trkpt lat="29.4444401" lon="119.8513162">
        <ele>282.55</ele>
        <time>2026-01-18T04:56:15Z</time>
        <speed>0.8909842</speed>
      </trkpt>
      <trkpt lat="29.4443369" lon="119.8513719">
        <ele>281.67</ele>
        <time>2026-01-18T04:56:25Z</time>
        <speed>0.94142693</speed>
      </trkpt>
      <trkpt lat="29.4442373" lon="119.8513979">
        <ele>280.56</ele>
        <time>2026-01-18T04:56:35Z</time>
        <speed>0.84465915</speed>
      </trkpt>
      <trkpt lat="29.4441485" lon="119.8513532">
        <ele>281.35</ele>
        <time>2026-01-18T04:56:51Z</time>
        <speed>0.6691389</speed>
      </trkpt>
      <trkpt lat="29.4440599" lon="119.8513621">
        <ele>283.18</ele>
        <time>2026-01-18T04:57:17Z</time>
        <speed>0.3314811</speed>
      </trkpt>
      <trkpt lat="29.4439621" lon="119.8513697">
        <ele>284.57</ele>
        <time>2026-01-18T04:57:31Z</time>
        <speed>0.6804628</speed>
      </trkpt>
      <trkpt lat="29.4438707" lon="119.8514036">
        <ele>286.34</ele>
        <time>2026-01-18T04:57:39Z</time>
        <speed>0.94142693</speed>
      </trkpt>
      <trkpt lat="29.4437832" lon="119.8513704">
        <ele>288.09</ele>
        <time>2026-01-18T04:57:49Z</time>
        <speed>0.99495804</speed>
      </trkpt>
      <trkpt lat="29.4437107" lon="119.8512947">
        <ele>289.43</ele>
        <time>2026-01-18T04:57:59Z</time>
        <speed>0.8127464</speed>
      </trkpt>
      <trkpt lat="29.4436359" lon="119.8512227">
        <ele>290.06</ele>
        <time>2026-01-18T04:58:09Z</time>
        <speed>1.0037084</speed>
      </trkpt>
      <trkpt lat="29.4435694" lon="119.8511408">
        <ele>290.42</ele>
        <time>2026-01-18T04:58:19Z</time>
        <speed>0.9517214</speed>
      </trkpt>
      <trkpt lat="29.4434966" lon="119.8510696">
        <ele>290.11</ele>
        <time>2026-01-18T04:58:29Z</time>
        <speed>1.0953289</speed>
      </trkpt>
      <trkpt lat="29.4434184" lon="119.8510064">
        <ele>290.24</ele>
        <time>2026-01-18T04:58:39Z</time>
        <speed>1.0392241</speed>
      </trkpt>
      <trkpt lat="29.4433846" lon="119.8509463">
        <ele>289.49</ele>
        <time>2026-01-18T04:58:53Z</time>
        <speed>0.0</speed>
      </trkpt>
      <trkpt lat="29.4433572" lon="119.8508494">
        <ele>288.46</ele>
        <time>2026-01-18T04:59:13Z</time>
        <speed>0.38037974</speed>
      </trkpt>
      <trkpt lat="29.4433675" lon="119.850735">
        <ele>287.79</ele>
        <time>2026-01-18T04:59:25Z</time>
        <speed>0.75612694</speed>
      </trkpt>
      <trkpt lat="29.4434376" lon="119.8506574">
        <ele>287.49</ele>
        <time>2026-01-18T04:59:37Z</time>
        <speed>0.7139197</speed>
      </trkpt>
      <trkpt lat="29.443474" lon="119.8505625">
        <ele>287.71</ele>
        <time>2026-01-18T04:59:51Z</time>
        <speed>0.5301639</speed>
      </trkpt>
      <trkpt lat="29.4435047" lon="119.8504579">
        <ele>289.13</ele>
        <time>2026-01-18T05:00:05Z</time>
        <speed>0.72112584</speed>
      </trkpt>
      <trkpt lat="29.4435199" lon="119.8503526">
        <ele>291.52</ele>
        <time>2026-01-18T05:00:49Z</time>
        <speed>0.40354222</speed>
      </trkpt>
      <trkpt lat="29.443542" lon="119.8502491">
        <ele>294.74</ele>
        <time>2026-01-18T05:01:01Z</time>
        <speed>0.66862416</speed>
      </trkpt>
      <trkpt lat="29.4435774" lon="119.850148">
        <ele>297.09</ele>
        <time>2026-01-18T05:01:15Z</time>
        <speed>0.6814922</speed>
      </trkpt>
      <trkpt lat="29.4436291" lon="119.8500478">
        <ele>299.5</ele>
        <time>2026-01-18T05:01:43Z</time>
        <speed>0.61766666</speed>
      </trkpt>
      <trkpt lat="29.4436771" lon="119.8499342">
        <ele>304.79</ele>
        <time>2026-01-18T05:01:51Z</time>
        <speed>1.1895231</speed>
      </trkpt>
      <trkpt lat="29.4436976" lon="119.849818">
        <ele>307.68</ele>
        <time>2026-01-18T05:02:03Z</time>
        <speed>0.7082578</speed>
      </trkpt>
      <trkpt lat="29.443715" lon="119.8497067">
        <ele>309.15</ele>
        <time>2026-01-18T05:02:15Z</time>
        <speed>0.9069406</speed>
      </trkpt>
      <trkpt lat="29.4437289" lon="119.8495964">
        <ele>309.82</ele>
        <time>2026-01-18T05:02:47Z</time>
        <speed>0.670683</speed>
      </trkpt>
      <trkpt lat="29.4437735" lon="119.8495064">
        <ele>311.23</ele>
        <time>2026-01-18T05:03:13Z</time>
        <speed>0.44369057</speed>
      </trkpt>
      <trkpt lat="29.4438301" lon="119.8494176">
        <ele>314.57</ele>
        <time>2026-01-18T05:03:27Z</time>
        <speed>0.6506089</speed>
      </trkpt>
      <trkpt lat="29.4438733" lon="119.8493131">
        <ele>318.03</ele>
        <time>2026-01-18T05:03:39Z</time>
        <speed>0.8359089</speed>
      </trkpt>
      <trkpt lat="29.4438628" lon="119.8492021">
        <ele>321.33</ele>
        <time>2026-01-18T05:03:51Z</time>
        <speed>0.9455447</speed>
      </trkpt>
      <trkpt lat="29.4439353" lon="119.8491494">
        <ele>322.56</ele>
        <time>2026-01-18T05:04:09Z</time>
        <speed>0.99238443</speed>
      </trkpt>
      <trkpt lat="29.4440248" lon="119.8491098">
        <ele>322.41</ele>
        <time>2026-01-18T05:04:21Z</time>
        <speed>0.7926722</speed>
      </trkpt>
      <trkpt lat="29.4441163" lon="119.8490634">
        <ele>322.45</ele>
        <time>2026-01-18T05:04:41Z</time>
        <speed>0.69847804</speed>
      </trkpt>
      <trkpt lat="29.4442035" lon="119.8490148">
        <ele>324.19</ele>
        <time>2026-01-18T05:05:09Z</time>
        <speed>0.4843536</speed>
      </trkpt>
      <trkpt lat="29.4442764" lon="119.8490672">
        <ele>328.37</ele>
        <time>2026-01-18T05:05:23Z</time>
        <speed>0.6732567</speed>
      </trkpt>
      <trkpt lat="29.4442533" lon="119.8490223">
        <ele>330.62</ele>
        <time>2026-01-18T05:05:59Z</time>
        <speed>0.64031446</speed>
      </trkpt>
      <trkpt lat="29.4442371" lon="119.8489235">
        <ele>331.04</ele>
        <time>2026-01-18T05:06:13Z</time>
        <speed>0.7916428</speed>
      </trkpt>
      <trkpt lat="29.4442439" lon="119.8488112">
        <ele>332.27</ele>
        <time>2026-01-18T05:06:33Z</time>
        <speed>0.0</speed>
      </trkpt>
      <trkpt lat="29.4442116" lon="119.8486993">
        <ele>333.06</ele>
        <time>2026-01-18T05:07:25Z</time>
        <speed>0.8667922</speed>
      </trkpt>
      <trkpt lat="29.4442567" lon="119.848775">
        <ele>332.73</ele>
        <time>2026-01-18T05:13:09Z</time>
        <speed>0.6552414</speed>
      </trkpt>
      <trkpt lat="29.444205" lon="119.84869">
        <ele>331.6</ele>
        <time>2026-01-18T05:14:07Z</time>
        <speed>1.089667</speed>
      </trkpt>
      <trkpt lat="29.4442083" lon="119.8486473">
        <ele>332.12</ele>
        <time>2026-01-18T05:14:23Z</time>
        <speed>0.0</speed>
      </trkpt>
      <trkpt lat="29.4441867" lon="119.8487567">
        <ele>332.02</ele>
        <time>2026-01-18T05:16:33Z</time>
        <speed>0.83745307</speed>
      </trkpt>
      <trkpt lat="29.4442267" lon="119.8488567">
        <ele>330.85</ele>
        <time>2026-01-18T05:19:13Z</time>
        <speed>1.213715</speed>
      </trkpt>
      <trkpt lat="29.4442217" lon="119.8488217">
        <ele>329.11</ele>
        <time>2026-01-18T05:19:25Z</time>
        <speed>0.0</speed>
      </trkpt>
      <trkpt lat="29.4441983" lon="119.84871">
        <ele>328.16</ele>
        <time>2026-01-18T05:20:45Z</time>
        <speed>0.39685082</speed>
      </trkpt>
      <trkpt lat="29.4441967" lon="119.8488133">
        <ele>327.4</ele>
        <time>2026-01-18T05:25:53Z</time>
        <speed>0.66759473</speed>
      </trkpt>
      <trkpt lat="29.444215" lon="119.8487083">
        <ele>327.87</ele>
        <time>2026-01-18T05:29:21Z</time>
        <speed>0.5085456</speed>
      </trkpt>
      <trkpt lat="29.4442667" lon="119.8487933">
        <ele>331.03</ele>
        <time>2026-01-18T05:32:20Z</time>
        <speed>0.58935696</speed>
      </trkpt>
      <trkpt lat="29.4441767" lon="119.8487817">
        <ele>331.62</ele>
        <time>2026-01-18T05:32:34Z</time>
        <speed>0.62899053</speed>
      </trkpt>
      <trkpt lat="29.4442583" lon="119.8487067">
        <ele>331.7</ele>
        <time>2026-01-18T05:36:24Z</time>
        <speed>0.4977364</speed>
      </trkpt>
      <trkpt lat="29.44425" lon="119.8485883">
        <ele>333.2</ele>
        <time>2026-01-18T05:36:46Z</time>
        <speed>0.47148556</speed>
      </trkpt>
      <trkpt lat="29.4442812" lon="119.8486576">
        <ele>332.47</ele>
        <time>2026-01-18T05:37:14Z</time>
        <speed>0.5270755</speed>
      </trkpt>
      <trkpt lat="29.444327" lon="119.8487613">
        <ele>328.96</ele>
        <time>2026-01-18T05:38:08Z</time>
        <speed>0.75973</speed>
      </trkpt>
      <trkpt lat="29.444335" lon="119.8489">
        <ele>321.92</ele>
        <time>2026-01-18T05:39:20Z</time>
        <speed>0.53325224</speed>
      </trkpt>
      <trkpt lat="29.4444167" lon="119.8489617">
        <ele>316.19</ele>
        <time>2026-01-18T05:39:42Z</time>
        <speed>0.6197256</speed>
      </trkpt>
      <trkpt lat="29.4444659" lon="119.8490529">
        <ele>310.6</ele>
        <time>2026-01-18T05:40:08Z</time>
        <speed>0.59862196</speed>
      </trkpt>
      <trkpt lat="29.4445107" lon="119.8491508">
        <ele>304.92</ele>
        <time>2026-01-18T05:40:30Z</time>
        <speed>0.61509305</speed>
      </trkpt>
      <trkpt lat="29.444594" lon="119.8491718">
        <ele>299.02</ele>
        <time>2026-01-18T05:40:52Z</time>
        <speed>0.6536972</speed>
      </trkpt>
      <trkpt lat="29.4446856" lon="119.8491633">
        <ele>293.63</ele>
        <time>2026-01-18T05:41:18Z</time>
        <speed>0.6506089</speed>
      </trkpt>
      <trkpt lat="29.4447662" lon="119.8492086">
        <ele>287.98</ele>
        <time>2026-01-18T05:41:48Z</time>
        <speed>0.68355113</speed>
      </trkpt>
      <trkpt lat="29.444859" lon="119.8492059">
        <ele>282.83</ele>
        <time>2026-01-18T05:42:16Z</time>
        <speed>0.49001557</speed>
      </trkpt>
      <trkpt lat="29.4449362" lon="119.8492509">
        <ele>274.64</ele>
        <time>2026-01-18T05:42:44Z</time>
        <speed>0.50031</speed>
      </trkpt>
      <trkpt lat="29.4449982" lon="119.8493279">
        <ele>268.73</ele>
        <time>2026-01-18T05:43:02Z</time>
        <speed>0.6279611</speed>
      </trkpt>
      <trkpt lat="29.4450752" lon="119.8494088">
        <ele>263.47</ele>
        <time>2026-01-18T05:43:16Z</time>
        <speed>0.9198086</speed>
      </trkpt>
      <trkpt lat="29.4451312" lon="119.8495024">
        <ele>258.67</ele>
        <time>2026-01-18T05:43:32Z</time>
        <speed>0.6356819</speed>
      </trkpt>
      <trkpt lat="29.445188" lon="119.8495878">
        <ele>253.65</ele>
        <time>2026-01-18T05:43:42Z</time>
        <speed>0.9012786</speed>
      </trkpt>
      <trkpt lat="29.4452812" lon="119.8496311">
        <ele>249.58</ele>
        <time>2026-01-18T05:43:52Z</time>
        <speed>1.0165764</speed>
      </trkpt>
      <trkpt lat="29.4453832" lon="119.8496574">
        <ele>246.28</ele>
        <time>2026-01-18T05:44:04Z</time>
        <speed>0.8848075</speed>
      </trkpt>
      <trkpt lat="29.4454942" lon="119.8496608">
        <ele>243.02</ele>
        <time>2026-01-18T05:44:14Z</time>
        <speed>1.0078261</speed>
      </trkpt>
      <trkpt lat="29.4456033" lon="119.8496667">
        <ele>240.47</ele>
        <time>2026-01-18T05:44:24Z</time>
        <speed>0.9836342</speed>
      </trkpt>
      <trkpt lat="29.4457055" lon="119.849667">
        <ele>238.2</ele>
        <time>2026-01-18T05:44:32Z</time>
        <speed>1.1555514</speed>
      </trkpt>
      <trkpt lat="29.4458184" lon="119.8496665">
        <ele>236.61</ele>
        <time>2026-01-18T05:44:42Z</time>
        <speed>1.2065089</speed>
      </trkpt>
      <trkpt lat="29.4459203" lon="119.8496915">
        <ele>234.54</ele>
        <time>2026-01-18T05:44:56Z</time>
        <speed>0.5620767</speed>
      </trkpt>
      <trkpt lat="29.4460138" lon="119.8496939">
        <ele>232.37</ele>
        <time>2026-01-18T05:45:10Z</time>
        <speed>0.5584736</speed>
      </trkpt>
      <trkpt lat="29.4461083" lon="119.8496994">
        <ele>230.45</ele>
        <time>2026-01-18T05:45:32Z</time>
        <speed>0.31912777</speed>
      </trkpt>
      <trkpt lat="29.4461951" lon="119.8497392">
        <ele>227.8</ele>
        <time>2026-01-18T05:45:48Z</time>
        <speed>0.55692947</speed>
      </trkpt>
      <trkpt lat="29.4462768" lon="119.8497178">
        <ele>225.22</ele>
        <time>2026-01-18T05:46:20Z</time>
        <speed>0.5486939</speed>
      </trkpt>
      <trkpt lat="29.4463698" lon="119.8497049">
        <ele>221.43</ele>
        <time>2026-01-18T05:46:56Z</time>
        <speed>0.57443</speed>
      </trkpt>
      <trkpt lat="29.4464612" lon="119.84971">
        <ele>215.26</ele>
        <time>2026-01-18T05:47:50Z</time>
        <speed>0.5728858</speed>
      </trkpt>
      <trkpt lat="29.4464691" lon="119.8496273">
        <ele>210.33</ele>
        <time>2026-01-18T05:48:24Z</time>
        <speed>0.74943554</speed>
      </trkpt>
      <trkpt lat="29.4464188" lon="119.8495232">
        <ele>206.19</ele>
        <time>2026-01-18T05:48:34Z</time>
        <speed>0.92495584</speed>
      </trkpt>
      <trkpt lat="29.4463305" lon="119.8494359">
        <ele>203.48</ele>
        <time>2026-01-18T05:48:46Z</time>
        <speed>0.8312764</speed>
      </trkpt>
      <trkpt lat="29.4462377" lon="119.8493445">
        <ele>201.6</ele>
        <time>2026-01-18T05:48:58Z</time>
        <speed>0.8637039</speed>
      </trkpt>
      <trkpt lat="29.4461458" lon="119.8492839">
        <ele>200.27</ele>
        <time>2026-01-18T05:49:10Z</time>
        <speed>1.0145175</speed>
      </trkpt>
      <trkpt lat="29.4460433" lon="119.8492515">
        <ele>198.86</ele>
        <time>2026-01-18T05:49:22Z</time>
        <speed>0.8456886</speed>
      </trkpt>
      <trkpt lat="29.4459435" lon="119.8492783">
        <ele>197.29</ele>
        <time>2026-01-18T05:49:32Z</time>
        <speed>0.0</speed>
      </trkpt>
      <trkpt lat="29.4458398" lon="119.8492868">
        <ele>195.53</ele>
        <time>2026-01-18T05:49:42Z</time>
        <speed>0.93010306</speed>
      </trkpt>
      <trkpt lat="29.4457516" lon="119.8492468">
        <ele>192.89</ele>
        <time>2026-01-18T05:49:50Z</time>
        <speed>0.8601008</speed>
      </trkpt>
      <trkpt lat="29.445702" lon="119.8491437">
        <ele>190.83</ele>
        <time>2026-01-18T05:50:04Z</time>
        <speed>0.5368553</speed>
      </trkpt>
      <trkpt lat="29.4456611" lon="119.8490359">
        <ele>188.75</ele>
        <time>2026-01-18T05:50:18Z</time>
        <speed>0.5754594</speed>
      </trkpt>
      <trkpt lat="29.4457235" lon="119.849001">
        <ele>184.82</ele>
        <time>2026-01-18T05:50:44Z</time>
        <speed>0.34229028</speed>
      </trkpt>
      <trkpt lat="29.4458257" lon="119.8490292">
        <ele>180.89</ele>
        <time>2026-01-18T05:51:04Z</time>
        <speed>0.7659067</speed>
      </trkpt>
      <trkpt lat="29.4458369" lon="119.8489726">
        <ele>177.41</ele>
        <time>2026-01-18T05:51:26Z</time>
        <speed>0.7767158</speed>
      </trkpt>
      <trkpt lat="29.4458054" lon="119.8488814">
        <ele>173.06</ele>
        <time>2026-01-18T05:51:46Z</time>
        <speed>0.46994138</speed>
      </trkpt>
      <trkpt lat="29.4458668" lon="119.8488624">
        <ele>168.95</ele>
        <time>2026-01-18T05:52:12Z</time>
        <speed>0.97333974</speed>
      </trkpt>
      <trkpt lat="29.4459567" lon="119.8489015">
        <ele>165.83</ele>
        <time>2026-01-18T05:52:28Z</time>
        <speed>0.5785478</speed>
      </trkpt>
      <trkpt lat="29.4459685" lon="119.8488368">
        <ele>163.24</ele>
        <time>2026-01-18T05:53:22Z</time>
        <speed>0.32273084</speed>
      </trkpt>
      <trkpt lat="29.4460325" lon="119.8488311">
        <ele>159.18</ele>
        <time>2026-01-18T05:53:40Z</time>
        <speed>0.86988056</speed>
      </trkpt>
      <trkpt lat="29.4461193" lon="119.8488717">
        <ele>155.7</ele>
        <time>2026-01-18T05:54:02Z</time>
        <speed>0.6881836</speed>
      </trkpt>
      <trkpt lat="29.4461389" lon="119.8487999">
        <ele>151.87</ele>
        <time>2026-01-18T05:54:24Z</time>
        <speed>0.5883275</speed>
      </trkpt>
      <trkpt lat="29.4461283" lon="119.8486925">
        <ele>149.09</ele>
        <time>2026-01-18T05:54:36Z</time>
        <speed>0.8559831</speed>
      </trkpt>
      <trkpt lat="29.4461743" lon="119.8486116">
        <ele>146.51</ele>
        <time>2026-01-18T05:54:56Z</time>
        <speed>0.41949862</speed>
      </trkpt>
      <trkpt lat="29.4462641" lon="119.8485572">
        <ele>143.19</ele>
        <time>2026-01-18T05:55:06Z</time>
        <speed>0.99238443</speed>
      </trkpt>
      <trkpt lat="29.4463633" lon="119.848482">
        <ele>140.4</ele>
        <time>2026-01-18T05:55:14Z</time>
        <speed>1.3315864</speed>
      </trkpt>
      <trkpt lat="29.4464628" lon="119.8484532">
        <ele>137.91</ele>
        <time>2026-01-18T05:55:20Z</time>
        <speed>1.5467403</speed>
      </trkpt>
      <trkpt lat="29.446574" lon="119.8484471">
        <ele>135.97</ele>
        <time>2026-01-18T05:55:30Z</time>
        <speed>1.1679047</speed>
      </trkpt>
      <trkpt lat="29.4466807" lon="119.8484782">
        <ele>134.69</ele>
        <time>2026-01-18T05:55:40Z</time>
        <speed>1.1498895</speed>
      </trkpt>
      <trkpt lat="29.4467771" lon="119.8485118">
        <ele>133.19</ele>
        <time>2026-01-18T05:55:56Z</time>
        <speed>0.65678555</speed>
      </trkpt>
      <trkpt lat="29.4468792" lon="119.848528">
        <ele>131.95</ele>
        <time>2026-01-18T05:56:06Z</time>
        <speed>0.87451303</speed>
      </trkpt>
      <trkpt lat="29.4469737" lon="119.8485484">
        <ele>130.98</ele>
        <time>2026-01-18T05:56:14Z</time>
        <speed>1.124668</speed>
      </trkpt>
      <trkpt lat="29.4470641" lon="119.8485603">
        <ele>129.96</ele>
        <time>2026-01-18T05:56:24Z</time>
        <speed>1.121065</speed>
      </trkpt>
      <trkpt lat="29.4471659" lon="119.8485475">
        <ele>128.43</ele>
        <time>2026-01-18T05:56:34Z</time>
        <speed>1.0484892</speed>
      </trkpt>
      <trkpt lat="29.4472672" lon="119.8485336">
        <ele>127.04</ele>
        <time>2026-01-18T05:56:42Z</time>
        <speed>1.0371653</speed>
      </trkpt>
      <trkpt lat="29.4473704" lon="119.8485421">
        <ele>126.16</ele>
        <time>2026-01-18T05:56:52Z</time>
        <speed>0.88326335</speed>
      </trkpt>
      <trkpt lat="29.4474667" lon="119.8485533">
        <ele>125.58</ele>
        <time>2026-01-18T05:57:02Z</time>
        <speed>0.96253055</speed>
      </trkpt>
      <trkpt lat="29.4475676" lon="119.8485736">
        <ele>124.6</ele>
        <time>2026-01-18T05:57:14Z</time>
        <speed>1.2538633</speed>
      </trkpt>
      <trkpt lat="29.4476631" lon="119.8485327">
        <ele>123.01</ele>
        <time>2026-01-18T05:57:24Z</time>
        <speed>1.0716517</speed>
      </trkpt>
      <trkpt lat="29.4477202" lon="119.8484387">
        <ele>121.8</ele>
        <time>2026-01-18T05:57:34Z</time>
        <speed>0.9795164</speed>
      </trkpt>
      <trkpt lat="29.4478035" lon="119.8483607">
        <ele>122.14</ele>
        <time>2026-01-18T05:57:44Z</time>
        <speed>1.1442275</speed>
      </trkpt>
      <trkpt lat="29.4478861" lon="119.8483757">
        <ele>122.64</ele>
        <time>2026-01-18T05:57:54Z</time>
        <speed>1.0140028</speed>
      </trkpt>
      <trkpt lat="29.4479469" lon="119.8484587">
        <ele>122.11</ele>
        <time>2026-01-18T05:58:04Z</time>
        <speed>0.8369383</speed>
      </trkpt>
      <trkpt lat="29.4480009" lon="119.8485685">
        <ele>120.56</ele>
        <time>2026-01-18T05:58:22Z</time>
        <speed>1.05621</speed>
      </trkpt>
      <trkpt lat="29.4480548" lon="119.8486847">
        <ele>119.24</ele>
        <time>2026-01-18T05:58:34Z</time>
        <speed>0.9769428</speed>
      </trkpt>
      <trkpt lat="29.448116" lon="119.8487922">
        <ele>117.03</ele>
        <time>2026-01-18T05:58:44Z</time>
        <speed>1.0845197</speed>
      </trkpt>
      <trkpt lat="29.448189" lon="119.8488774">
        <ele>114.78</ele>
        <time>2026-01-18T05:58:56Z</time>
        <speed>0.72781724</speed>
      </trkpt>
      <trkpt lat="29.44826" lon="119.848951">
        <ele>112.42</ele>
        <time>2026-01-18T05:59:06Z</time>
        <speed>0.83951193</speed>
      </trkpt>
      <trkpt lat="29.4483534" lon="119.848981">
        <ele>111.34</ele>
        <time>2026-01-18T05:59:22Z</time>
        <speed>1.0994467</speed>
      </trkpt>
      <trkpt lat="29.4483608" lon="119.8490611">
        <ele>110.81</ele>
        <time>2026-01-18T05:59:44Z</time>
        <speed>0.98106056</speed>
      </trkpt>
      <trkpt lat="29.4483942" lon="119.8491675">
        <ele>110.11</ele>
        <time>2026-01-18T05:59:56Z</time>
        <speed>0.92547053</speed>
      </trkpt>
      <trkpt lat="29.4484348" lon="119.8492785">
        <ele>109.76</ele>
        <time>2026-01-18T06:00:06Z</time>
        <speed>0.9928992</speed>
      </trkpt>
      <trkpt lat="29.4485114" lon="119.849344">
        <ele>109.44</ele>
        <time>2026-01-18T06:00:22Z</time>
        <speed>0.6531825</speed>
      </trkpt>
      <trkpt lat="29.4486085" lon="119.8493278">
        <ele>108.95</ele>
        <time>2026-01-18T06:00:32Z</time>
        <speed>0.9012786</speed>
      </trkpt>
      <trkpt lat="29.4487037" lon="119.8492809">
        <ele>109.1</ele>
        <time>2026-01-18T06:00:44Z</time>
        <speed>0.7417147</speed>
      </trkpt>
      <trkpt lat="29.4487922" lon="119.8492269">
        <ele>109.92</ele>
        <time>2026-01-18T06:00:58Z</time>
        <speed>0.6161225</speed>
      </trkpt>
      <trkpt lat="29.4488722" lon="119.849165">
        <ele>110.51</ele>
        <time>2026-01-18T06:01:10Z</time>
        <speed>0.67788917</speed>
      </trkpt>
      <trkpt lat="29.4489639" lon="119.8491279">
        <ele>110.89</ele>
        <time>2026-01-18T06:01:24Z</time>
        <speed>0.7139197</speed>
      </trkpt>
      <trkpt lat="29.4490578" lon="119.8491107">
        <ele>111.24</ele>
        <time>2026-01-18T06:01:36Z</time>
        <speed>0.7756864</speed>
      </trkpt>
      <trkpt lat="29.4491533" lon="119.8490978">
        <ele>111.65</ele>
        <time>2026-01-18T06:01:50Z</time>
        <speed>0.6711978</speed>
      </trkpt>
      <trkpt lat="29.4492428" lon="119.8490728">
        <ele>112.28</ele>
        <time>2026-01-18T06:02:00Z</time>
        <speed>0.8688511</speed>
      </trkpt>
      <trkpt lat="29.4493448" lon="119.8490649">
        <ele>112.33</ele>
        <time>2026-01-18T06:02:12Z</time>
        <speed>0.9265</speed>
      </trkpt>
      <trkpt lat="29.4494415" lon="119.8490547">
        <ele>111.63</ele>
        <time>2026-01-18T06:02:24Z</time>
        <speed>0.8827486</speed>
      </trkpt>
      <trkpt lat="29.4495282" lon="119.8490141">
        <ele>109.08</ele>
        <time>2026-01-18T06:02:40Z</time>
        <speed>0.9723103</speed>
      </trkpt>
      <trkpt lat="29.4496175" lon="119.8489882">
        <ele>106.64</ele>
        <time>2026-01-18T06:02:50Z</time>
        <speed>0.9939286</speed>
      </trkpt>
      <trkpt lat="29.4497171" lon="119.8489931">
        <ele>105.54</ele>
        <time>2026-01-18T06:02:58Z</time>
        <speed>1.2337892</speed>
      </trkpt>
      <trkpt lat="29.4498092" lon="119.849028">
        <ele>105.14</ele>
        <time>2026-01-18T06:03:06Z</time>
        <speed>1.2018764</speed>
      </trkpt>
      <trkpt lat="29.4498919" lon="119.8490934">
        <ele>105.21</ele>
        <time>2026-01-18T06:03:16Z</time>
        <speed>1.0484892</speed>
      </trkpt>
      <trkpt lat="29.4499801" lon="119.8491286">
        <ele>105.33</ele>
        <time>2026-01-18T06:03:24Z</time>
        <speed>1.1637869</speed>
      </trkpt>
      <trkpt lat="29.4500721" lon="119.8491511">
        <ele>104.2</ele>
        <time>2026-01-18T06:03:38Z</time>
        <speed>0.6397997</speed>
      </trkpt>
      <trkpt lat="29.4501706" lon="119.8491513">
        <ele>102.18</ele>
        <time>2026-01-18T06:03:52Z</time>
        <speed>0.67274195</speed>
      </trkpt>
      <trkpt lat="29.4502712" lon="119.8491455">
        <ele>100.64</ele>
        <time>2026-01-18T06:04:02Z</time>
        <speed>0.85392416</speed>
      </trkpt>
      <trkpt lat="29.4503696" lon="119.8491403">
        <ele>99.5</ele>
        <time>2026-01-18T06:04:12Z</time>
        <speed>0.98106056</speed>
      </trkpt>
      <trkpt lat="29.4504756" lon="119.8491164">
        <ele>98.77</ele>
        <time>2026-01-18T06:04:24Z</time>
        <speed>0.9455447</speed>
      </trkpt>
      <trkpt lat="29.4505743" lon="119.8490964">
        <ele>97.62</ele>
        <time>2026-01-18T06:04:44Z</time>
        <speed>0.5368553</speed>
      </trkpt>
      <trkpt lat="29.4506636" lon="119.8490653">
        <ele>96.19</ele>
        <time>2026-01-18T06:04:54Z</time>
        <speed>0.82612914</speed>
      </trkpt>
      <trkpt lat="29.4507509" lon="119.8490319">
        <ele>95.38</ele>
        <time>2026-01-18T06:05:02Z</time>
        <speed>0.92341167</speed>
      </trkpt>
      <trkpt lat="29.4508356" lon="119.8489848">
        <ele>95.26</ele>
        <time>2026-01-18T06:05:14Z</time>
        <speed>0.811717</speed>
      </trkpt>
      <trkpt lat="29.450926" lon="119.8489507">
        <ele>95.45</ele>
        <time>2026-01-18T06:05:24Z</time>
        <speed>0.8909842</speed>
      </trkpt>
      <trkpt lat="29.4510213" lon="119.8489238">
        <ele>96.29</ele>
        <time>2026-01-18T06:05:36Z</time>
        <speed>0.7314203</speed>
      </trkpt>
      <trkpt lat="29.4511159" lon="119.8489194">
        <ele>97.54</ele>
        <time>2026-01-18T06:05:48Z</time>
        <speed>0.68355113</speed>
      </trkpt>
      <trkpt lat="29.4512135" lon="119.8489027">
        <ele>98.73</ele>
        <time>2026-01-18T06:06:08Z</time>
        <speed>0.65627086</speed>
      </trkpt>
      <trkpt lat="29.4513122" lon="119.8488975">
        <ele>98.33</ele>
        <time>2026-01-18T06:06:22Z</time>
        <speed>0.65421194</speed>
      </trkpt>
      <trkpt lat="29.4514073" lon="119.8489089">
        <ele>98.06</ele>
        <time>2026-01-18T06:06:34Z</time>
        <speed>0.8287028</speed>
      </trkpt>
      <trkpt lat="29.4514983" lon="119.848927">
        <ele>97.47</ele>
        <time>2026-01-18T06:06:46Z</time>
        <speed>0.8477475</speed>
      </trkpt>
      <trkpt lat="29.4515892" lon="119.8489375">
        <ele>96.45</ele>
        <time>2026-01-18T06:07:00Z</time>
        <speed>0.6814922</speed>
      </trkpt>
      <trkpt lat="29.4516792" lon="119.8489291">
        <ele>95.35</ele>
        <time>2026-01-18T06:07:30Z</time>
        <speed>0.5049425</speed>
      </trkpt>
      <trkpt lat="29.4517651" lon="119.8489576">
        <ele>95.03</ele>
        <time>2026-01-18T06:07:46Z</time>
        <speed>0.48486835</speed>
      </trkpt>
      <trkpt lat="29.4518547" lon="119.8489528">
        <ele>95.23</ele>
        <time>2026-01-18T06:08:26Z</time>
        <speed>0.50031</speed>
      </trkpt>
      <trkpt lat="29.4519497" lon="119.8489557">
        <ele>93.93</ele>
        <time>2026-01-18T06:08:44Z</time>
        <speed>0.75458276</speed>
      </trkpt>
      <trkpt lat="29.4520417" lon="119.8489637">
        <ele>93.79</ele>
        <time>2026-01-18T06:08:58Z</time>
        <speed>0.8178936</speed>
      </trkpt>
      <trkpt lat="29.4521384" lon="119.8489799">
        <ele>93.62</ele>
        <time>2026-01-18T06:09:10Z</time>
        <speed>0.93010306</speed>
      </trkpt>
      <trkpt lat="29.4522344" lon="119.8490052">
        <ele>93.01</ele>
        <time>2026-01-18T06:09:22Z</time>
        <speed>0.7710539</speed>
      </trkpt>
      <trkpt lat="29.4523324" lon="119.8490407">
        <ele>92.02</ele>
        <time>2026-01-18T06:09:34Z</time>
        <speed>0.8302469</speed>
      </trkpt>
      <trkpt lat="29.4524197" lon="119.849083">
        <ele>91.06</ele>
        <time>2026-01-18T06:09:46Z</time>
        <speed>0.8729689</speed>
      </trkpt>
      <trkpt lat="29.4525042" lon="119.8491329">
        <ele>90.69</ele>
        <time>2026-01-18T06:10:00Z</time>
        <speed>0.69178665</speed>
      </trkpt>
      <trkpt lat="29.4525995" lon="119.8491998">
        <ele>90.22</ele>
        <time>2026-01-18T06:10:30Z</time>
        <speed>0.44369057</speed>
      </trkpt>
      <trkpt lat="29.4526853" lon="119.8492746">
        <ele>89.87</ele>
        <time>2026-01-18T06:10:46Z</time>
        <speed>0.76127416</speed>
      </trkpt>
      <trkpt lat="29.4527235" lon="119.8493833">
        <ele>90.27</ele>
        <time>2026-01-18T06:11:00Z</time>
        <speed>0.84054136</speed>
      </trkpt>
      <trkpt lat="29.4527408" lon="119.8494933">
        <ele>90.93</ele>
        <time>2026-01-18T06:11:16Z</time>
        <speed>0.49464807</speed>
      </trkpt>
      <trkpt lat="29.4527408" lon="119.8496025">
        <ele>90.7</ele>
        <time>2026-01-18T06:11:30Z</time>
        <speed>0.99495804</speed>
      </trkpt>
      <trkpt lat="29.4527433" lon="119.84972">
        <ele>89.67</ele>
        <time>2026-01-18T06:11:54Z</time>
        <speed>0.89252836</speed>
      </trkpt>
      <trkpt lat="29.4527266" lon="119.8498336">
        <ele>90.84</ele>
        <time>2026-01-18T06:12:16Z</time>
        <speed>0.6773744</speed>
      </trkpt>
      <trkpt lat="29.4526964" lon="119.8499413">
        <ele>91.3</ele>
        <time>2026-01-18T06:12:30Z</time>
        <speed>0.7190669</speed>
      </trkpt>
      <trkpt lat="29.4526717" lon="119.850049">
        <ele>91.3</ele>
        <time>2026-01-18T06:12:40Z</time>
        <speed>1.1390803</speed>
      </trkpt>
      <trkpt lat="29.4526268" lon="119.8501544">
        <ele>90.35</ele>
        <time>2026-01-18T06:12:52Z</time>
        <speed>1.1668752</speed>
      </trkpt>
      <trkpt lat="29.4525939" lon="119.8502592">
        <ele>89.73</ele>
        <time>2026-01-18T06:13:06Z</time>
        <speed>0.7571564</speed>
      </trkpt>
      <trkpt lat="29.4525567" lon="119.850365">
        <ele>89.29</ele>
        <time>2026-01-18T06:13:22Z</time>
        <speed>0.70722836</speed>
      </trkpt>
      <trkpt lat="29.4525256" lon="119.8504765">
        <ele>89.33</ele>
        <time>2026-01-18T06:13:34Z</time>
        <speed>0.85392416</speed>
      </trkpt>
      <trkpt lat="29.4525119" lon="119.8506">
        <ele>89.53</ele>
        <time>2026-01-18T06:13:48Z</time>
        <speed>1.0361358</speed>
      </trkpt>
      <trkpt lat="29.4525221" lon="119.8506638">
        <ele>89.56</ele>
        <time>2026-01-18T06:14:04Z</time>
        <speed>0.0</speed>
      </trkpt>
      <trkpt lat="29.4525683" lon="119.850745">
        <ele>89.19</ele>
        <time>2026-01-18T06:15:36Z</time>
        <speed>0.6454617</speed>
      </trkpt>
      <trkpt lat="29.4526533" lon="119.850795">
        <ele>90.14</ele>
        <time>2026-01-18T06:15:46Z</time>
        <speed>0.6964192</speed>
      </trkpt>
      <trkpt lat="29.4527172" lon="119.8508732">
        <ele>90.73</ele>
        <time>2026-01-18T06:16:40Z</time>
        <speed>0.43854332</speed>
      </trkpt>
      <trkpt lat="29.4527245" lon="119.8509808">
        <ele>88.39</ele>
        <time>2026-01-18T06:16:54Z</time>
        <speed>0.84054136</speed>
      </trkpt>
      <trkpt lat="29.4526878" lon="119.8510941">
        <ele>86.98</ele>
        <time>2026-01-18T06:17:04Z</time>
        <speed>1.0356212</speed>
      </trkpt>
      <trkpt lat="29.4526059" lon="119.8511593">
        <ele>86.56</ele>
        <time>2026-01-18T06:17:16Z</time>
        <speed>0.6923014</speed>
      </trkpt>
      <trkpt lat="29.4525401" lon="119.8512443">
        <ele>87.82</ele>
        <time>2026-01-18T06:17:42Z</time>
        <speed>0.30420083</speed>
      </trkpt>
      <trkpt lat="29.4524952" lon="119.8513508">
        <ele>88.33</ele>
        <time>2026-01-18T06:18:04Z</time>
        <speed>0.59244525</speed>
      </trkpt>
      <trkpt lat="29.4524444" lon="119.8514463">
        <ele>89.22</ele>
        <time>2026-01-18T06:18:16Z</time>
        <speed>0.79061335</speed>
      </trkpt>
      <trkpt lat="29.4523788" lon="119.8515328">
        <ele>89.77</ele>
        <time>2026-01-18T06:18:28Z</time>
        <speed>0.787525</speed>
      </trkpt>
      <trkpt lat="29.4523218" lon="119.8516247">
        <ele>89.48</ele>
        <time>2026-01-18T06:18:40Z</time>
        <speed>1.0047377</speed>
      </trkpt>
      <trkpt lat="29.4522662" lon="119.8517165">
        <ele>88.97</ele>
        <time>2026-01-18T06:18:52Z</time>
        <speed>0.68869835</speed>
      </trkpt>
      <trkpt lat="29.4522175" lon="119.8518095">
        <ele>88.25</ele>
        <time>2026-01-18T06:19:04Z</time>
        <speed>0.7206111</speed>
      </trkpt>
      <trkpt lat="29.4521825" lon="119.851908">
        <ele>88.27</ele>
        <time>2026-01-18T06:19:16Z</time>
        <speed>0.69693387</speed>
      </trkpt>
      <trkpt lat="29.4521621" lon="119.8520196">
        <ele>88.84</ele>
        <time>2026-01-18T06:19:32Z</time>
        <speed>0.59347475</speed>
      </trkpt>
      <trkpt lat="29.4521422" lon="119.8521331">
        <ele>89.51</ele>
        <time>2026-01-18T06:19:44Z</time>
        <speed>0.8492917</speed>
      </trkpt>
      <trkpt lat="29.4521214" lon="119.852244">
        <ele>90.32</ele>
        <time>2026-01-18T06:19:58Z</time>
        <speed>0.6866394</speed>
      </trkpt>
      <trkpt lat="29.4520993" lon="119.8523521">
        <ele>90.92</ele>
        <time>2026-01-18T06:20:12Z</time>
        <speed>0.69281614</speed>
      </trkpt>
      <trkpt lat="29.4520603" lon="119.8524477">
        <ele>91.0</ele>
        <time>2026-01-18T06:20:28Z</time>
        <speed>0.5275903</speed>
      </trkpt>
      <trkpt lat="29.45207" lon="119.8525563">
        <ele>91.51</ele>
        <time>2026-01-18T06:20:40Z</time>
        <speed>0.0</speed>
      </trkpt>
      <trkpt lat="29.4520621" lon="119.8526742">
        <ele>91.42</ele>
        <time>2026-01-18T06:20:52Z</time>
        <speed>0.90179336</speed>
      </trkpt>
      <trkpt lat="29.4520142" lon="119.8527738">
        <ele>90.9</ele>
        <time>2026-01-18T06:21:06Z</time>
        <speed>0.65266776</speed>
      </trkpt>
      <trkpt lat="29.4519891" lon="119.8528874">
        <ele>89.09</ele>
        <time>2026-01-18T06:21:18Z</time>
        <speed>0.713405</speed>
      </trkpt>
      <trkpt lat="29.4519732" lon="119.8530017">
        <ele>86.34</ele>
        <time>2026-01-18T06:21:34Z</time>
        <speed>0.64855</speed>
      </trkpt>
      <trkpt lat="29.4519792" lon="119.8531134">
        <ele>82.5</ele>
        <time>2026-01-18T06:21:50Z</time>
        <speed>0.0</speed>
      </trkpt>
      <trkpt lat="29.4519013" lon="119.8531436">
        <ele>76.86</ele>
        <time>2026-01-18T06:22:00Z</time>
        <speed>0.6974486</speed>
      </trkpt>
      <trkpt lat="29.4518726" lon="119.8532255">
        <ele>74.51</ele>
        <time>2026-01-18T06:22:12Z</time>
        <speed>0.6202403</speed>
      </trkpt>
      <trkpt lat="29.4518493" lon="119.8533483">
        <ele>76.1</ele>
        <time>2026-01-18T06:22:22Z</time>
        <speed>0.59244525</speed>
      </trkpt>
      <trkpt lat="29.451835" lon="119.8534618">
        <ele>78.9</ele>
        <time>2026-01-18T06:22:30Z</time>
        <speed>0.8426003</speed>
      </trkpt>
      <trkpt lat="29.4518156" lon="119.8535669">
        <ele>81.39</ele>
        <time>2026-01-18T06:22:44Z</time>
        <speed>0.61663723</speed>
      </trkpt>
      <trkpt lat="29.4518049" lon="119.8536731">
        <ele>83.72</ele>
        <time>2026-01-18T06:22:58Z</time>
        <speed>0.6073722</speed>
      </trkpt>
      <trkpt lat="29.4517884" lon="119.8537835">
        <ele>85.3</ele>
        <time>2026-01-18T06:23:10Z</time>
        <speed>0.7164933</speed>
      </trkpt>
      <trkpt lat="29.451763" lon="119.8538866">
        <ele>86.63</ele>
        <time>2026-01-18T06:23:24Z</time>
        <speed>0.58935696</speed>
      </trkpt>
      <trkpt lat="29.4517268" lon="119.8539931">
        <ele>87.22</ele>
        <time>2026-01-18T06:23:36Z</time>
        <speed>0.7412</speed>
      </trkpt>
      <trkpt lat="29.4517047" lon="119.854101">
        <ele>87.0</ele>
        <time>2026-01-18T06:23:50Z</time>
        <speed>0.6228139</speed>
      </trkpt>
      <trkpt lat="29.4516836" lon="119.8542057">
        <ele>86.87</ele>
        <time>2026-01-18T06:24:02Z</time>
        <speed>0.65627086</speed>
      </trkpt>
      <trkpt lat="29.4516588" lon="119.8543104">
        <ele>86.93</ele>
        <time>2026-01-18T06:24:14Z</time>
        <speed>0.7149492</speed>
      </trkpt>
      <trkpt lat="29.45164" lon="119.8544189">
        <ele>86.61</ele>
        <time>2026-01-18T06:24:26Z</time>
        <speed>0.84414446</speed>
      </trkpt>
      <trkpt lat="29.4516221" lon="119.8545252">
        <ele>86.48</ele>
        <time>2026-01-18T06:24:38Z</time>
        <speed>0.8240703</speed>
      </trkpt>
      <trkpt lat="29.4516068" lon="119.8546329">
        <ele>86.79</ele>
        <time>2026-01-18T06:24:50Z</time>
        <speed>0.78392196</speed>
      </trkpt>
      <trkpt lat="29.4515898" lon="119.8547388">
        <ele>86.79</ele>
        <time>2026-01-18T06:25:04Z</time>
        <speed>0.58678335</speed>
      </trkpt>
      <trkpt lat="29.4515618" lon="119.8548438">
        <ele>86.19</ele>
        <time>2026-01-18T06:25:18Z</time>
        <speed>0.68612474</speed>
      </trkpt>
      <trkpt lat="29.4515474" lon="119.8549599">
        <ele>86.28</ele>
        <time>2026-01-18T06:25:34Z</time>
        <speed>0.84414446</speed>
      </trkpt>
      <trkpt lat="29.4515234" lon="119.8550701">
        <ele>86.59</ele>
        <time>2026-01-18T06:25:54Z</time>
        <speed>0.42516056</speed>
      </trkpt>
      <trkpt lat="29.4514993" lon="119.8551839">
        <ele>86.77</ele>
        <time>2026-01-18T06:26:08Z</time>
        <speed>0.6871542</speed>
      </trkpt>
      <trkpt lat="29.451483" lon="119.8552915">
        <ele>86.7</ele>
        <time>2026-01-18T06:26:18Z</time>
        <speed>0.9151761</speed>
      </trkpt>
      <trkpt lat="29.4514471" lon="119.8554016">
        <ele>86.57</ele>
        <time>2026-01-18T06:26:30Z</time>
        <speed>0.9872372</speed>
      </trkpt>
      <trkpt lat="29.4514212" lon="119.8555192">
        <ele>86.28</ele>
        <time>2026-01-18T06:26:44Z</time>
        <speed>0.64340276</speed>
      </trkpt>
      <trkpt lat="29.4513999" lon="119.8556282">
        <ele>85.73</ele>
        <time>2026-01-18T06:26:56Z</time>
        <speed>0.6423733</speed>
      </trkpt>
      <trkpt lat="29.4513852" lon="119.8557449">
        <ele>85.67</ele>
        <time>2026-01-18T06:27:12Z</time>
        <speed>0.5203842</speed>
      </trkpt>
      <trkpt lat="29.4513664" lon="119.855856">
        <ele>86.12</ele>
        <time>2026-01-18T06:27:20Z</time>
        <speed>0.97179556</speed>
      </trkpt>
      <trkpt lat="29.4513242" lon="119.8559634">
        <ele>86.8</ele>
        <time>2026-01-18T06:27:30Z</time>
        <speed>1.0634161</speed>
      </trkpt>
      <trkpt lat="29.4512798" lon="119.8560759">
        <ele>87.53</ele>
        <time>2026-01-18T06:27:42Z</time>
        <speed>0.78649557</speed>
      </trkpt>
      <trkpt lat="29.4512257" lon="119.8561693">
        <ele>87.65</ele>
        <time>2026-01-18T06:27:52Z</time>
        <speed>0.89149886</speed>
      </trkpt>
      <trkpt lat="29.4511689" lon="119.8562568">
        <ele>87.67</ele>
        <time>2026-01-18T06:28:06Z</time>
        <speed>0.64443225</speed>
      </trkpt>
      <trkpt lat="29.4511259" lon="119.8563581">
        <ele>88.28</ele>
        <time>2026-01-18T06:28:16Z</time>
        <speed>1.0999614</speed>
      </trkpt>
      <trkpt lat="29.4511436" lon="119.8564478">
        <ele>88.55</ele>
        <time>2026-01-18T06:28:40Z</time>
        <speed>0.0</speed>
      </trkpt>
      <trkpt lat="29.4511436" lon="119.8564478">
        <ele>88.55</ele>
        <time>2026-01-18T06:29:39Z</time>
        <speed>0.0</speed>
      </trkpt>
      <extensions>
        <PauseTimes>1768717779000:pause</PauseTimes>
      </extensions>
    </trkseg>
  </trk>
  <wpt lat="29.4507056" lon="119.856139">
    <ele>92.2</ele>
    <time>2026-01-18T04:19:45Z</time>
    <name><![CDATA[
        ]]>
    </name>
    <cmt>
        </cmt>
    <desc><![CDATA[]]>
    </desc>
    <sym>Flag, Blue</sym>
    <type>user</type>
    <extensions>
      <PosType>0</PosType>
      <Speed>0.0</Speed>
      <Accuracy>1.2</Accuracy>
      <Time>1768709985712</Time>
      <description><![CDATA[]]>
      </description>
      <FileId>1545464538</FileId>
      <FileSize>3651356</FileSize>
      <FileType>0</FileType>
    </extensions>
  </wpt>
  <wpt lat="29.4506523" lon="119.8546846">
    <ele>121.2</ele>
    <time>2026-01-18T04:24:29Z</time>
    <name><![CDATA[
        ]]>
    </name>
    <cmt>
        </cmt>
    <desc><![CDATA[]]>
    </desc>
    <sym>Flag, Blue</sym>
    <type>user</type>
    <extensions>
      <PosType>0</PosType>
      <Speed>0.9265</Speed>
      <Accuracy>1.3</Accuracy>
      <Time>1768710269718</Time>
      <description><![CDATA[]]>
      </description>
      <FileId>1545464535</FileId>
      <FileSize>3739221</FileSize>
      <FileType>0</FileType>
    </extensions>
  </wpt>
  <wpt lat="29.4497482" lon="119.8553474">
    <ele>132.5</ele>
    <time>2026-01-18T04:26:55Z</time>
    <name><![CDATA[
        ]]>
    </name>
    <cmt>
        </cmt>
    <desc><![CDATA[]]>
    </desc>
    <sym>Flag, Blue</sym>
    <type>user</type>
    <extensions>
      <PosType>0</PosType>
      <Speed>0.9898108</Speed>
      <Accuracy>1.4</Accuracy>
      <Time>1768710415724</Time>
      <description><![CDATA[]]>
      </description>
      <FileId>1545464530</FileId>
      <FileSize>4181088</FileSize>
      <FileType>0</FileType>
    </extensions>
  </wpt>
  <wpt lat="29.4435774" lon="119.850148">
    <ele>302.7</ele>
    <time>2026-01-18T05:01:15Z</time>
    <name><![CDATA[
        ]]>
    </name>
    <cmt>
        </cmt>
    <desc><![CDATA[]]>
    </desc>
    <sym>Flag, Blue</sym>
    <type>user</type>
    <extensions>
      <PosType>0</PosType>
      <Speed>0.6814922</Speed>
      <Accuracy>1.3</Accuracy>
      <Time>1768712475746</Time>
      <description><![CDATA[]]>
      </description>
      <FileId>1545464527</FileId>
      <FileSize>3618189</FileSize>
      <FileType>0</FileType>
    </extensions>
  </wpt>
  <wpt lat="29.444205" lon="119.84869">
    <ele>332.8</ele>
    <time>2026-01-18T05:14:07Z</time>
    <name><![CDATA[
        ]]>
    </name>
    <cmt>
        </cmt>
    <desc><![CDATA[]]>
    </desc>
    <sym>Flag, Blue</sym>
    <type>user</type>
    <extensions>
      <PosType>0</PosType>
      <Speed>1.089667</Speed>
      <Accuracy>1.4</Accuracy>
      <Time>1768713247689</Time>
      <description><![CDATA[]]>
      </description>
      <FileId>1545464370</FileId>
      <FileSize>1359910</FileSize>
      <FileType>0</FileType>
    </extensions>
  </wpt>
  <wpt lat="29.4442383" lon="119.8487467">
    <ele>336.2</ele>
    <time>2026-01-18T05:36:12Z</time>
    <name><![CDATA[
        ]]>
    </name>
    <cmt>
        </cmt>
    <desc><![CDATA[]]>
    </desc>
    <sym>Flag, Blue</sym>
    <type>user</type>
    <extensions>
      <PosType>0</PosType>
      <Speed>0.0</Speed>
      <Accuracy>1.2</Accuracy>
      <Time>1768714572740</Time>
      <description><![CDATA[]]>
      </description>
      <FileId>1545464367</FileId>
      <FileSize>3074370</FileSize>
      <FileType>0</FileType>
    </extensions>
  </wpt>
  <wpt lat="29.4527266" lon="119.8498336">
    <ele>91.9</ele>
    <time>2026-01-18T06:12:16Z</time>
    <name><![CDATA[
        ]]>
    </name>
    <cmt>
        </cmt>
    <desc><![CDATA[]]>
    </desc>
    <sym>Flag, Blue</sym>
    <type>user</type>
    <extensions>
      <PosType>0</PosType>
      <Speed>0.6773744</Speed>
      <Accuracy>1.2</Accuracy>
      <Time>1768716736778</Time>
      <description><![CDATA[]]>
      </description>
      <FileId>1545464361</FileId>
      <FileSize>2958430</FileSize>
      <FileType>0</FileType>
    </extensions>
  </wpt>
</gpx>