<?xml version='1.0' encoding='UTF-8' standalone='yes' ?>
<gpx version="1.1" creator="GPSBabel - http://www.gpsbabel.org" xmlns:xsi="http://www.w3.org/2001/XMLSchema-instance" xmlns="http://www.topografix.com/GPX/1/1" xsi:schemaLocation="http://www.topografix.com/GPX/1/1 http://www.topografix.com/GPX/1/1/gpx.xsd">
  <metadata>
    <link href="http://www.garmin.com">
      <text>Garmin International</text>
    </link>
    <time>2026-09-03T02:21:13Z</time>
    <bounds minlat="28.6708756" minlon="119.671668" maxlat="28.6742498" maxlon="119.6786478" />
  </metadata>
  <extensions>
    <name><![CDATA[皮子源燕子洞]]>
    </name>
    <description><![CDATA[终点前1公里不好会车，一个荒废的地方，路野草长，注意安全，后半段没有信号。]]>
    </description>
    <TrackId>89111404</TrackId>
    <TrackTypeId>8</TrackTypeId>
    <TrackTags>合并获得,徒步</TrackTags>
    <BeginTime>1788402073158</BeginTime>
    <EndTime>1788407742732</EndTime>
    <TimeUsed>4287000</TimeUsed>
    <PauseTime>4385</PauseTime>
    <PosStartName>皮子源村向前1公里</PosStartName>
    <PosEndName>皮子源村向前1公里</PosEndName>
    <ProductVersion>and_9.2.3</ProductVersion>
    <StartDistrictId>9656</StartDistrictId>
    <EndDistrictId>9656</EndDistrictId>
    <CreaterId>64771087</CreaterId>
    <CreaterName><![CDATA[步履赴山野]]>
    </CreaterName>
    <CreaterIcon>1523534626</CreaterIcon>
    <OriginCreaterId>64771087</OriginCreaterId>
    <OriginCreaterNickname><![CDATA[步履赴山野]]>
    </OriginCreaterNickname>
    <OriginCreaterName><![CDATA[null]]>
    </OriginCreaterName>
    <OriginCreaterIcon>1523534626</OriginCreaterIcon>
    <ThumbnailId>1669294971</ThumbnailId>
    <Distance>2120.0</Distance>
    <ElevationGain>128.87999999999994</ElevationGain>
    <ElevationLoss>131.30999999999995</ElevationLoss>
    <SportAvgSpeed>0.4950246519941671</SportAvgSpeed>
  </extensions>
  <trk>
    <trkseg>
      <trkpt lat="28.6708756" lon="119.6717737">
        <ele>274.6</ele>
        <time>2026-09-03T02:21:13Z</time>
        <speed>0.8693658</speed>
      </trkpt>
      <trkpt lat="28.6709266" lon="119.6717857">
        <ele>274.6</ele>
        <time>2026-09-03T02:21:25Z</time>
        <speed>1.054151</speed>
      </trkpt>
      <trkpt lat="28.6710181" lon="119.6718258">
        <ele>275.85</ele>
        <time>2026-09-03T02:21:33Z</time>
        <speed>1.2605547</speed>
      </trkpt>
      <trkpt lat="28.6711291" lon="119.6718546">
        <ele>277.12</ele>
        <time>2026-09-03T02:21:41Z</time>
        <speed>1.4144567</speed>
      </trkpt>
      <trkpt lat="28.6712023" lon="119.6719106">
        <ele>277.71</ele>
        <time>2026-09-03T02:21:59Z</time>
        <speed>0.0</speed>
      </trkpt>
      <trkpt lat="28.6712603" lon="119.6719961">
        <ele>277.66</ele>
        <time>2026-09-03T02:22:35Z</time>
        <speed>1.0526069</speed>
      </trkpt>
      <trkpt lat="28.6713004" lon="119.6720955">
        <ele>276.99</ele>
        <time>2026-09-03T02:22:45Z</time>
        <speed>1.2018764</speed>
      </trkpt>
      <trkpt lat="28.6713449" lon="119.6721961">
        <ele>277.38</ele>
        <time>2026-09-03T02:22:55Z</time>
        <speed>0.99084026</speed>
      </trkpt>
      <trkpt lat="28.6713786" lon="119.6722963">
        <ele>278.29</ele>
        <time>2026-09-03T02:23:01Z</time>
        <speed>1.3012178</speed>
      </trkpt>
      <trkpt lat="28.6714164" lon="119.6724052">
        <ele>279.33</ele>
        <time>2026-09-03T02:23:13Z</time>
        <speed>1.0639309</speed>
      </trkpt>
      <trkpt lat="28.6714817" lon="119.6725003">
        <ele>280.56</ele>
        <time>2026-09-03T02:23:23Z</time>
        <speed>1.139595</speed>
      </trkpt>
      <trkpt lat="28.6715597" lon="119.6725934">
        <ele>280.84</ele>
        <time>2026-09-03T02:23:29Z</time>
        <speed>1.9317524</speed>
      </trkpt>
      <trkpt lat="28.6716648" lon="119.6725959">
        <ele>280.39</ele>
        <time>2026-09-03T02:23:39Z</time>
        <speed>1.8797655</speed>
      </trkpt>
      <trkpt lat="28.6717558" lon="119.6726345">
        <ele>280.57</ele>
        <time>2026-09-03T02:23:51Z</time>
        <speed>1.4041622</speed>
      </trkpt>
      <trkpt lat="28.6718707" lon="119.6726675">
        <ele>281.74</ele>
        <time>2026-09-03T02:24:01Z</time>
        <speed>1.3815144</speed>
      </trkpt>
      <trkpt lat="28.6719915" lon="119.6726968">
        <ele>282.07</ele>
        <time>2026-09-03T02:24:11Z</time>
        <speed>1.7932922</speed>
      </trkpt>
      <trkpt lat="28.6721016" lon="119.6727004">
        <ele>281.69</ele>
        <time>2026-09-03T02:24:23Z</time>
        <speed>1.0788578</speed>
      </trkpt>
      <trkpt lat="28.6722054" lon="119.6727139">
        <ele>280.84</ele>
        <time>2026-09-03T02:24:33Z</time>
        <speed>1.0201794</speed>
      </trkpt>
      <trkpt lat="28.6722768" lon="119.6727753">
        <ele>280.39</ele>
        <time>2026-09-03T02:24:39Z</time>
        <speed>1.4123977</speed>
      </trkpt>
      <trkpt lat="28.672338" lon="119.6728772">
        <ele>280.09</ele>
        <time>2026-09-03T02:24:49Z</time>
        <speed>1.6486553</speed>
      </trkpt>
      <trkpt lat="28.6724061" lon="119.67296">
        <ele>280.48</ele>
        <time>2026-09-03T02:24:55Z</time>
        <speed>1.5626967</speed>
      </trkpt>
      <trkpt lat="28.672491" lon="119.6730099">
        <ele>281.05</ele>
        <time>2026-09-03T02:25:03Z</time>
        <speed>1.3218067</speed>
      </trkpt>
      <trkpt lat="28.6725435" lon="119.6731008">
        <ele>282.06</ele>
        <time>2026-09-03T02:25:13Z</time>
        <speed>1.1174619</speed>
      </trkpt>
      <trkpt lat="28.6726125" lon="119.6731805">
        <ele>282.29</ele>
        <time>2026-09-03T02:25:23Z</time>
        <speed>1.35269</speed>
      </trkpt>
      <trkpt lat="28.6726988" lon="119.6732308">
        <ele>281.74</ele>
        <time>2026-09-03T02:25:29Z</time>
        <speed>1.5874033</speed>
      </trkpt>
      <trkpt lat="28.672785" lon="119.6732701">
        <ele>281.51</ele>
        <time>2026-09-03T02:25:41Z</time>
        <speed>0.73090553</speed>
      </trkpt>
      <trkpt lat="28.6728565" lon="119.6733471">
        <ele>283.22</ele>
        <time>2026-09-03T02:25:47Z</time>
        <speed>1.0073113</speed>
      </trkpt>
      <trkpt lat="28.672927" lon="119.6734366">
        <ele>284.55</ele>
        <time>2026-09-03T02:25:55Z</time>
        <speed>1.2893791</speed>
      </trkpt>
      <trkpt lat="28.6729889" lon="119.6735194">
        <ele>285.95</ele>
        <time>2026-09-03T02:26:01Z</time>
        <speed>1.5904917</speed>
      </trkpt>
      <trkpt lat="28.6730781" lon="119.6735596">
        <ele>287.56</ele>
        <time>2026-09-03T02:26:09Z</time>
        <speed>1.7639531</speed>
      </trkpt>
      <trkpt lat="28.6731816" lon="119.6735838">
        <ele>289.43</ele>
        <time>2026-09-03T02:26:17Z</time>
        <speed>0.9589275</speed>
      </trkpt>
      <trkpt lat="28.6732829" lon="119.6736369">
        <ele>291.27</ele>
        <time>2026-09-03T02:26:27Z</time>
        <speed>1.4396781</speed>
      </trkpt>
      <trkpt lat="28.6733921" lon="119.673665">
        <ele>290.68</ele>
        <time>2026-09-03T02:26:35Z</time>
        <speed>2.633319</speed>
      </trkpt>
      <trkpt lat="28.6734659" lon="119.6737447">
        <ele>288.92</ele>
        <time>2026-09-03T02:26:43Z</time>
        <speed>1.3140858</speed>
      </trkpt>
      <trkpt lat="28.6735599" lon="119.6737769">
        <ele>285.73</ele>
        <time>2026-09-03T02:26:49Z</time>
        <speed>1.7320403</speed>
      </trkpt>
      <trkpt lat="28.6736553" lon="119.6737931">
        <ele>282.92</ele>
        <time>2026-09-03T02:26:59Z</time>
        <speed>1.0855491</speed>
      </trkpt>
      <trkpt lat="28.6737296" lon="119.6737762">
        <ele>280.8</ele>
        <time>2026-09-03T02:27:15Z</time>
        <speed>0.0</speed>
      </trkpt>
      <trkpt lat="28.673672" lon="119.673785">
        <ele>279.64</ele>
        <time>2026-09-03T02:27:33Z</time>
        <speed>0.6516383</speed>
      </trkpt>
      <trkpt lat="28.6737049" lon="119.6738173">
        <ele>281.86</ele>
        <time>2026-09-03T02:27:45Z</time>
        <speed>1.1226091</speed>
      </trkpt>
      <trkpt lat="28.6737713" lon="119.6738956">
        <ele>283.86</ele>
        <time>2026-09-03T02:27:53Z</time>
        <speed>1.6126248</speed>
      </trkpt>
      <trkpt lat="28.6738289" lon="119.6739883">
        <ele>286.03</ele>
        <time>2026-09-03T02:28:03Z</time>
        <speed>0.93422085</speed>
      </trkpt>
      <trkpt lat="28.6738874" lon="119.6741006">
        <ele>288.68</ele>
        <time>2026-09-03T02:28:11Z</time>
        <speed>1.5956389</speed>
      </trkpt>
      <trkpt lat="28.6739304" lon="119.6742062">
        <ele>290.54</ele>
        <time>2026-09-03T02:28:19Z</time>
        <speed>1.7104219</speed>
      </trkpt>
      <trkpt lat="28.6739623" lon="119.6743183">
        <ele>291.04</ele>
        <time>2026-09-03T02:28:27Z</time>
        <speed>1.5477697</speed>
      </trkpt>
      <trkpt lat="28.6739783" lon="119.6744406">
        <ele>290.81</ele>
        <time>2026-09-03T02:28:37Z</time>
        <speed>0.9512067</speed>
      </trkpt>
      <trkpt lat="28.6740006" lon="119.6745683">
        <ele>291.19</ele>
        <time>2026-09-03T02:28:45Z</time>
        <speed>1.3398219</speed>
      </trkpt>
      <trkpt lat="28.6740141" lon="119.6746782">
        <ele>291.63</ele>
        <time>2026-09-03T02:28:53Z</time>
        <speed>1.0644456</speed>
      </trkpt>
      <trkpt lat="28.6740123" lon="119.6747858">
        <ele>291.49</ele>
        <time>2026-09-03T02:29:01Z</time>
        <speed>1.0484892</speed>
      </trkpt>
      <trkpt lat="28.6739967" lon="119.6748956">
        <ele>290.29</ele>
        <time>2026-09-03T02:29:07Z</time>
        <speed>1.5292398</speed>
      </trkpt>
      <trkpt lat="28.6739285" lon="119.6749678">
        <ele>289.17</ele>
        <time>2026-09-03T02:29:17Z</time>
        <speed>0.88995475</speed>
      </trkpt>
      <trkpt lat="28.6738763" lon="119.6750614">
        <ele>288.37</ele>
        <time>2026-09-03T02:29:29Z</time>
        <speed>0.7092872</speed>
      </trkpt>
      <trkpt lat="28.6738336" lon="119.6751611">
        <ele>289.33</ele>
        <time>2026-09-03T02:29:37Z</time>
        <speed>1.0927553</speed>
      </trkpt>
      <trkpt lat="28.6738291" lon="119.6752656">
        <ele>291.34</ele>
        <time>2026-09-03T02:29:45Z</time>
        <speed>1.0762842</speed>
      </trkpt>
      <trkpt lat="28.6738687" lon="119.6753702">
        <ele>293.34</ele>
        <time>2026-09-03T02:29:53Z</time>
        <speed>1.3151153</speed>
      </trkpt>
      <trkpt lat="28.6739124" lon="119.6754881">
        <ele>295.13</ele>
        <time>2026-09-03T02:30:01Z</time>
        <speed>1.1910672</speed>
      </trkpt>
      <trkpt lat="28.6739577" lon="119.6756132">
        <ele>296.58</ele>
        <time>2026-09-03T02:30:11Z</time>
        <speed>1.0603278</speed>
      </trkpt>
      <trkpt lat="28.6740242" lon="119.6756987">
        <ele>297.58</ele>
        <time>2026-09-03T02:30:19Z</time>
        <speed>1.3686464</speed>
      </trkpt>
      <trkpt lat="28.6740908" lon="119.675794">
        <ele>297.76</ele>
        <time>2026-09-03T02:30:27Z</time>
        <speed>1.3511459</speed>
      </trkpt>
      <trkpt lat="28.6741082" lon="119.6758982">
        <ele>297.35</ele>
        <time>2026-09-03T02:30:37Z</time>
        <speed>1.3974708</speed>
      </trkpt>
      <trkpt lat="28.6741454" lon="119.6760087">
        <ele>297.46</ele>
        <time>2026-09-03T02:30:47Z</time>
        <speed>1.0973878</speed>
      </trkpt>
      <trkpt lat="28.6741758" lon="119.6761111">
        <ele>297.04</ele>
        <time>2026-09-03T02:30:55Z</time>
        <speed>0.8755425</speed>
      </trkpt>
      <trkpt lat="28.6741963" lon="119.6762238">
        <ele>296.34</ele>
        <time>2026-09-03T02:31:01Z</time>
        <speed>1.3825439</speed>
      </trkpt>
      <trkpt lat="28.6742498" lon="119.6762741">
        <ele>295.55</ele>
        <time>2026-09-03T02:31:39Z</time>
        <speed>0.0</speed>
      </trkpt>
      <trkpt lat="28.67414" lon="119.6762617">
        <ele>293.46</ele>
        <time>2026-09-03T02:32:41Z</time>
        <speed>0.45707333</speed>
      </trkpt>
      <trkpt lat="28.6740433" lon="119.6762433">
        <ele>291.07</ele>
        <time>2026-09-03T02:32:49Z</time>
        <speed>2.0851398</speed>
      </trkpt>
      <trkpt lat="28.6740482" lon="119.6762447">
        <ele>289.92</ele>
        <time>2026-09-03T02:32:51Z</time>
        <speed>0.0</speed>
      </trkpt>
      <trkpt lat="28.6741225" lon="119.6762471">
        <ele>289.78</ele>
        <time>2026-09-03T02:33:13Z</time>
        <speed>0.0</speed>
      </trkpt>
      <trkpt lat="28.6741576" lon="119.6763263">
        <ele>289.36</ele>
        <time>2026-09-03T02:33:31Z</time>
        <speed>0.67943335</speed>
      </trkpt>
      <trkpt lat="28.6741301" lon="119.6764329">
        <ele>288.56</ele>
        <time>2026-09-03T02:34:25Z</time>
        <speed>0.95841277</speed>
      </trkpt>
      <trkpt lat="28.6741887" lon="119.6764403">
        <ele>290.3</ele>
        <time>2026-09-03T02:35:23Z</time>
        <speed>0.8081139</speed>
      </trkpt>
      <trkpt lat="28.6741467" lon="119.676495">
        <ele>292.45</ele>
        <time>2026-09-03T02:36:35Z</time>
        <speed>0.8528947</speed>
      </trkpt>
      <trkpt lat="28.674125" lon="119.6766133">
        <ele>294.23</ele>
        <time>2026-09-03T02:36:47Z</time>
        <speed>0.9774575</speed>
      </trkpt>
      <trkpt lat="28.6741499" lon="119.6767176">
        <ele>295.51</ele>
        <time>2026-09-03T02:36:55Z</time>
        <speed>1.1462864</speed>
      </trkpt>
      <trkpt lat="28.6741778" lon="119.6768193">
        <ele>296.84</ele>
        <time>2026-09-03T02:37:05Z</time>
        <speed>1.2008469</speed>
      </trkpt>
      <trkpt lat="28.6741318" lon="119.6768888">
        <ele>298.16</ele>
        <time>2026-09-03T02:37:13Z</time>
        <speed>1.0093703</speed>
      </trkpt>
      <trkpt lat="28.6741096" lon="119.6769258">
        <ele>299.55</ele>
        <time>2026-09-03T02:37:25Z</time>
        <speed>0.0</speed>
      </trkpt>
      <trkpt lat="28.674085" lon="119.6770183">
        <ele>299.92</ele>
        <time>2026-09-03T02:38:41Z</time>
        <speed>0.4050864</speed>
      </trkpt>
      <trkpt lat="28.67406" lon="119.67713">
        <ele>298.45</ele>
        <time>2026-09-03T02:41:09Z</time>
        <speed>0.60582805</speed>
      </trkpt>
      <trkpt lat="28.6740483" lon="119.6772383">
        <ele>296.92</ele>
        <time>2026-09-03T02:41:27Z</time>
        <speed>0.7926722</speed>
      </trkpt>
      <trkpt lat="28.6740635" lon="119.6773453">
        <ele>297.3</ele>
        <time>2026-09-03T02:41:49Z</time>
        <speed>0.62590224</speed>
      </trkpt>
      <trkpt lat="28.6740975" lon="119.6774571">
        <ele>299.75</ele>
        <time>2026-09-03T02:42:15Z</time>
        <speed>0.7432589</speed>
      </trkpt>
      <trkpt lat="28.6740999" lon="119.6775704">
        <ele>303.04</ele>
        <time>2026-09-03T02:42:29Z</time>
        <speed>0.657815</speed>
      </trkpt>
      <trkpt lat="28.6741026" lon="119.6776817">
        <ele>306.16</ele>
        <time>2026-09-03T02:42:39Z</time>
        <speed>1.180258</speed>
      </trkpt>
      <trkpt lat="28.6741061" lon="119.6777957">
        <ele>309.62</ele>
        <time>2026-09-03T02:42:51Z</time>
        <speed>0.79473114</speed>
      </trkpt>
      <trkpt lat="28.6741016" lon="119.6779083">
        <ele>313.57</ele>
        <time>2026-09-03T02:43:05Z</time>
        <speed>1.0150322</speed>
      </trkpt>
      <trkpt lat="28.6740855" lon="119.6780002">
        <ele>317.88</ele>
        <time>2026-09-03T02:43:33Z</time>
        <speed>0.0</speed>
      </trkpt>
      <trkpt lat="28.6740033" lon="119.6778967">
        <ele>321.03</ele>
        <time>2026-09-03T02:45:07Z</time>
        <speed>0.0</speed>
      </trkpt>
      <trkpt lat="28.67394" lon="119.677985">
        <ele>321.79</ele>
        <time>2026-09-03T02:45:27Z</time>
        <speed>0.80451083</speed>
      </trkpt>
      <trkpt lat="28.6738978" lon="119.6780903">
        <ele>323.3</ele>
        <time>2026-09-03T02:45:41Z</time>
        <speed>0.0</speed>
      </trkpt>
      <trkpt lat="28.6738183" lon="119.6780483">
        <ele>325.54</ele>
        <time>2026-09-03T02:46:59Z</time>
        <speed>0.7339939</speed>
      </trkpt>
      <trkpt lat="28.673775" lon="119.67795">
        <ele>330.17</ele>
        <time>2026-09-03T02:47:39Z</time>
        <speed>0.0</speed>
      </trkpt>
      <trkpt lat="28.6737133" lon="119.6779955">
        <ele>334.35</ele>
        <time>2026-09-03T02:47:55Z</time>
        <speed>0.32942224</speed>
      </trkpt>
      <trkpt lat="28.6736703" lon="119.6780922">
        <ele>340.14</ele>
        <time>2026-09-03T02:48:25Z</time>
        <speed>0.8601008</speed>
      </trkpt>
      <trkpt lat="28.6735941" lon="119.6781517">
        <ele>343.99</ele>
        <time>2026-09-03T02:48:41Z</time>
        <speed>0.565165</speed>
      </trkpt>
      <trkpt lat="28.6734907" lon="119.6781869">
        <ele>348.56</ele>
        <time>2026-09-03T02:49:01Z</time>
        <speed>0.0</speed>
      </trkpt>
      <trkpt lat="28.6733911" lon="119.6782433">
        <ele>352.88</ele>
        <time>2026-09-03T02:49:15Z</time>
        <speed>1.3403367</speed>
      </trkpt>
      <trkpt lat="28.6733605" lon="119.6782653">
        <ele>355.42</ele>
        <time>2026-09-03T02:49:27Z</time>
        <speed>0.0</speed>
      </trkpt>
      <trkpt lat="28.6732883" lon="119.6783028">
        <ele>357.87</ele>
        <time>2026-09-03T02:49:51Z</time>
        <speed>0.6233286</speed>
      </trkpt>
      <trkpt lat="28.6733533" lon="119.6782317">
        <ele>361.02</ele>
        <time>2026-09-03T02:51:03Z</time>
        <speed>1.4386486</speed>
      </trkpt>
      <trkpt lat="28.6733483" lon="119.678275">
        <ele>365.96</ele>
        <time>2026-09-03T02:51:15Z</time>
        <speed>0.0</speed>
      </trkpt>
      <trkpt lat="28.673294" lon="119.6783705">
        <ele>368.69</ele>
        <time>2026-09-03T02:51:39Z</time>
        <speed>0.83899724</speed>
      </trkpt>
      <trkpt lat="28.6732798" lon="119.6784766">
        <ele>370.24</ele>
        <time>2026-09-03T02:51:53Z</time>
        <speed>0.90745527</speed>
      </trkpt>
      <trkpt lat="28.67337" lon="119.6785233">
        <ele>371.6</ele>
        <time>2026-09-03T02:52:55Z</time>
        <speed>1.22298</speed>
      </trkpt>
      <trkpt lat="28.6736358" lon="119.6785647">
        <ele>393.92</ele>
        <time>2026-09-03T03:15:57Z</time>
        <speed>0.8601008</speed>
      </trkpt>
      <trkpt lat="28.6734882" lon="119.6785643">
        <ele>391.42</ele>
        <time>2026-09-03T03:16:47Z</time>
        <speed>0.23728694</speed>
      </trkpt>
      <trkpt lat="28.673486" lon="119.6786394">
        <ele>390.21</ele>
        <time>2026-09-03T03:17:01Z</time>
        <speed>0.94605947</speed>
      </trkpt>
      <trkpt lat="28.67342" lon="119.6786478">
        <ele>389.09</ele>
        <time>2026-09-03T03:17:29Z</time>
        <speed>1.2595253</speed>
      </trkpt>
      <trkpt lat="28.6734011" lon="119.6786028">
        <ele>387.63</ele>
        <time>2026-09-03T03:17:47Z</time>
        <speed>0.0</speed>
      </trkpt>
      <trkpt lat="28.6734169" lon="119.6785066">
        <ele>386.63</ele>
        <time>2026-09-03T03:18:31Z</time>
        <speed>0.0</speed>
      </trkpt>
      <trkpt lat="28.6733489" lon="119.6784646">
        <ele>386.53</ele>
        <time>2026-09-03T03:19:01Z</time>
        <speed>0.8822339</speed>
      </trkpt>
      <trkpt lat="28.6733046" lon="119.6783798">
        <ele>384.84</ele>
        <time>2026-09-03T03:19:13Z</time>
        <speed>0.9326767</speed>
      </trkpt>
      <trkpt lat="28.673317" lon="119.6782814">
        <ele>383.32</ele>
        <time>2026-09-03T03:19:29Z</time>
        <speed>0.48280945</speed>
      </trkpt>
      <trkpt lat="28.6733827" lon="119.6781953">
        <ele>382.11</ele>
        <time>2026-09-03T03:19:51Z</time>
        <speed>0.98826665</speed>
      </trkpt>
      <trkpt lat="28.6734713" lon="119.6781332">
        <ele>380.25</ele>
        <time>2026-09-03T03:20:15Z</time>
        <speed>0.8719394</speed>
      </trkpt>
      <trkpt lat="28.6735737" lon="119.6781414">
        <ele>375.76</ele>
        <time>2026-09-03T03:20:31Z</time>
        <speed>0.69281614</speed>
      </trkpt>
      <trkpt lat="28.6736588" lon="119.6781041">
        <ele>370.7</ele>
        <time>2026-09-03T03:20:43Z</time>
        <speed>0.8637039</speed>
      </trkpt>
      <trkpt lat="28.673721" lon="119.6780232">
        <ele>366.18</ele>
        <time>2026-09-03T03:21:09Z</time>
        <speed>0.53994364</speed>
      </trkpt>
      <trkpt lat="28.673797" lon="119.6779365">
        <ele>361.93</ele>
        <time>2026-09-03T03:21:29Z</time>
        <speed>0.8626744</speed>
      </trkpt>
      <trkpt lat="28.6738614" lon="119.6779691">
        <ele>359.12</ele>
        <time>2026-09-03T03:21:51Z</time>
        <speed>0.47560334</speed>
      </trkpt>
      <trkpt lat="28.6738914" lon="119.6780669">
        <ele>354.64</ele>
        <time>2026-09-03T03:22:11Z</time>
        <speed>0.5847244</speed>
      </trkpt>
      <trkpt lat="28.6739481" lon="119.6780551">
        <ele>351.05</ele>
        <time>2026-09-03T03:22:37Z</time>
        <speed>0.6995075</speed>
      </trkpt>
      <trkpt lat="28.6739954" lon="119.677978">
        <ele>344.58</ele>
        <time>2026-09-03T03:22:47Z</time>
        <speed>0.768995</speed>
      </trkpt>
      <trkpt lat="28.6740202" lon="119.677872">
        <ele>339.17</ele>
        <time>2026-09-03T03:22:55Z</time>
        <speed>0.0</speed>
      </trkpt>
      <trkpt lat="28.674076" lon="119.6778868">
        <ele>335.22</ele>
        <time>2026-09-03T03:23:11Z</time>
        <speed>0.75612694</speed>
      </trkpt>
      <trkpt lat="28.6741019" lon="119.6778184">
        <ele>330.83</ele>
        <time>2026-09-03T03:23:29Z</time>
        <speed>0.7509797</speed>
      </trkpt>
      <trkpt lat="28.6740921" lon="119.6777128">
        <ele>325.57</ele>
        <time>2026-09-03T03:23:37Z</time>
        <speed>0.0</speed>
      </trkpt>
      <trkpt lat="28.6740855" lon="119.6775895">
        <ele>320.98</ele>
        <time>2026-09-03T03:23:47Z</time>
        <speed>0.0</speed>
      </trkpt>
      <trkpt lat="28.6740976" lon="119.6774705">
        <ele>317.33</ele>
        <time>2026-09-03T03:23:55Z</time>
        <speed>0.0</speed>
      </trkpt>
      <trkpt lat="28.6740927" lon="119.677352">
        <ele>314.74</ele>
        <time>2026-09-03T03:24:19Z</time>
        <speed>0.0</speed>
      </trkpt>
      <trkpt lat="28.6740674" lon="119.6772436">
        <ele>312.36</ele>
        <time>2026-09-03T03:24:31Z</time>
        <speed>0.57340056</speed>
      </trkpt>
      <trkpt lat="28.6740604" lon="119.6771257">
        <ele>309.54</ele>
        <time>2026-09-03T03:24:43Z</time>
        <speed>0.54251724</speed>
      </trkpt>
      <trkpt lat="28.6740779" lon="119.6770192">
        <ele>306.34</ele>
        <time>2026-09-03T03:24:51Z</time>
        <speed>0.84414446</speed>
      </trkpt>
      <trkpt lat="28.6741229" lon="119.6769222">
        <ele>303.53</ele>
        <time>2026-09-03T03:25:01Z</time>
        <speed>0.76539195</speed>
      </trkpt>
      <trkpt lat="28.6740861" lon="119.6768527">
        <ele>292.23</ele>
        <time>2026-09-03T03:40:25Z</time>
        <speed>0.5878128</speed>
      </trkpt>
      <trkpt lat="28.6740774" lon="119.6767419">
        <ele>291.78</ele>
        <time>2026-09-03T03:40:39Z</time>
        <speed>0.41126305</speed>
      </trkpt>
      <trkpt lat="28.6740723" lon="119.676636">
        <ele>291.23</ele>
        <time>2026-09-03T03:40:47Z</time>
        <speed>0.52913445</speed>
      </trkpt>
      <trkpt lat="28.6740826" lon="119.6765316">
        <ele>290.62</ele>
        <time>2026-09-03T03:40:57Z</time>
        <speed>0.0</speed>
      </trkpt>
      <trkpt lat="28.6741091" lon="119.6764223">
        <ele>290.44</ele>
        <time>2026-09-03T03:41:07Z</time>
        <speed>0.8333353</speed>
      </trkpt>
      <trkpt lat="28.6741264" lon="119.6763123">
        <ele>290.85</ele>
        <time>2026-09-03T03:41:49Z</time>
        <speed>0.4426611</speed>
      </trkpt>
      <trkpt lat="28.6741577" lon="119.6762096">
        <ele>290.96</ele>
        <time>2026-09-03T03:42:07Z</time>
        <speed>0.5347964</speed>
      </trkpt>
      <trkpt lat="28.6741312" lon="119.6761197">
        <ele>290.98</ele>
        <time>2026-09-03T03:42:21Z</time>
        <speed>0.47611806</speed>
      </trkpt>
      <trkpt lat="28.6741101" lon="119.6760228">
        <ele>290.64</ele>
        <time>2026-09-03T03:42:33Z</time>
        <speed>0.6233286</speed>
      </trkpt>
      <trkpt lat="28.6740774" lon="119.6759263">
        <ele>290.54</ele>
        <time>2026-09-03T03:42:45Z</time>
        <speed>0.72627306</speed>
      </trkpt>
      <trkpt lat="28.6740567" lon="119.6758185">
        <ele>290.05</ele>
        <time>2026-09-03T03:42:55Z</time>
        <speed>1.0206941</speed>
      </trkpt>
      <trkpt lat="28.6740277" lon="119.6757141">
        <ele>289.17</ele>
        <time>2026-09-03T03:43:07Z</time>
        <speed>0.7432589</speed>
      </trkpt>
      <trkpt lat="28.6739632" lon="119.6756265">
        <ele>288.58</ele>
        <time>2026-09-03T03:43:17Z</time>
        <speed>1.030474</speed>
      </trkpt>
      <trkpt lat="28.6739024" lon="119.6755439">
        <ele>288.03</ele>
        <time>2026-09-03T03:43:25Z</time>
        <speed>1.143198</speed>
      </trkpt>
      <trkpt lat="28.673869" lon="119.6754498">
        <ele>287.5</ele>
        <time>2026-09-03T03:43:33Z</time>
        <speed>1.1308447</speed>
      </trkpt>
      <trkpt lat="28.6738353" lon="119.6753445">
        <ele>286.9</ele>
        <time>2026-09-03T03:43:43Z</time>
        <speed>0.97900164</speed>
      </trkpt>
      <trkpt lat="28.6738217" lon="119.6752291">
        <ele>286.04</ele>
        <time>2026-09-03T03:43:53Z</time>
        <speed>1.0407684</speed>
      </trkpt>
      <trkpt lat="28.67381" lon="119.6751069">
        <ele>285.42</ele>
        <time>2026-09-03T03:44:05Z</time>
        <speed>0.69127196</speed>
      </trkpt>
      <trkpt lat="28.6738552" lon="119.6749958">
        <ele>285.07</ele>
        <time>2026-09-03T03:44:13Z</time>
        <speed>1.0232677</speed>
      </trkpt>
      <trkpt lat="28.673899" lon="119.6748808">
        <ele>284.39</ele>
        <time>2026-09-03T03:44:23Z</time>
        <speed>0.99495804</speed>
      </trkpt>
      <trkpt lat="28.6739702" lon="119.6747893">
        <ele>283.41</ele>
        <time>2026-09-03T03:44:31Z</time>
        <speed>1.0798873</speed>
      </trkpt>
      <trkpt lat="28.6740106" lon="119.6746865">
        <ele>282.8</ele>
        <time>2026-09-03T03:44:41Z</time>
        <speed>0.8518653</speed>
      </trkpt>
      <trkpt lat="28.6739948" lon="119.6745796">
        <ele>284.26</ele>
        <time>2026-09-03T03:44:51Z</time>
        <speed>0.8307617</speed>
      </trkpt>
      <trkpt lat="28.6739714" lon="119.6744612">
        <ele>284.84</ele>
        <time>2026-09-03T03:45:01Z</time>
        <speed>1.1555514</speed>
      </trkpt>
      <trkpt lat="28.6739246" lon="119.674365">
        <ele>284.99</ele>
        <time>2026-09-03T03:45:09Z</time>
        <speed>1.0448861</speed>
      </trkpt>
      <trkpt lat="28.6739028" lon="119.6742627">
        <ele>285.17</ele>
        <time>2026-09-03T03:45:17Z</time>
        <speed>1.0129733</speed>
      </trkpt>
      <trkpt lat="28.6738738" lon="119.6741511">
        <ele>285.01</ele>
        <time>2026-09-03T03:45:27Z</time>
        <speed>1.0536364</speed>
      </trkpt>
      <trkpt lat="28.6738333" lon="119.674041">
        <ele>284.45</ele>
        <time>2026-09-03T03:45:37Z</time>
        <speed>1.0762842</speed>
      </trkpt>
      <trkpt lat="28.6737751" lon="119.6739519">
        <ele>284.38</ele>
        <time>2026-09-03T03:45:47Z</time>
        <speed>0.9244411</speed>
      </trkpt>
      <trkpt lat="28.6737126" lon="119.6738744">
        <ele>284.3</ele>
        <time>2026-09-03T03:45:57Z</time>
        <speed>0.8976756</speed>
      </trkpt>
      <trkpt lat="28.6736486" lon="119.6737976">
        <ele>284.35</ele>
        <time>2026-09-03T03:46:09Z</time>
        <speed>0.6557561</speed>
      </trkpt>
      <trkpt lat="28.6735626" lon="119.6737449">
        <ele>283.12</ele>
        <time>2026-09-03T03:46:43Z</time>
        <speed>0.74222946</speed>
      </trkpt>
      <trkpt lat="28.6734603" lon="119.6737341">
        <ele>281.31</ele>
        <time>2026-09-03T03:47:07Z</time>
        <speed>0.43236667</speed>
      </trkpt>
      <trkpt lat="28.6733586" lon="119.6737232">
        <ele>279.54</ele>
        <time>2026-09-03T03:47:19Z</time>
        <speed>0.97179556</speed>
      </trkpt>
      <trkpt lat="28.6732789" lon="119.6736564">
        <ele>277.84</ele>
        <time>2026-09-03T03:47:29Z</time>
        <speed>1.1133442</speed>
      </trkpt>
      <trkpt lat="28.6732581" lon="119.6736026">
        <ele>276.62</ele>
        <time>2026-09-03T03:47:41Z</time>
        <speed>0.0</speed>
      </trkpt>
      <trkpt lat="28.6731918" lon="119.6735608">
        <ele>276.05</ele>
        <time>2026-09-03T03:47:57Z</time>
        <speed>1.1601839</speed>
      </trkpt>
      <trkpt lat="28.6731052" lon="119.6735312">
        <ele>276.03</ele>
        <time>2026-09-03T03:48:09Z</time>
        <speed>0.6691389</speed>
      </trkpt>
      <trkpt lat="28.6730243" lon="119.6734757">
        <ele>275.5</ele>
        <time>2026-09-03T03:48:21Z</time>
        <speed>0.60171026</speed>
      </trkpt>
      <trkpt lat="28.67295" lon="119.6734">
        <ele>275.2</ele>
        <time>2026-09-03T03:49:57Z</time>
        <speed>0.38140917</speed>
      </trkpt>
      <trkpt lat="28.67285" lon="119.673355">
        <ele>274.04</ele>
        <time>2026-09-03T03:50:11Z</time>
        <speed>0.68355113</speed>
      </trkpt>
      <trkpt lat="28.6727458" lon="119.6733156">
        <ele>272.52</ele>
        <time>2026-09-03T03:50:21Z</time>
        <speed>2.0594037</speed>
      </trkpt>
      <trkpt lat="28.6726614" lon="119.6732593">
        <ele>271.13</ele>
        <time>2026-09-03T03:50:37Z</time>
        <speed>1.443281</speed>
      </trkpt>
      <trkpt lat="28.6725669" lon="119.6732127">
        <ele>268.02</ele>
        <time>2026-09-03T03:50:49Z</time>
        <speed>1.6990981</speed>
      </trkpt>
      <trkpt lat="28.6725269" lon="119.6731225">
        <ele>266.94</ele>
        <time>2026-09-03T03:50:59Z</time>
        <speed>1.6100512</speed>
      </trkpt>
      <trkpt lat="28.6724708" lon="119.6730349">
        <ele>269.63</ele>
        <time>2026-09-03T03:51:07Z</time>
        <speed>1.599242</speed>
      </trkpt>
      <trkpt lat="28.6723907" lon="119.6729658">
        <ele>273.32</ele>
        <time>2026-09-03T03:51:17Z</time>
        <speed>1.2543781</speed>
      </trkpt>
      <trkpt lat="28.6723049" lon="119.6728844">
        <ele>275.93</ele>
        <time>2026-09-03T03:51:31Z</time>
        <speed>0.6598739</speed>
      </trkpt>
      <trkpt lat="28.672233" lon="119.6727955">
        <ele>276.09</ele>
        <time>2026-09-03T03:51:39Z</time>
        <speed>1.054151</speed>
      </trkpt>
      <trkpt lat="28.6721507" lon="119.6727145">
        <ele>275.54</ele>
        <time>2026-09-03T03:51:49Z</time>
        <speed>1.158125</speed>
      </trkpt>
      <trkpt lat="28.6720505" lon="119.6726832">
        <ele>274.4</ele>
        <time>2026-09-03T03:52:01Z</time>
        <speed>1.0417978</speed>
      </trkpt>
      <trkpt lat="28.6719492" lon="119.6726613">
        <ele>273.67</ele>
        <time>2026-09-03T03:52:11Z</time>
        <speed>1.1123147</speed>
      </trkpt>
      <trkpt lat="28.6718499" lon="119.6726514">
        <ele>273.77</ele>
        <time>2026-09-03T03:52:21Z</time>
        <speed>1.3254098</speed>
      </trkpt>
      <trkpt lat="28.6717483" lon="119.6726175">
        <ele>276.66</ele>
        <time>2026-09-03T03:52:33Z</time>
        <speed>0.9403975</speed>
      </trkpt>
      <trkpt lat="28.6716623" lon="119.6725393">
        <ele>279.73</ele>
        <time>2026-09-03T03:52:47Z</time>
        <speed>1.3598961</speed>
      </trkpt>
      <trkpt lat="28.6715636" lon="119.6725192">
        <ele>281.4</ele>
        <time>2026-09-03T03:52:55Z</time>
        <speed>1.0819461</speed>
      </trkpt>
      <trkpt lat="28.671477" lon="119.6724742">
        <ele>280.93</ele>
        <time>2026-09-03T03:53:05Z</time>
        <speed>1.0675339</speed>
      </trkpt>
      <trkpt lat="28.6714252" lon="119.6723857">
        <ele>279.88</ele>
        <time>2026-09-03T03:53:15Z</time>
        <speed>0.8075992</speed>
      </trkpt>
      <trkpt lat="28.6713606" lon="119.6722981">
        <ele>279.55</ele>
        <time>2026-09-03T03:53:25Z</time>
        <speed>0.6094311</speed>
      </trkpt>
      <trkpt lat="28.6713342" lon="119.6721958">
        <ele>279.91</ele>
        <time>2026-09-03T03:53:33Z</time>
        <speed>1.096873</speed>
      </trkpt>
      <trkpt lat="28.6712863" lon="119.672087">
        <ele>280.38</ele>
        <time>2026-09-03T03:53:45Z</time>
        <speed>0.954295</speed>
      </trkpt>
      <trkpt lat="28.671257" lon="119.6719798">
        <ele>279.83</ele>
        <time>2026-09-03T03:53:57Z</time>
        <speed>1.1606987</speed>
      </trkpt>
      <trkpt lat="28.6711993" lon="119.671892">
        <ele>275.99</ele>
        <time>2026-09-03T03:54:05Z</time>
        <speed>1.349087</speed>
      </trkpt>
      <trkpt lat="28.6711128" lon="119.6718355">
        <ele>272.17</ele>
        <time>2026-09-03T03:54:13Z</time>
        <speed>1.7042453</speed>
      </trkpt>
      <trkpt lat="28.6710028" lon="119.6717934">
        <ele>269.77</ele>
        <time>2026-09-03T03:54:21Z</time>
        <speed>1.6831417</speed>
      </trkpt>
      <trkpt lat="28.6709291" lon="119.6717156">
        <ele>268.24</ele>
        <time>2026-09-03T03:54:31Z</time>
        <speed>1.0979025</speed>
      </trkpt>
      <trkpt lat="28.6708909" lon="119.671668">
        <ele>268.09</ele>
        <time>2026-09-03T03:54:47Z</time>
        <speed>0.0</speed>
      </trkpt>
      <trkpt lat="28.6708909" lon="119.671668">
        <ele>268.09</ele>
        <time>2026-09-03T03:55:42Z</time>
        <speed>0.0</speed>
      </trkpt>
      <extensions>
        <PauseTimes></PauseTimes>
      </extensions>
    </trkseg>
  </trk>
  <wpt lat="28.6708756" lon="119.6717737">
    <ele>274.6</ele>
    <time>2026-09-03T02:21:13Z</time>
    <name><![CDATA[停车
        ]]>
    </name>
    <cmt>停车
        </cmt>
    <desc><![CDATA[]]>
    </desc>
    <sym>Flag, Blue</sym>
    <type>user</type>
    <extensions>
      <PosType>0</PosType>
      <Speed>0.8693658</Speed>
      <Accuracy>1.5</Accuracy>
      <Time>1788402073158</Time>
      <description><![CDATA[]]>
      </description>
      <FileId>1669295314</FileId>
      <FileSize>1558310</FileSize>
      <FileType>0</FileType>
    </extensions>
  </wpt>
  <wpt lat="28.6713786" lon="119.6722963">
    <ele>280.7</ele>
    <time>2026-09-03T02:23:01Z</time>
    <name><![CDATA[溪流古道
        ]]>
    </name>
    <cmt>溪流古道
        </cmt>
    <desc><![CDATA[]]>
    </desc>
    <sym>Flag, Blue</sym>
    <type>user</type>
    <extensions>
      <PosType>0</PosType>
      <Speed>1.3012178</Speed>
      <Accuracy>1.5</Accuracy>
      <Time>1788402181185</Time>
      <description><![CDATA[]]>
      </description>
      <FileId>1669295310</FileId>
      <FileSize>1560258</FileSize>
      <FileType>0</FileType>
    </extensions>
  </wpt>
  <wpt lat="28.6739623" lon="119.6743183">
    <ele>290.5</ele>
    <time>2026-09-03T02:28:27Z</time>
    <name><![CDATA[
        ]]>
    </name>
    <cmt>
        </cmt>
    <desc><![CDATA[]]>
    </desc>
    <sym>Flag, Blue</sym>
    <type>user</type>
    <extensions>
      <PosType>0</PosType>
      <Speed>1.5477697</Speed>
      <Accuracy>1.6</Accuracy>
      <Time>1788402507194</Time>
      <description><![CDATA[]]>
      </description>
      <FileId>1669295308</FileId>
      <FileSize>1708358</FileSize>
      <FileType>0</FileType>
    </extensions>
  </wpt>
  <wpt lat="28.6741963" lon="119.6762238">
    <ele>294.5</ele>
    <time>2026-09-03T02:31:01Z</time>
    <name><![CDATA[涉水路段
        ]]>
    </name>
    <cmt>涉水路段
        </cmt>
    <desc><![CDATA[]]>
    </desc>
    <sym>Flag, Blue</sym>
    <type>user</type>
    <extensions>
      <PosType>0</PosType>
      <Speed>1.3825439</Speed>
      <Accuracy>1.7</Accuracy>
      <Time>1788402661203</Time>
      <description><![CDATA[]]>
      </description>
      <FileId>1669295305</FileId>
      <FileSize>1763153</FileSize>
      <FileType>0</FileType>
    </extensions>
  </wpt>
  <wpt lat="28.6741096" lon="119.6769258">
    <ele>300.4</ele>
    <time>2026-09-03T02:37:25Z</time>
    <name><![CDATA[右转
        ]]>
    </name>
    <cmt>右转
        </cmt>
    <desc><![CDATA[]]>
    </desc>
    <sym>Flag, Blue</sym>
    <type>user</type>
    <extensions>
      <PosType>0</PosType>
      <Speed>0.0</Speed>
      <Accuracy>1.4</Accuracy>
      <Time>1788403045160</Time>
      <description><![CDATA[]]>
      </description>
      <FileId>1669295299</FileId>
      <FileSize>3006510</FileSize>
      <FileType>0</FileType>
    </extensions>
  </wpt>
  <wpt lat="28.67406" lon="119.67713">
    <ele>294.9</ele>
    <time>2026-09-03T02:41:09Z</time>
    <name><![CDATA[草比较长
        ]]>
    </name>
    <cmt>草比较长
        </cmt>
    <desc><![CDATA[]]>
    </desc>
    <sym>Flag, Blue</sym>
    <type>user</type>
    <extensions>
      <PosType>0</PosType>
      <Speed>0.60582805</Speed>
      <Accuracy>1.7</Accuracy>
      <Time>1788403269197</Time>
      <description><![CDATA[]]>
      </description>
      <FileId>1669295295</FileId>
      <FileSize>1504643</FileSize>
      <FileType>0</FileType>
    </extensions>
  </wpt>
  <wpt lat="28.6738183" lon="119.6780483">
    <ele>336.3</ele>
    <time>2026-09-03T02:46:59Z</time>
    <name><![CDATA[塌方了
        ]]>
    </name>
    <cmt>塌方了
        </cmt>
    <desc><![CDATA[]]>
    </desc>
    <sym>Flag, Blue</sym>
    <type>user</type>
    <extensions>
      <PosType>0</PosType>
      <Speed>0.7339939</Speed>
      <Accuracy>1.7</Accuracy>
      <Time>1788403619163</Time>
      <description><![CDATA[]]>
      </description>
      <FileId>1669295288</FileId>
      <FileSize>1294225</FileSize>
      <FileType>0</FileType>
    </extensions>
  </wpt>
  <wpt lat="28.6733911" lon="119.6782433">
    <ele>358.8</ele>
    <time>2026-09-03T02:49:15Z</time>
    <name><![CDATA[草密不好走
        ]]>
    </name>
    <cmt>草密不好走
        </cmt>
    <desc><![CDATA[]]>
    </desc>
    <sym>Flag, Blue</sym>
    <type>user</type>
    <extensions>
      <PosType>0</PosType>
      <Speed>1.3403367</Speed>
      <Accuracy>1.9</Accuracy>
      <Time>1788403755176</Time>
      <description><![CDATA[]]>
      </description>
      <FileId>1669295278</FileId>
      <FileSize>1525250</FileSize>
      <FileType>0</FileType>
    </extensions>
  </wpt>
  <wpt lat="28.6732798" lon="119.6784766">
    <ele>373.4</ele>
    <time>2026-09-03T02:51:53Z</time>
    <name><![CDATA[燕子洞
        ]]>
    </name>
    <cmt>燕子洞
        </cmt>
    <desc><![CDATA[]]>
    </desc>
    <sym>Flag, Blue</sym>
    <type>user</type>
    <extensions>
      <PosType>0</PosType>
      <Speed>0.90745527</Speed>
      <Accuracy>2.1</Accuracy>
      <Time>1788403913082</Time>
      <description><![CDATA[]]>
      </description>
      <FileId>1669295216</FileId>
      <FileSize>1201503</FileSize>
      <FileType>0</FileType>
    </extensions>
  </wpt>
  <wpt lat="28.673486" lon="119.6786394">
    <ele>387.6</ele>
    <time>2026-09-03T03:17:01Z</time>
    <name><![CDATA[台阶下
        ]]>
    </name>
    <cmt>台阶下
        </cmt>
    <desc><![CDATA[]]>
    </desc>
    <sym>Flag, Blue</sym>
    <type>user</type>
    <extensions>
      <PosType>0</PosType>
      <Speed>0.94605947</Speed>
      <Accuracy>1.6</Accuracy>
      <Time>1788405421197</Time>
      <description><![CDATA[]]>
      </description>
      <FileId>1669295210</FileId>
      <FileSize>2166671</FileSize>
      <FileType>0</FileType>
    </extensions>
  </wpt>
  <wpt lat="28.673317" lon="119.6782814">
    <ele>380.5</ele>
    <time>2026-09-03T03:19:29Z</time>
    <name><![CDATA[原路下山
        ]]>
    </name>
    <cmt>原路下山
        </cmt>
    <desc><![CDATA[]]>
    </desc>
    <sym>Flag, Blue</sym>
    <type>user</type>
    <extensions>
      <PosType>0</PosType>
      <Speed>0.48280945</Speed>
      <Accuracy>1.9</Accuracy>
      <Time>1788405569165</Time>
      <description><![CDATA[]]>
      </description>
    </extensions>
  </wpt>
</gpx>