<?xml version='1.0' encoding='UTF-8' standalone='yes' ?>
<gpx version="1.1" creator="GPSBabel - http://www.gpsbabel.org" xmlns:xsi="http://www.w3.org/2001/XMLSchema-instance" xmlns="http://www.topografix.com/GPX/1/1" xsi:schemaLocation="http://www.topografix.com/GPX/1/1 http://www.topografix.com/GPX/1/1/gpx.xsd">
  <metadata>
    <link href="http://www.garmin.com">
      <text>Garmin International</text>
    </link>
    <time>2025-12-28T03:22:44Z</time>
    <bounds minlat="29.0285967" minlon="119.7819717" maxlat="29.042585" maxlon="119.7936496" />
  </metadata>
  <extensions>
    <name><![CDATA[金华慧明禅寺251228]]>
    </name>
    <description><![CDATA[慧明禅寺环线]]>
    </description>
    <TrackId>76847941</TrackId>
    <TrackTypeId>8</TrackTypeId>
    <TrackTags>徒步</TrackTags>
    <BeginTime>1766892164000</BeginTime>
    <EndTime>1766908463000</EndTime>
    <TimeUsed>16299000</TimeUsed>
    <PauseTime>3580601</PauseTime>
    <PosStartName>慧明禅寺</PosStartName>
    <PosEndName>慧明禅寺</PosEndName>
    <ProductVersion>and_8.1.0</ProductVersion>
    <StartDistrictId>9655</StartDistrictId>
    <EndDistrictId>9655</EndDistrictId>
    <CreaterId>64771087</CreaterId>
    <CreaterName><![CDATA[步履赴山野]]>
    </CreaterName>
    <CreaterIcon>1523534626</CreaterIcon>
    <OriginCreaterId>64771087</OriginCreaterId>
    <OriginCreaterNickname><![CDATA[步履赴山野]]>
    </OriginCreaterNickname>
    <OriginCreaterName><![CDATA[null]]>
    </OriginCreaterName>
    <OriginCreaterIcon>1523534626</OriginCreaterIcon>
    <ThumbnailId>1533904761</ThumbnailId>
    <Distance>4799.0</Distance>
    <ElevationGain>427.5500000000001</ElevationGain>
    <ElevationLoss>461.92000000000013</ElevationLoss>
    <SportAvgSpeed>0.3773273664397539</SportAvgSpeed>
  </extensions>
  <trk>
    <trkseg>
      <trkpt lat="29.0420262" lon="119.7826273">
        <ele>123.8</ele>
        <time>2025-12-28T03:22:45Z</time>
        <speed>0.47457388</speed>
      </trkpt>
      <trkpt lat="29.0420262" lon="119.7826273">
        <ele>123.8</ele>
        <time>2025-12-28T03:22:48Z</time>
        <speed>0.47457388</speed>
      </trkpt>
      <extensions>
        <PauseTimes>1766892168000:pause</PauseTimes>
      </extensions>
    </trkseg>
  </trk>
  <trk>
    <trkseg>
      <trkpt lat="29.041945" lon="119.78269">
        <ele>123.8</ele>
        <time>2025-12-28T03:32:02Z</time>
        <speed>0.6279611</speed>
      </trkpt>
      <trkpt lat="29.041945" lon="119.78269">
        <ele>123.8</ele>
        <time>2025-12-28T03:32:33Z</time>
        <speed>0.6279611</speed>
      </trkpt>
      <trkpt lat="29.0419333" lon="119.7828083">
        <ele>119.24</ele>
        <time>2025-12-28T03:33:01Z</time>
        <speed>0.47869167</speed>
      </trkpt>
      <trkpt lat="29.0418864" lon="119.7828999">
        <ele>117.03</ele>
        <time>2025-12-28T03:33:11Z</time>
        <speed>0.76950973</speed>
      </trkpt>
      <trkpt lat="29.0417985" lon="119.7829699">
        <ele>115.68</ele>
        <time>2025-12-28T03:33:55Z</time>
        <speed>0.87708664</speed>
      </trkpt>
      <trkpt lat="29.0416939" lon="119.782993">
        <ele>116.29</ele>
        <time>2025-12-28T03:34:07Z</time>
        <speed>0.9748839</speed>
      </trkpt>
      <trkpt lat="29.0416149" lon="119.7829289">
        <ele>118.88</ele>
        <time>2025-12-28T03:34:23Z</time>
        <speed>0.74377364</speed>
      </trkpt>
      <trkpt lat="29.0415852" lon="119.7828211">
        <ele>121.12</ele>
        <time>2025-12-28T03:34:31Z</time>
        <speed>1.0454009</speed>
      </trkpt>
      <trkpt lat="29.0415824" lon="119.782764">
        <ele>121.72</ele>
        <time>2025-12-28T03:34:33Z</time>
        <speed>0.0</speed>
      </trkpt>
      <trkpt lat="29.0415641" lon="119.7826751">
        <ele>122.18</ele>
        <time>2025-12-28T03:35:01Z</time>
        <speed>0.52244306</speed>
      </trkpt>
      <trkpt lat="29.0415485" lon="119.7825662">
        <ele>121.33</ele>
        <time>2025-12-28T03:35:29Z</time>
        <speed>1.013488</speed>
      </trkpt>
      <trkpt lat="29.041547" lon="119.7824569">
        <ele>119.42</ele>
        <time>2025-12-28T03:35:39Z</time>
        <speed>1.013488</speed>
      </trkpt>
      <trkpt lat="29.0415338" lon="119.7823497">
        <ele>118.98</ele>
        <time>2025-12-28T03:35:47Z</time>
        <speed>0.99341387</speed>
      </trkpt>
      <trkpt lat="29.041454" lon="119.7823132">
        <ele>117.57</ele>
        <time>2025-12-28T03:35:59Z</time>
        <speed>1.0510628</speed>
      </trkpt>
      <trkpt lat="29.0413461" lon="119.7823494">
        <ele>118.1</ele>
        <time>2025-12-28T03:36:09Z</time>
        <speed>1.0387094</speed>
      </trkpt>
      <trkpt lat="29.0412417" lon="119.7823697">
        <ele>120.29</ele>
        <time>2025-12-28T03:36:21Z</time>
        <speed>0.45707333</speed>
      </trkpt>
      <trkpt lat="29.0412417" lon="119.7823697">
        <ele>120.29</ele>
        <time>2025-12-28T03:36:22Z</time>
        <speed>0.45707333</speed>
      </trkpt>
      <extensions>
        <PauseTimes>1766892982000:pause</PauseTimes>
      </extensions>
    </trkseg>
  </trk>
  <trk>
    <trkseg>
      <trkpt lat="29.041185" lon="119.7822917">
        <ele>123.18</ele>
        <time>2025-12-28T03:36:31Z</time>
        <speed>0.54766446</speed>
      </trkpt>
      <trkpt lat="29.041185" lon="119.7822917">
        <ele>123.18</ele>
        <time>2025-12-28T03:39:01Z</time>
        <speed>0.54766446</speed>
      </trkpt>
      <trkpt lat="29.0411317" lon="119.7821867">
        <ele>122.5</ele>
        <time>2025-12-28T03:39:11Z</time>
        <speed>1.0767989</speed>
      </trkpt>
      <trkpt lat="29.0410741" lon="119.7820887">
        <ele>121.34</ele>
        <time>2025-12-28T03:39:31Z</time>
        <speed>0.5070014</speed>
      </trkpt>
      <trkpt lat="29.0410068" lon="119.782001">
        <ele>119.64</ele>
        <time>2025-12-28T03:39:53Z</time>
        <speed>0.60582805</speed>
      </trkpt>
      <trkpt lat="29.0409183" lon="119.7819717">
        <ele>120.1</ele>
        <time>2025-12-28T03:41:13Z</time>
        <speed>0.45707333</speed>
      </trkpt>
      <trkpt lat="29.0408133" lon="119.7819817">
        <ele>121.22</ele>
        <time>2025-12-28T03:41:31Z</time>
        <speed>0.9162056</speed>
      </trkpt>
      <trkpt lat="29.0407196" lon="119.7820199">
        <ele>122.33</ele>
        <time>2025-12-28T03:41:57Z</time>
        <speed>0.4869272</speed>
      </trkpt>
      <trkpt lat="29.0406369" lon="119.7820669">
        <ele>126.57</ele>
        <time>2025-12-28T03:42:11Z</time>
        <speed>0.6902425</speed>
      </trkpt>
      <trkpt lat="29.0405464" lon="119.782073">
        <ele>130.33</ele>
        <time>2025-12-28T03:42:43Z</time>
        <speed>0.5121486</speed>
      </trkpt>
      <trkpt lat="29.0404551" lon="119.782085">
        <ele>133.03</ele>
        <time>2025-12-28T03:43:05Z</time>
        <speed>0.0</speed>
      </trkpt>
      <trkpt lat="29.0403648" lon="119.7820855">
        <ele>135.38</ele>
        <time>2025-12-28T03:43:49Z</time>
        <speed>0.7164933</speed>
      </trkpt>
      <trkpt lat="29.0402647" lon="119.7821063">
        <ele>136.81</ele>
        <time>2025-12-28T03:44:21Z</time>
        <speed>1.1066527</speed>
      </trkpt>
      <trkpt lat="29.0401799" lon="119.7821678">
        <ele>135.99</ele>
        <time>2025-12-28T03:44:31Z</time>
        <speed>1.0618719</speed>
      </trkpt>
      <trkpt lat="29.0401325" lon="119.78226">
        <ele>136.64</ele>
        <time>2025-12-28T03:44:43Z</time>
        <speed>0.806055</speed>
      </trkpt>
      <trkpt lat="29.0400718" lon="119.782342">
        <ele>137.91</ele>
        <time>2025-12-28T03:44:53Z</time>
        <speed>0.9110583</speed>
      </trkpt>
      <trkpt lat="29.0399953" lon="119.7824109">
        <ele>139.5</ele>
        <time>2025-12-28T03:45:05Z</time>
        <speed>0.87091</speed>
      </trkpt>
      <trkpt lat="29.0399061" lon="119.7824591">
        <ele>141.65</ele>
        <time>2025-12-28T03:45:24Z</time>
        <speed>0.47663277</speed>
      </trkpt>
      <trkpt lat="29.0398267" lon="119.782516">
        <ele>144.64</ele>
        <time>2025-12-28T03:45:38Z</time>
        <speed>0.53634053</speed>
      </trkpt>
      <trkpt lat="29.0397531" lon="119.7825887">
        <ele>147.5</ele>
        <time>2025-12-28T03:45:54Z</time>
        <speed>0.63156414</speed>
      </trkpt>
      <trkpt lat="29.0396866" lon="119.7826647">
        <ele>149.87</ele>
        <time>2025-12-28T03:46:10Z</time>
        <speed>0.6222992</speed>
      </trkpt>
      <trkpt lat="29.0395987" lon="119.7827275">
        <ele>152.2</ele>
        <time>2025-12-28T03:46:28Z</time>
        <speed>0.57340056</speed>
      </trkpt>
      <trkpt lat="29.0395186" lon="119.7827948">
        <ele>154.4</ele>
        <time>2025-12-28T03:46:48Z</time>
        <speed>0.52913445</speed>
      </trkpt>
      <trkpt lat="29.039471" lon="119.7828893">
        <ele>156.08</ele>
        <time>2025-12-28T03:47:02Z</time>
        <speed>0.8868664</speed>
      </trkpt>
      <trkpt lat="29.0393928" lon="119.7829472">
        <ele>156.86</ele>
        <time>2025-12-28T03:47:36Z</time>
        <speed>0.56928277</speed>
      </trkpt>
      <trkpt lat="29.0393079" lon="119.7830105">
        <ele>158.6</ele>
        <time>2025-12-28T03:47:50Z</time>
        <speed>0.6742861</speed>
      </trkpt>
      <trkpt lat="29.0392176" lon="119.7830104">
        <ele>160.32</ele>
        <time>2025-12-28T03:48:04Z</time>
        <speed>0.70053697</speed>
      </trkpt>
      <trkpt lat="29.0391298" lon="119.7829763">
        <ele>163.62</ele>
        <time>2025-12-28T03:48:18Z</time>
        <speed>0.8492917</speed>
      </trkpt>
      <trkpt lat="29.0390335" lon="119.7829434">
        <ele>167.05</ele>
        <time>2025-12-28T03:48:34Z</time>
        <speed>0.82304084</speed>
      </trkpt>
      <trkpt lat="29.0389495" lon="119.7829875">
        <ele>169.14</ele>
        <time>2025-12-28T03:49:02Z</time>
        <speed>0.83230585</speed>
      </trkpt>
      <trkpt lat="29.0388492" lon="119.7830453">
        <ele>171.27</ele>
        <time>2025-12-28T03:49:12Z</time>
        <speed>1.1622428</speed>
      </trkpt>
      <trkpt lat="29.0387452" lon="119.7830936">
        <ele>173.69</ele>
        <time>2025-12-28T03:49:22Z</time>
        <speed>1.3377631</speed>
      </trkpt>
      <trkpt lat="29.0386517" lon="119.7831536">
        <ele>174.6</ele>
        <time>2025-12-28T03:49:36Z</time>
        <speed>0.99907583</speed>
      </trkpt>
      <trkpt lat="29.0385789" lon="119.7832434">
        <ele>172.88</ele>
        <time>2025-12-28T03:49:58Z</time>
        <speed>0.0</speed>
      </trkpt>
      <trkpt lat="29.038521" lon="119.7833531">
        <ele>169.4</ele>
        <time>2025-12-28T03:50:12Z</time>
        <speed>0.5167811</speed>
      </trkpt>
      <trkpt lat="29.0384572" lon="119.783439">
        <ele>167.29</ele>
        <time>2025-12-28T03:50:36Z</time>
        <speed>0.7926722</speed>
      </trkpt>
      <trkpt lat="29.0383884" lon="119.783524">
        <ele>165.83</ele>
        <time>2025-12-28T03:50:46Z</time>
        <speed>0.9228969</speed>
      </trkpt>
      <trkpt lat="29.0383062" lon="119.7835975">
        <ele>165.0</ele>
        <time>2025-12-28T03:51:00Z</time>
        <speed>0.824585</speed>
      </trkpt>
      <trkpt lat="29.0382103" lon="119.783613">
        <ele>164.7</ele>
        <time>2025-12-28T03:51:12Z</time>
        <speed>0.9481183</speed>
      </trkpt>
      <trkpt lat="29.0381251" lon="119.7835493">
        <ele>164.31</ele>
        <time>2025-12-28T03:51:24Z</time>
        <speed>0.83796775</speed>
      </trkpt>
      <trkpt lat="29.0380338" lon="119.7835051">
        <ele>164.18</ele>
        <time>2025-12-28T03:51:34Z</time>
        <speed>0.99495804</speed>
      </trkpt>
      <trkpt lat="29.0379402" lon="119.783522">
        <ele>164.62</ele>
        <time>2025-12-28T03:51:48Z</time>
        <speed>0.6866394</speed>
      </trkpt>
      <trkpt lat="29.0378562" lon="119.7835971">
        <ele>166.72</ele>
        <time>2025-12-28T03:51:58Z</time>
        <speed>0.98826665</speed>
      </trkpt>
      <trkpt lat="29.0377684" lon="119.7836601">
        <ele>168.82</ele>
        <time>2025-12-28T03:52:10Z</time>
        <speed>0.80554026</speed>
      </trkpt>
      <trkpt lat="29.0376814" lon="119.7837218">
        <ele>170.4</ele>
        <time>2025-12-28T03:52:20Z</time>
        <speed>0.9002492</speed>
      </trkpt>
      <trkpt lat="29.037591" lon="119.7837564">
        <ele>171.99</ele>
        <time>2025-12-28T03:52:36Z</time>
        <speed>0.45964694</speed>
      </trkpt>
      <trkpt lat="29.0375018" lon="119.7838028">
        <ele>172.94</ele>
        <time>2025-12-28T03:53:22Z</time>
        <speed>0.6974486</speed>
      </trkpt>
      <trkpt lat="29.037422" lon="119.7838772">
        <ele>174.09</ele>
        <time>2025-12-28T03:53:30Z</time>
        <speed>0.97591335</speed>
      </trkpt>
      <trkpt lat="29.0373281" lon="119.783914">
        <ele>175.0</ele>
        <time>2025-12-28T03:53:40Z</time>
        <speed>0.972825</speed>
      </trkpt>
      <trkpt lat="29.0372548" lon="119.7839757">
        <ele>175.38</ele>
        <time>2025-12-28T03:53:48Z</time>
        <speed>1.0165764</speed>
      </trkpt>
      <trkpt lat="29.0371846" lon="119.7840464">
        <ele>174.83</ele>
        <time>2025-12-28T03:53:58Z</time>
        <speed>0.85083586</speed>
      </trkpt>
      <trkpt lat="29.0371158" lon="119.7841385">
        <ele>174.22</ele>
        <time>2025-12-28T03:54:12Z</time>
        <speed>0.8590714</speed>
      </trkpt>
      <trkpt lat="29.0371122" lon="119.7842425">
        <ele>172.57</ele>
        <time>2025-12-28T03:54:40Z</time>
        <speed>0.17552027</speed>
      </trkpt>
      <trkpt lat="29.0370579" lon="119.7843217">
        <ele>169.75</ele>
        <time>2025-12-28T03:54:52Z</time>
        <speed>0.74377364</speed>
      </trkpt>
      <trkpt lat="29.0369977" lon="119.7844028">
        <ele>169.43</ele>
        <time>2025-12-28T03:55:18Z</time>
        <speed>0.75149447</speed>
      </trkpt>
      <trkpt lat="29.0369261" lon="119.7844877">
        <ele>171.44</ele>
        <time>2025-12-28T03:55:28Z</time>
        <speed>0.96664834</speed>
      </trkpt>
      <trkpt lat="29.0368348" lon="119.784519">
        <ele>173.06</ele>
        <time>2025-12-28T03:55:42Z</time>
        <speed>0.6104606</speed>
      </trkpt>
      <trkpt lat="29.0367417" lon="119.7845433">
        <ele>175.66</ele>
        <time>2025-12-28T03:56:48Z</time>
        <speed>0.6531825</speed>
      </trkpt>
      <trkpt lat="29.0366483" lon="119.78457">
        <ele>176.79</ele>
        <time>2025-12-28T03:57:00Z</time>
        <speed>0.8220114</speed>
      </trkpt>
      <trkpt lat="29.0365536" lon="119.7845995">
        <ele>177.7</ele>
        <time>2025-12-28T03:57:10Z</time>
        <speed>0.87091</speed>
      </trkpt>
      <trkpt lat="29.0364547" lon="119.784623">
        <ele>178.78</ele>
        <time>2025-12-28T03:57:22Z</time>
        <speed>0.84208554</speed>
      </trkpt>
      <trkpt lat="29.0363621" lon="119.7846573">
        <ele>180.33</ele>
        <time>2025-12-28T03:57:32Z</time>
        <speed>1.0356212</speed>
      </trkpt>
      <trkpt lat="29.0362656" lon="119.7846993">
        <ele>181.61</ele>
        <time>2025-12-28T03:57:44Z</time>
        <speed>0.79987836</speed>
      </trkpt>
      <trkpt lat="29.0361851" lon="119.7847562">
        <ele>182.25</ele>
        <time>2025-12-28T03:57:58Z</time>
        <speed>0.4215575</speed>
      </trkpt>
      <trkpt lat="29.0361167" lon="119.784828">
        <ele>183.05</ele>
        <time>2025-12-28T03:58:08Z</time>
        <speed>0.7206111</speed>
      </trkpt>
      <trkpt lat="29.0360469" lon="119.7849078">
        <ele>183.8</ele>
        <time>2025-12-28T03:58:16Z</time>
        <speed>1.3037914</speed>
      </trkpt>
      <trkpt lat="29.0359781" lon="119.7849877">
        <ele>184.32</ele>
        <time>2025-12-28T03:58:26Z</time>
        <speed>0.92547053</speed>
      </trkpt>
      <trkpt lat="29.0359216" lon="119.7850867">
        <ele>184.65</ele>
        <time>2025-12-28T03:58:38Z</time>
        <speed>0.9419417</speed>
      </trkpt>
      <trkpt lat="29.0358717" lon="119.7851931">
        <ele>184.97</ele>
        <time>2025-12-28T03:58:48Z</time>
        <speed>1.2461425</speed>
      </trkpt>
      <trkpt lat="29.035796" lon="119.7852696">
        <ele>185.42</ele>
        <time>2025-12-28T03:58:58Z</time>
        <speed>1.2327597</speed>
      </trkpt>
      <trkpt lat="29.0357312" lon="119.7853528">
        <ele>185.75</ele>
        <time>2025-12-28T03:59:08Z</time>
        <speed>1.0829755</speed>
      </trkpt>
      <trkpt lat="29.0356577" lon="119.7854144">
        <ele>186.63</ele>
        <time>2025-12-28T03:59:20Z</time>
        <speed>0.8317911</speed>
      </trkpt>
      <trkpt lat="29.0355783" lon="119.7854658">
        <ele>188.25</ele>
        <time>2025-12-28T03:59:34Z</time>
        <speed>0.7808336</speed>
      </trkpt>
      <trkpt lat="29.0354948" lon="119.7855098">
        <ele>189.61</ele>
        <time>2025-12-28T03:59:48Z</time>
        <speed>0.7216405</speed>
      </trkpt>
      <trkpt lat="29.035394" lon="119.785541">
        <ele>191.2</ele>
        <time>2025-12-28T03:59:58Z</time>
        <speed>1.05621</speed>
      </trkpt>
      <trkpt lat="29.0353088" lon="119.7855874">
        <ele>192.53</ele>
        <time>2025-12-28T04:00:08Z</time>
        <speed>0.824585</speed>
      </trkpt>
      <trkpt lat="29.0352317" lon="119.7856456">
        <ele>192.78</ele>
        <time>2025-12-28T04:00:20Z</time>
        <speed>0.6742861</speed>
      </trkpt>
      <trkpt lat="29.0351485" lon="119.7856967">
        <ele>193.52</ele>
        <time>2025-12-28T04:00:30Z</time>
        <speed>0.7550975</speed>
      </trkpt>
      <trkpt lat="29.0350627" lon="119.7857469">
        <ele>194.8</ele>
        <time>2025-12-28T04:00:40Z</time>
        <speed>1.0129733</speed>
      </trkpt>
      <trkpt lat="29.0349671" lon="119.7857694">
        <ele>195.45</ele>
        <time>2025-12-28T04:00:58Z</time>
        <speed>0.5214136</speed>
      </trkpt>
      <trkpt lat="29.0348769" lon="119.785808">
        <ele>195.55</ele>
        <time>2025-12-28T04:01:10Z</time>
        <speed>0.7412</speed>
      </trkpt>
      <trkpt lat="29.0347855" lon="119.785859">
        <ele>196.99</ele>
        <time>2025-12-28T04:01:22Z</time>
        <speed>0.9126025</speed>
      </trkpt>
      <trkpt lat="29.03471" lon="119.7859296">
        <ele>197.64</ele>
        <time>2025-12-28T04:01:32Z</time>
        <speed>0.9501772</speed>
      </trkpt>
      <trkpt lat="29.0346579" lon="119.7860178">
        <ele>196.94</ele>
        <time>2025-12-28T04:01:44Z</time>
        <speed>0.7216405</speed>
      </trkpt>
      <trkpt lat="29.0345798" lon="119.7860435">
        <ele>196.4</ele>
        <time>2025-12-28T04:01:56Z</time>
        <speed>0.6974486</speed>
      </trkpt>
      <trkpt lat="29.0344929" lon="119.786022">
        <ele>197.05</ele>
        <time>2025-12-28T04:02:08Z</time>
        <speed>0.7566417</speed>
      </trkpt>
      <trkpt lat="29.0344083" lon="119.7860421">
        <ele>198.45</ele>
        <time>2025-12-28T04:02:18Z</time>
        <speed>0.8240703</speed>
      </trkpt>
      <trkpt lat="29.0343191" lon="119.7860864">
        <ele>200.53</ele>
        <time>2025-12-28T04:02:32Z</time>
        <speed>0.77465695</speed>
      </trkpt>
      <trkpt lat="29.0342284" lon="119.7861217">
        <ele>203.44</ele>
        <time>2025-12-28T04:03:22Z</time>
        <speed>0.5631061</speed>
      </trkpt>
      <trkpt lat="29.0341376" lon="119.7861261">
        <ele>204.8</ele>
        <time>2025-12-28T04:04:14Z</time>
        <speed>0.32273084</speed>
      </trkpt>
      <trkpt lat="29.0340496" lon="119.7861714">
        <ele>204.33</ele>
        <time>2025-12-28T04:04:30Z</time>
        <speed>0.5553853</speed>
      </trkpt>
      <trkpt lat="29.0339728" lon="119.7862321">
        <ele>204.44</ele>
        <time>2025-12-28T04:04:50Z</time>
        <speed>0.43288139</speed>
      </trkpt>
      <trkpt lat="29.0338862" lon="119.7862893">
        <ele>205.16</ele>
        <time>2025-12-28T04:05:42Z</time>
        <speed>0.75149447</speed>
      </trkpt>
      <trkpt lat="29.0337978" lon="119.7862862">
        <ele>205.91</ele>
        <time>2025-12-28T04:06:02Z</time>
        <speed>0.5677386</speed>
      </trkpt>
      <trkpt lat="29.0337705" lon="119.7863655">
        <ele>207.75</ele>
        <time>2025-12-28T04:06:20Z</time>
        <speed>0.96407473</speed>
      </trkpt>
      <trkpt lat="29.0337593" lon="119.7864717">
        <ele>208.16</ele>
        <time>2025-12-28T04:07:06Z</time>
        <speed>0.45913222</speed>
      </trkpt>
      <trkpt lat="29.0337117" lon="119.7865683">
        <ele>208.65</ele>
        <time>2025-12-28T04:08:14Z</time>
        <speed>0.4956775</speed>
      </trkpt>
      <trkpt lat="29.0336483" lon="119.7866467">
        <ele>211.9</ele>
        <time>2025-12-28T04:13:46Z</time>
        <speed>0.47869167</speed>
      </trkpt>
      <trkpt lat="29.033585" lon="119.78673">
        <ele>213.49</ele>
        <time>2025-12-28T04:14:14Z</time>
        <speed>0.6346525</speed>
      </trkpt>
      <trkpt lat="29.0335217" lon="119.7868133">
        <ele>213.71</ele>
        <time>2025-12-28T04:14:52Z</time>
        <speed>0.4287636</speed>
      </trkpt>
      <trkpt lat="29.0334352" lon="119.7868606">
        <ele>215.56</ele>
        <time>2025-12-28T04:15:12Z</time>
        <speed>0.4956775</speed>
      </trkpt>
      <trkpt lat="29.0333653" lon="119.7869268">
        <ele>218.24</ele>
        <time>2025-12-28T04:15:38Z</time>
        <speed>0.37574723</speed>
      </trkpt>
      <trkpt lat="29.0333783" lon="119.78704">
        <ele>220.93</ele>
        <time>2025-12-28T04:16:50Z</time>
        <speed>0.40868944</speed>
      </trkpt>
      <trkpt lat="29.033335" lon="119.7871383">
        <ele>221.22</ele>
        <time>2025-12-28T04:17:10Z</time>
        <speed>0.9753986</speed>
      </trkpt>
      <trkpt lat="29.03331" lon="119.7872395">
        <ele>222.72</ele>
        <time>2025-12-28T04:17:24Z</time>
        <speed>0.6717125</speed>
      </trkpt>
      <trkpt lat="29.0332651" lon="119.7873334">
        <ele>225.03</ele>
        <time>2025-12-28T04:17:40Z</time>
        <speed>0.7391411</speed>
      </trkpt>
      <trkpt lat="29.033204" lon="119.7874226">
        <ele>228.33</ele>
        <time>2025-12-28T04:18:08Z</time>
        <speed>0.3381725</speed>
      </trkpt>
      <trkpt lat="29.0331537" lon="119.7875115">
        <ele>231.2</ele>
        <time>2025-12-28T04:18:22Z</time>
        <speed>0.7700244</speed>
      </trkpt>
      <trkpt lat="29.0331023" lon="119.7876032">
        <ele>233.57</ele>
        <time>2025-12-28T04:18:38Z</time>
        <speed>0.64855</speed>
      </trkpt>
      <trkpt lat="29.0330467" lon="119.7876912">
        <ele>235.77</ele>
        <time>2025-12-28T04:18:52Z</time>
        <speed>0.81892306</speed>
      </trkpt>
      <trkpt lat="29.03298" lon="119.7877633">
        <ele>237.89</ele>
        <time>2025-12-28T04:20:56Z</time>
        <speed>0.28155306</speed>
      </trkpt>
      <trkpt lat="29.0329283" lon="119.7878517">
        <ele>240.18</ele>
        <time>2025-12-28T04:21:14Z</time>
        <speed>0.5162664</speed>
      </trkpt>
      <trkpt lat="29.0328527" lon="119.7879188">
        <ele>242.12</ele>
        <time>2025-12-28T04:21:38Z</time>
        <speed>0.51884</speed>
      </trkpt>
      <trkpt lat="29.0328243" lon="119.7880325">
        <ele>244.44</ele>
        <time>2025-12-28T04:21:54Z</time>
        <speed>1.0845197</speed>
      </trkpt>
      <trkpt lat="29.0327779" lon="119.7881279">
        <ele>246.61</ele>
        <time>2025-12-28T04:22:12Z</time>
        <speed>0.76127416</speed>
      </trkpt>
      <trkpt lat="29.0327865" lon="119.7882331">
        <ele>248.29</ele>
        <time>2025-12-28T04:22:28Z</time>
        <speed>0.5770036</speed>
      </trkpt>
      <trkpt lat="29.0327476" lon="119.7883194">
        <ele>251.0</ele>
        <time>2025-12-28T04:22:58Z</time>
        <speed>0.45244083</speed>
      </trkpt>
      <trkpt lat="29.0327058" lon="119.7884094">
        <ele>253.97</ele>
        <time>2025-12-28T04:23:26Z</time>
        <speed>0.5275903</speed>
      </trkpt>
      <trkpt lat="29.0326726" lon="119.7885103">
        <ele>257.17</ele>
        <time>2025-12-28T04:23:46Z</time>
        <speed>0.6130342</speed>
      </trkpt>
      <trkpt lat="29.0326183" lon="119.7885928">
        <ele>259.72</ele>
        <time>2025-12-28T04:24:02Z</time>
        <speed>0.47045612</speed>
      </trkpt>
      <trkpt lat="29.0325449" lon="119.7886643">
        <ele>262.72</ele>
        <time>2025-12-28T04:24:46Z</time>
        <speed>0.0</speed>
      </trkpt>
      <trkpt lat="29.0324818" lon="119.7887426">
        <ele>266.24</ele>
        <time>2025-12-28T04:25:00Z</time>
        <speed>0.7056842</speed>
      </trkpt>
      <trkpt lat="29.0324029" lon="119.7887931">
        <ele>268.33</ele>
        <time>2025-12-28T04:25:38Z</time>
        <speed>0.2892739</speed>
      </trkpt>
      <trkpt lat="29.0324029" lon="119.7887931">
        <ele>268.33</ele>
        <time>2025-12-28T04:25:57Z</time>
        <speed>0.2892739</speed>
      </trkpt>
      <extensions>
        <PauseTimes>1766895957000:pause</PauseTimes>
      </extensions>
    </trkseg>
  </trk>
  <trk>
    <trkseg>
      <trkpt lat="29.03166" lon="119.789345">
        <ele>270.77</ele>
        <time>2025-12-28T05:02:04Z</time>
        <speed>0.12301861</speed>
      </trkpt>
      <trkpt lat="29.03166" lon="119.789345">
        <ele>270.77</ele>
        <time>2025-12-28T05:02:05Z</time>
        <speed>0.12301861</speed>
      </trkpt>
      <trkpt lat="29.03147" lon="119.7895483">
        <ele>275.6</ele>
        <time>2025-12-28T05:02:13Z</time>
        <speed>0.40920416</speed>
      </trkpt>
      <trkpt lat="29.0313618" lon="119.7895726">
        <ele>282.83</ele>
        <time>2025-12-28T05:02:29Z</time>
        <speed>0.33971667</speed>
      </trkpt>
      <trkpt lat="29.0312719" lon="119.7896024">
        <ele>288.24</ele>
        <time>2025-12-28T05:02:47Z</time>
        <speed>0.4889861</speed>
      </trkpt>
      <trkpt lat="29.0311807" lon="119.7896255">
        <ele>297.73</ele>
        <time>2025-12-28T05:03:34Z</time>
        <speed>0.29493582</speed>
      </trkpt>
      <trkpt lat="29.0311661" lon="119.7897048">
        <ele>306.02</ele>
        <time>2025-12-28T05:03:52Z</time>
        <speed>0.4838389</speed>
      </trkpt>
      <trkpt lat="29.0311069" lon="119.7897093">
        <ele>311.3</ele>
        <time>2025-12-28T05:04:14Z</time>
        <speed>0.40663055</speed>
      </trkpt>
      <trkpt lat="29.0310038" lon="119.7896773">
        <ele>314.44</ele>
        <time>2025-12-28T05:04:42Z</time>
        <speed>0.30008304</speed>
      </trkpt>
      <trkpt lat="29.0309044" lon="119.7896565">
        <ele>317.82</ele>
        <time>2025-12-28T05:05:02Z</time>
        <speed>0.0</speed>
      </trkpt>
      <trkpt lat="29.0308112" lon="119.7896747">
        <ele>320.48</ele>
        <time>2025-12-28T05:05:42Z</time>
        <speed>0.5337669</speed>
      </trkpt>
      <trkpt lat="29.0307525" lon="119.7897487">
        <ele>322.38</ele>
        <time>2025-12-28T05:06:32Z</time>
        <speed>0.60428387</speed>
      </trkpt>
      <trkpt lat="29.0306716" lon="119.7897639">
        <ele>326.3</ele>
        <time>2025-12-28T05:06:54Z</time>
        <speed>0.42619</speed>
      </trkpt>
      <trkpt lat="29.0305833" lon="119.7897664">
        <ele>330.6</ele>
        <time>2025-12-28T05:07:14Z</time>
        <speed>0.25118443</speed>
      </trkpt>
      <trkpt lat="29.0304876" lon="119.7897717">
        <ele>334.6</ele>
        <time>2025-12-28T05:07:34Z</time>
        <speed>0.5136928</speed>
      </trkpt>
      <trkpt lat="29.0304322" lon="119.7898457">
        <ele>337.31</ele>
        <time>2025-12-28T05:07:58Z</time>
        <speed>0.4308225</speed>
      </trkpt>
      <trkpt lat="29.0303785" lon="119.7899316">
        <ele>339.93</ele>
        <time>2025-12-28T05:08:30Z</time>
        <speed>0.38913</speed>
      </trkpt>
      <trkpt lat="29.0303462" lon="119.7900372">
        <ele>343.62</ele>
        <time>2025-12-28T05:08:56Z</time>
        <speed>0.46222055</speed>
      </trkpt>
      <trkpt lat="29.0303218" lon="119.7901424">
        <ele>346.53</ele>
        <time>2025-12-28T05:09:38Z</time>
        <speed>0.27074388</speed>
      </trkpt>
      <trkpt lat="29.0302623" lon="119.7902151">
        <ele>350.09</ele>
        <time>2025-12-28T05:10:02Z</time>
        <speed>0.31758362</speed>
      </trkpt>
      <trkpt lat="29.0301948" lon="119.7902846">
        <ele>354.48</ele>
        <time>2025-12-28T05:10:26Z</time>
        <speed>0.42824888</speed>
      </trkpt>
      <trkpt lat="29.0301119" lon="119.7903516">
        <ele>357.63</ele>
        <time>2025-12-28T05:10:42Z</time>
        <speed>0.8168642</speed>
      </trkpt>
      <trkpt lat="29.0300244" lon="119.7904022">
        <ele>360.76</ele>
        <time>2025-12-28T05:10:58Z</time>
        <speed>0.5883275</speed>
      </trkpt>
      <trkpt lat="29.0299354" lon="119.790441">
        <ele>363.4</ele>
        <time>2025-12-28T05:11:16Z</time>
        <speed>0.50391304</speed>
      </trkpt>
      <trkpt lat="29.0299354" lon="119.790441">
        <ele>363.4</ele>
        <time>2025-12-28T05:11:48Z</time>
        <speed>0.50391304</speed>
      </trkpt>
      <extensions>
        <PauseTimes>1766898708000:pause</PauseTimes>
      </extensions>
    </trkseg>
  </trk>
  <trk>
    <trkseg>
      <trkpt lat="29.0298383" lon="119.7904533">
        <ele>366.84</ele>
        <time>2025-12-28T05:14:03Z</time>
        <speed>0.3963361</speed>
      </trkpt>
      <trkpt lat="29.0298383" lon="119.7904533">
        <ele>366.84</ele>
        <time>2025-12-28T05:14:18Z</time>
        <speed>0.3963361</speed>
      </trkpt>
      <trkpt lat="29.0298883" lon="119.79054">
        <ele>373.66</ele>
        <time>2025-12-28T05:15:36Z</time>
        <speed>0.55898833</speed>
      </trkpt>
      <trkpt lat="29.0299467" lon="119.7906383">
        <ele>380.73</ele>
        <time>2025-12-28T05:16:42Z</time>
        <speed>0.6536972</speed>
      </trkpt>
      <trkpt lat="29.0298633" lon="119.7906883">
        <ele>385.24</ele>
        <time>2025-12-28T05:16:54Z</time>
        <speed>0.6521531</speed>
      </trkpt>
      <trkpt lat="29.0298067" lon="119.7907717">
        <ele>389.09</ele>
        <time>2025-12-28T05:19:24Z</time>
        <speed>0.48178</speed>
      </trkpt>
      <trkpt lat="29.029745" lon="119.7908583">
        <ele>395.33</ele>
        <time>2025-12-28T05:19:38Z</time>
        <speed>0.7448031</speed>
      </trkpt>
      <trkpt lat="29.0296974" lon="119.7909521">
        <ele>400.65</ele>
        <time>2025-12-28T05:20:00Z</time>
        <speed>0.37677667</speed>
      </trkpt>
      <trkpt lat="29.0296202" lon="119.79102">
        <ele>404.97</ele>
        <time>2025-12-28T05:21:00Z</time>
        <speed>0.36030555</speed>
      </trkpt>
      <trkpt lat="29.0296083" lon="119.7911383">
        <ele>409.12</ele>
        <time>2025-12-28T05:22:00Z</time>
        <speed>0.26353776</speed>
      </trkpt>
      <trkpt lat="29.0295883" lon="119.7912517">
        <ele>414.53</ele>
        <time>2025-12-28T05:22:30Z</time>
        <speed>0.64752054</speed>
      </trkpt>
      <trkpt lat="29.0295401" lon="119.791341">
        <ele>418.6</ele>
        <time>2025-12-28T05:22:56Z</time>
        <speed>0.27795</speed>
      </trkpt>
      <trkpt lat="29.0295332" lon="119.7914416">
        <ele>423.51</ele>
        <time>2025-12-28T05:23:30Z</time>
        <speed>0.27280277</speed>
      </trkpt>
      <trkpt lat="29.0295216" lon="119.7915455">
        <ele>426.77</ele>
        <time>2025-12-28T05:23:52Z</time>
        <speed>0.5672239</speed>
      </trkpt>
      <trkpt lat="29.029461" lon="119.7916281">
        <ele>429.45</ele>
        <time>2025-12-28T05:24:32Z</time>
        <speed>0.0</speed>
      </trkpt>
      <trkpt lat="29.0294822" lon="119.7917078">
        <ele>432.18</ele>
        <time>2025-12-28T05:25:06Z</time>
        <speed>0.62435806</speed>
      </trkpt>
      <trkpt lat="29.0294443" lon="119.7917874">
        <ele>434.0</ele>
        <time>2025-12-28T05:25:28Z</time>
        <speed>0.45244083</speed>
      </trkpt>
      <trkpt lat="29.0294015" lon="119.7918777">
        <ele>436.19</ele>
        <time>2025-12-28T05:26:20Z</time>
        <speed>0.0</speed>
      </trkpt>
      <trkpt lat="29.0294462" lon="119.7919435">
        <ele>440.67</ele>
        <time>2025-12-28T05:27:02Z</time>
        <speed>0.4421464</speed>
      </trkpt>
      <trkpt lat="29.0295301" lon="119.7919913">
        <ele>445.11</ele>
        <time>2025-12-28T05:27:32Z</time>
        <speed>0.6902425</speed>
      </trkpt>
      <trkpt lat="29.029623" lon="119.7919622">
        <ele>448.76</ele>
        <time>2025-12-28T05:28:00Z</time>
        <speed>0.33508417</speed>
      </trkpt>
      <trkpt lat="29.029623" lon="119.7919622">
        <ele>448.76</ele>
        <time>2025-12-28T05:29:46Z</time>
        <speed>0.33508417</speed>
      </trkpt>
      <extensions>
        <PauseTimes>1766899786000:pause</PauseTimes>
      </extensions>
    </trkseg>
  </trk>
  <trk>
    <trkseg>
      <trkpt lat="29.0294567" lon="119.792035">
        <ele>451.15</ele>
        <time>2025-12-28T05:38:53Z</time>
        <speed>0.40199804</speed>
      </trkpt>
      <trkpt lat="29.0294567" lon="119.792035">
        <ele>451.15</ele>
        <time>2025-12-28T05:38:55Z</time>
        <speed>0.40199804</speed>
      </trkpt>
      <trkpt lat="29.029565" lon="119.7920583">
        <ele>449.41</ele>
        <time>2025-12-28T05:40:06Z</time>
        <speed>0.2918475</speed>
      </trkpt>
      <trkpt lat="29.0294917" lon="119.7921183">
        <ele>458.09</ele>
        <time>2025-12-28T05:41:00Z</time>
        <speed>0.33302528</speed>
      </trkpt>
      <trkpt lat="29.0294183" lon="119.7921783">
        <ele>464.25</ele>
        <time>2025-12-28T05:41:36Z</time>
        <speed>0.0</speed>
      </trkpt>
      <trkpt lat="29.0293399" lon="119.7922358">
        <ele>468.66</ele>
        <time>2025-12-28T05:42:00Z</time>
        <speed>0.41949862</speed>
      </trkpt>
      <trkpt lat="29.0292435" lon="119.7922347">
        <ele>471.69</ele>
        <time>2025-12-28T05:42:22Z</time>
        <speed>0.47457388</speed>
      </trkpt>
      <trkpt lat="29.029147" lon="119.7922177">
        <ele>474.06</ele>
        <time>2025-12-28T05:42:44Z</time>
        <speed>0.37111473</speed>
      </trkpt>
      <trkpt lat="29.0290429" lon="119.7922666">
        <ele>475.5</ele>
        <time>2025-12-28T05:43:32Z</time>
        <speed>0.31346583</speed>
      </trkpt>
      <trkpt lat="29.0289177" lon="119.7923411">
        <ele>477.52</ele>
        <time>2025-12-28T05:44:22Z</time>
        <speed>0.0</speed>
      </trkpt>
      <trkpt lat="29.0288144" lon="119.7923814">
        <ele>479.27</ele>
        <time>2025-12-28T05:45:00Z</time>
        <speed>0.51060444</speed>
      </trkpt>
      <trkpt lat="29.0288283" lon="119.792485">
        <ele>482.12</ele>
        <time>2025-12-28T05:46:24Z</time>
        <speed>0.5301639</speed>
      </trkpt>
      <trkpt lat="29.0286933" lon="119.7925517">
        <ele>486.29</ele>
        <time>2025-12-28T05:47:54Z</time>
        <speed>0.0</speed>
      </trkpt>
      <trkpt lat="29.0285967" lon="119.79259">
        <ele>492.83</ele>
        <time>2025-12-28T05:48:30Z</time>
        <speed>0.28000888</speed>
      </trkpt>
      <trkpt lat="29.0286233" lon="119.7926983">
        <ele>497.76</ele>
        <time>2025-12-28T05:49:32Z</time>
        <speed>0.5070014</speed>
      </trkpt>
      <trkpt lat="29.0286983" lon="119.7927683">
        <ele>503.29</ele>
        <time>2025-12-28T05:50:18Z</time>
        <speed>0.0</speed>
      </trkpt>
      <trkpt lat="29.028786" lon="119.7928045">
        <ele>509.19</ele>
        <time>2025-12-28T05:51:06Z</time>
        <speed>0.0</speed>
      </trkpt>
      <trkpt lat="29.0288833" lon="119.7929">
        <ele>513.41</ele>
        <time>2025-12-28T05:52:34Z</time>
        <speed>0.09625305</speed>
      </trkpt>
      <trkpt lat="29.0289767" lon="119.79295">
        <ele>517.53</ele>
        <time>2025-12-28T05:53:26Z</time>
        <speed>0.0</speed>
      </trkpt>
      <trkpt lat="29.0290317" lon="119.7930483">
        <ele>521.13</ele>
        <time>2025-12-28T05:54:48Z</time>
        <speed>0.0</speed>
      </trkpt>
      <trkpt lat="29.0290783" lon="119.7931517">
        <ele>526.19</ele>
        <time>2025-12-28T05:55:14Z</time>
        <speed>0.6722272</speed>
      </trkpt>
      <trkpt lat="29.029155" lon="119.7932283">
        <ele>530.8</ele>
        <time>2025-12-28T05:57:04Z</time>
        <speed>0.78443664</speed>
      </trkpt>
      <trkpt lat="29.0292333" lon="119.7933333">
        <ele>533.47</ele>
        <time>2025-12-28T05:57:50Z</time>
        <speed>0.29596528</speed>
      </trkpt>
      <trkpt lat="29.0292962" lon="119.79342">
        <ele>535.98</ele>
        <time>2025-12-28T05:58:22Z</time>
        <speed>0.435455</speed>
      </trkpt>
      <trkpt lat="29.029375" lon="119.7934667">
        <ele>539.43</ele>
        <time>2025-12-28T06:00:22Z</time>
        <speed>0.0</speed>
      </trkpt>
      <trkpt lat="29.0294683" lon="119.79353">
        <ele>544.62</ele>
        <time>2025-12-28T06:01:31Z</time>
        <speed>0.2944211</speed>
      </trkpt>
      <trkpt lat="29.0295617" lon="119.7935567">
        <ele>550.16</ele>
        <time>2025-12-28T06:02:17Z</time>
        <speed>0.51884</speed>
      </trkpt>
      <trkpt lat="29.0296479" lon="119.7935312">
        <ele>554.39</ele>
        <time>2025-12-28T06:02:37Z</time>
        <speed>0.59604836</speed>
      </trkpt>
      <trkpt lat="29.0297484" lon="119.7935247">
        <ele>556.25</ele>
        <time>2025-12-28T06:02:59Z</time>
        <speed>0.40405694</speed>
      </trkpt>
      <trkpt lat="29.029842" lon="119.7934989">
        <ele>555.88</ele>
        <time>2025-12-28T06:03:17Z</time>
        <speed>0.4056011</speed>
      </trkpt>
      <trkpt lat="29.0299278" lon="119.7934512">
        <ele>555.67</ele>
        <time>2025-12-28T06:03:43Z</time>
        <speed>0.40663055</speed>
      </trkpt>
      <trkpt lat="29.0299582" lon="119.793523">
        <ele>554.61</ele>
        <time>2025-12-28T06:04:01Z</time>
        <speed>0.6722272</speed>
      </trkpt>
      <trkpt lat="29.0300364" lon="119.7935477">
        <ele>551.98</ele>
        <time>2025-12-28T06:04:17Z</time>
        <speed>0.6665653</speed>
      </trkpt>
      <trkpt lat="29.0301153" lon="119.7936123">
        <ele>548.89</ele>
        <time>2025-12-28T06:04:33Z</time>
        <speed>0.53325224</speed>
      </trkpt>
      <trkpt lat="29.0302086" lon="119.7936459">
        <ele>547.09</ele>
        <time>2025-12-28T06:04:55Z</time>
        <speed>0.4936186</speed>
      </trkpt>
      <trkpt lat="29.0303054" lon="119.7936496">
        <ele>546.36</ele>
        <time>2025-12-28T06:05:15Z</time>
        <speed>0.63825554</speed>
      </trkpt>
      <trkpt lat="29.030405" lon="119.7936328">
        <ele>545.65</ele>
        <time>2025-12-28T06:05:37Z</time>
        <speed>0.0</speed>
      </trkpt>
      <trkpt lat="29.0305033" lon="119.793605">
        <ele>543.82</ele>
        <time>2025-12-28T06:08:25Z</time>
        <speed>0.25633165</speed>
      </trkpt>
      <trkpt lat="29.0305933" lon="119.79362">
        <ele>542.22</ele>
        <time>2025-12-28T06:08:55Z</time>
        <speed>0.4472936</speed>
      </trkpt>
      <trkpt lat="29.0306583" lon="119.793535">
        <ele>541.91</ele>
        <time>2025-12-28T06:13:35Z</time>
        <speed>0.5625914</speed>
      </trkpt>
      <trkpt lat="29.0306667" lon="119.7934133">
        <ele>543.15</ele>
        <time>2025-12-28T06:17:05Z</time>
        <speed>0.37883556</speed>
      </trkpt>
      <trkpt lat="29.0306683" lon="119.7932783">
        <ele>536.33</ele>
        <time>2025-12-28T06:18:31Z</time>
        <speed>0.0</speed>
      </trkpt>
      <trkpt lat="29.030745" lon="119.7931517">
        <ele>531.07</ele>
        <time>2025-12-28T06:21:13Z</time>
        <speed>0.23368388</speed>
      </trkpt>
      <trkpt lat="29.0308467" lon="119.7930983">
        <ele>527.64</ele>
        <time>2025-12-28T06:21:41Z</time>
        <speed>0.324275</speed>
      </trkpt>
      <trkpt lat="29.030895" lon="119.7930017">
        <ele>521.77</ele>
        <time>2025-12-28T06:22:43Z</time>
        <speed>0.42258695</speed>
      </trkpt>
      <trkpt lat="29.03098" lon="119.792935">
        <ele>514.21</ele>
        <time>2025-12-28T06:23:09Z</time>
        <speed>0.4884714</speed>
      </trkpt>
      <trkpt lat="29.0310692" lon="119.7928923">
        <ele>508.19</ele>
        <time>2025-12-28T06:23:27Z</time>
        <speed>0.5502381</speed>
      </trkpt>
      <trkpt lat="29.0311579" lon="119.792859">
        <ele>504.06</ele>
        <time>2025-12-28T06:23:47Z</time>
        <speed>0.76796556</speed>
      </trkpt>
      <trkpt lat="29.0312352" lon="119.7928062">
        <ele>499.91</ele>
        <time>2025-12-28T06:24:17Z</time>
        <speed>0.53067863</speed>
      </trkpt>
      <trkpt lat="29.0313233" lon="119.7927645">
        <ele>496.25</ele>
        <time>2025-12-28T06:24:33Z</time>
        <speed>0.5754594</speed>
      </trkpt>
      <trkpt lat="29.0314147" lon="119.7927724">
        <ele>492.48</ele>
        <time>2025-12-28T06:25:01Z</time>
        <speed>0.3515553</speed>
      </trkpt>
      <trkpt lat="29.031507" lon="119.7927831">
        <ele>488.88</ele>
        <time>2025-12-28T06:25:29Z</time>
        <speed>0.3196425</speed>
      </trkpt>
      <trkpt lat="29.0316043" lon="119.7927906">
        <ele>485.58</ele>
        <time>2025-12-28T06:25:53Z</time>
        <speed>0.44111696</speed>
      </trkpt>
      <trkpt lat="29.0317032" lon="119.7928166">
        <ele>481.24</ele>
        <time>2025-12-28T06:26:23Z</time>
        <speed>0.26044944</speed>
      </trkpt>
      <trkpt lat="29.0317986" lon="119.7928485">
        <ele>478.13</ele>
        <time>2025-12-28T06:26:35Z</time>
        <speed>0.8173789</speed>
      </trkpt>
      <trkpt lat="29.0318873" lon="119.7928801">
        <ele>475.49</ele>
        <time>2025-12-28T06:26:55Z</time>
        <speed>0.86988056</speed>
      </trkpt>
      <trkpt lat="29.0319724" lon="119.792859">
        <ele>473.26</ele>
        <time>2025-12-28T06:27:31Z</time>
        <speed>0.80039304</speed>
      </trkpt>
      <trkpt lat="29.0320579" lon="119.7928244">
        <ele>470.57</ele>
        <time>2025-12-28T06:27:53Z</time>
        <speed>0.4771475</speed>
      </trkpt>
      <trkpt lat="29.032145" lon="119.7927763">
        <ele>468.09</ele>
        <time>2025-12-28T06:28:09Z</time>
        <speed>0.0</speed>
      </trkpt>
      <trkpt lat="29.0322243" lon="119.7927077">
        <ele>466.41</ele>
        <time>2025-12-28T06:28:23Z</time>
        <speed>0.4426611</speed>
      </trkpt>
      <trkpt lat="29.0323145" lon="119.7926561">
        <ele>465.81</ele>
        <time>2025-12-28T06:28:35Z</time>
        <speed>0.59913665</speed>
      </trkpt>
      <trkpt lat="29.032404" lon="119.7926241">
        <ele>466.1</ele>
        <time>2025-12-28T06:28:49Z</time>
        <speed>0.52913445</speed>
      </trkpt>
      <trkpt lat="29.032478" lon="119.7925606">
        <ele>465.8</ele>
        <time>2025-12-28T06:29:17Z</time>
        <speed>0.46376473</speed>
      </trkpt>
      <trkpt lat="29.032516" lon="119.7924634">
        <ele>465.46</ele>
        <time>2025-12-28T06:29:41Z</time>
        <speed>0.6866394</speed>
      </trkpt>
      <trkpt lat="29.0325718" lon="119.7923675">
        <ele>464.83</ele>
        <time>2025-12-28T06:30:27Z</time>
        <speed>0.361335</speed>
      </trkpt>
      <trkpt lat="29.0326351" lon="119.7922709">
        <ele>463.48</ele>
        <time>2025-12-28T06:31:07Z</time>
        <speed>0.4869272</speed>
      </trkpt>
      <trkpt lat="29.0326867" lon="119.7921767">
        <ele>462.2</ele>
        <time>2025-12-28T06:32:19Z</time>
        <speed>0.26456723</speed>
      </trkpt>
      <trkpt lat="29.03275" lon="119.7920883">
        <ele>465.34</ele>
        <time>2025-12-28T06:32:59Z</time>
        <speed>0.16728473</speed>
      </trkpt>
      <trkpt lat="29.032755" lon="119.7919817">
        <ele>468.25</ele>
        <time>2025-12-28T06:39:13Z</time>
        <speed>0.49619222</speed>
      </trkpt>
      <trkpt lat="29.03285" lon="119.7920267">
        <ele>471.97</ele>
        <time>2025-12-28T06:40:33Z</time>
        <speed>0.4493525</speed>
      </trkpt>
      <trkpt lat="29.0329017" lon="119.7919217">
        <ele>472.84</ele>
        <time>2025-12-28T06:41:37Z</time>
        <speed>0.78134835</speed>
      </trkpt>
      <trkpt lat="29.032985" lon="119.7918767">
        <ele>474.93</ele>
        <time>2025-12-28T06:42:19Z</time>
        <speed>0.5260461</speed>
      </trkpt>
      <trkpt lat="29.0330514" lon="119.7918021">
        <ele>475.31</ele>
        <time>2025-12-28T06:42:27Z</time>
        <speed>0.935765</speed>
      </trkpt>
      <trkpt lat="29.0331071" lon="119.7917068">
        <ele>475.56</ele>
        <time>2025-12-28T06:42:35Z</time>
        <speed>1.2384217</speed>
      </trkpt>
      <trkpt lat="29.033123" lon="119.7916838">
        <ele>476.22</ele>
        <time>2025-12-28T06:42:47Z</time>
        <speed>0.0</speed>
      </trkpt>
      <trkpt lat="29.0331914" lon="119.791673">
        <ele>476.08</ele>
        <time>2025-12-28T06:43:13Z</time>
        <speed>0.5785478</speed>
      </trkpt>
      <trkpt lat="29.0332878" lon="119.7916476">
        <ele>475.23</ele>
        <time>2025-12-28T06:43:23Z</time>
        <speed>0.9779722</speed>
      </trkpt>
      <trkpt lat="29.0333956" lon="119.7916333">
        <ele>475.56</ele>
        <time>2025-12-28T06:43:53Z</time>
        <speed>0.36802638</speed>
      </trkpt>
      <trkpt lat="29.0334889" lon="119.791594">
        <ele>476.31</ele>
        <time>2025-12-28T06:44:05Z</time>
        <speed>0.713405</speed>
      </trkpt>
      <trkpt lat="29.0335764" lon="119.7915409">
        <ele>476.82</ele>
        <time>2025-12-28T06:44:25Z</time>
        <speed>0.40405694</speed>
      </trkpt>
      <trkpt lat="29.0336627" lon="119.7914937">
        <ele>478.15</ele>
        <time>2025-12-28T06:44:45Z</time>
        <speed>0.342805</speed>
      </trkpt>
      <trkpt lat="29.0337427" lon="119.7914237">
        <ele>480.1</ele>
        <time>2025-12-28T06:44:57Z</time>
        <speed>0.6717125</speed>
      </trkpt>
      <trkpt lat="29.0338305" lon="119.7914195">
        <ele>482.04</ele>
        <time>2025-12-28T06:45:07Z</time>
        <speed>0.972825</speed>
      </trkpt>
      <trkpt lat="29.0339016" lon="119.7914821">
        <ele>483.4</ele>
        <time>2025-12-28T06:45:17Z</time>
        <speed>0.83487946</speed>
      </trkpt>
      <trkpt lat="29.0339588" lon="119.7915801">
        <ele>484.04</ele>
        <time>2025-12-28T06:45:29Z</time>
        <speed>0.6814922</speed>
      </trkpt>
      <trkpt lat="29.0340419" lon="119.7916557">
        <ele>483.77</ele>
        <time>2025-12-28T06:45:43Z</time>
        <speed>0.63156414</speed>
      </trkpt>
      <trkpt lat="29.0340855" lon="119.7917611">
        <ele>482.49</ele>
        <time>2025-12-28T06:46:03Z</time>
        <speed>0.3844975</speed>
      </trkpt>
      <trkpt lat="29.034129" lon="119.7918586">
        <ele>480.0</ele>
        <time>2025-12-28T06:46:15Z</time>
        <speed>0.46376473</speed>
      </trkpt>
      <trkpt lat="29.0341841" lon="119.7919571">
        <ele>476.69</ele>
        <time>2025-12-28T06:46:27Z</time>
        <speed>0.6737714</speed>
      </trkpt>
      <trkpt lat="29.0342295" lon="119.7920628">
        <ele>473.29</ele>
        <time>2025-12-28T06:46:37Z</time>
        <speed>0.8292175</speed>
      </trkpt>
      <trkpt lat="29.0343061" lon="119.7921117">
        <ele>470.33</ele>
        <time>2025-12-28T06:46:53Z</time>
        <speed>0.38604167</speed>
      </trkpt>
      <trkpt lat="29.0343959" lon="119.7921593">
        <ele>467.56</ele>
        <time>2025-12-28T06:47:07Z</time>
        <speed>0.58678335</speed>
      </trkpt>
      <trkpt lat="29.0344816" lon="119.7922079">
        <ele>465.08</ele>
        <time>2025-12-28T06:47:25Z</time>
        <speed>0.6197256</speed>
      </trkpt>
      <trkpt lat="29.0345504" lon="119.7922823">
        <ele>462.64</ele>
        <time>2025-12-28T06:47:37Z</time>
        <speed>0.6552414</speed>
      </trkpt>
      <trkpt lat="29.0346213" lon="119.7923668">
        <ele>459.7</ele>
        <time>2025-12-28T06:47:53Z</time>
        <speed>0.6989928</speed>
      </trkpt>
      <trkpt lat="29.0346848" lon="119.792459">
        <ele>456.26</ele>
        <time>2025-12-28T06:48:03Z</time>
        <speed>0.79318696</speed>
      </trkpt>
      <trkpt lat="29.0347396" lon="119.7925516">
        <ele>453.35</ele>
        <time>2025-12-28T06:48:15Z</time>
        <speed>0.7499503</speed>
      </trkpt>
      <trkpt lat="29.0347816" lon="119.792656">
        <ele>450.96</ele>
        <time>2025-12-28T06:48:27Z</time>
        <speed>0.73605275</speed>
      </trkpt>
      <trkpt lat="29.0348298" lon="119.7927578">
        <ele>448.91</ele>
        <time>2025-12-28T06:48:39Z</time>
        <speed>0.7530386</speed>
      </trkpt>
      <trkpt lat="29.0349064" lon="119.7927514">
        <ele>447.4</ele>
        <time>2025-12-28T06:48:57Z</time>
        <speed>0.60325444</speed>
      </trkpt>
      <trkpt lat="29.0349748" lon="119.7926774">
        <ele>446.93</ele>
        <time>2025-12-28T06:49:09Z</time>
        <speed>0.63002</speed>
      </trkpt>
      <trkpt lat="29.0349862" lon="119.792562">
        <ele>447.48</ele>
        <time>2025-12-28T06:49:23Z</time>
        <speed>0.6995075</speed>
      </trkpt>
      <trkpt lat="29.0349665" lon="119.7924395">
        <ele>447.92</ele>
        <time>2025-12-28T06:49:33Z</time>
        <speed>1.1334183</speed>
      </trkpt>
      <trkpt lat="29.0349283" lon="119.7923176">
        <ele>448.08</ele>
        <time>2025-12-28T06:49:45Z</time>
        <speed>0.85135055</speed>
      </trkpt>
      <trkpt lat="29.0349818" lon="119.7922534">
        <ele>446.8</ele>
        <time>2025-12-28T06:50:17Z</time>
        <speed>0.5111192</speed>
      </trkpt>
      <trkpt lat="29.0350778" lon="119.7922309">
        <ele>443.27</ele>
        <time>2025-12-28T06:50:29Z</time>
        <speed>0.78186303</speed>
      </trkpt>
      <trkpt lat="29.0351771" lon="119.7921775">
        <ele>441.91</ele>
        <time>2025-12-28T06:50:57Z</time>
        <speed>0.36854112</speed>
      </trkpt>
      <trkpt lat="29.0352595" lon="119.7920956">
        <ele>441.52</ele>
        <time>2025-12-28T06:51:39Z</time>
        <speed>0.32015723</speed>
      </trkpt>
      <trkpt lat="29.0353083" lon="119.7919895">
        <ele>440.65</ele>
        <time>2025-12-28T06:51:49Z</time>
        <speed>0.8436297</speed>
      </trkpt>
      <trkpt lat="29.0353294" lon="119.7918759">
        <ele>439.81</ele>
        <time>2025-12-28T06:52:17Z</time>
        <speed>0.39890972</speed>
      </trkpt>
      <trkpt lat="29.0353722" lon="119.7917618">
        <ele>438.09</ele>
        <time>2025-12-28T06:52:33Z</time>
        <speed>0.64494693</speed>
      </trkpt>
      <trkpt lat="29.0353714" lon="119.7916402">
        <ele>435.38</ele>
        <time>2025-12-28T06:52:59Z</time>
        <speed>0.46736777</speed>
      </trkpt>
      <trkpt lat="29.0353497" lon="119.791523">
        <ele>430.66</ele>
        <time>2025-12-28T06:53:27Z</time>
        <speed>0.4822947</speed>
      </trkpt>
      <trkpt lat="29.0353479" lon="119.7914107">
        <ele>424.95</ele>
        <time>2025-12-28T06:53:41Z</time>
        <speed>0.6722272</speed>
      </trkpt>
      <trkpt lat="29.0353783" lon="119.7913055">
        <ele>421.15</ele>
        <time>2025-12-28T06:54:03Z</time>
        <speed>0.5620767</speed>
      </trkpt>
      <trkpt lat="29.035417" lon="119.7911952">
        <ele>418.16</ele>
        <time>2025-12-28T06:54:29Z</time>
        <speed>0.32324556</speed>
      </trkpt>
      <trkpt lat="29.0355121" lon="119.7911539">
        <ele>416.46</ele>
        <time>2025-12-28T06:54:43Z</time>
        <speed>0.74789137</speed>
      </trkpt>
      <trkpt lat="29.0356164" lon="119.7911417">
        <ele>414.8</ele>
        <time>2025-12-28T06:54:53Z</time>
        <speed>0.9059111</speed>
      </trkpt>
      <trkpt lat="29.0357028" lon="119.7910937">
        <ele>413.29</ele>
        <time>2025-12-28T06:55:05Z</time>
        <speed>0.8014225</speed>
      </trkpt>
      <trkpt lat="29.0357827" lon="119.7910328">
        <ele>411.15</ele>
        <time>2025-12-28T06:55:19Z</time>
        <speed>0.7031106</speed>
      </trkpt>
      <trkpt lat="29.0358798" lon="119.7909973">
        <ele>408.89</ele>
        <time>2025-12-28T06:55:31Z</time>
        <speed>0.78649557</speed>
      </trkpt>
      <trkpt lat="29.0359809" lon="119.7909655">
        <ele>406.48</ele>
        <time>2025-12-28T06:55:43Z</time>
        <speed>0.9265</speed>
      </trkpt>
      <trkpt lat="29.0360664" lon="119.7909179">
        <ele>404.0</ele>
        <time>2025-12-28T06:55:53Z</time>
        <speed>0.9337061</speed>
      </trkpt>
      <trkpt lat="29.0361441" lon="119.7908437">
        <ele>401.76</ele>
        <time>2025-12-28T06:56:45Z</time>
        <speed>0.41538084</speed>
      </trkpt>
      <trkpt lat="29.0362372" lon="119.7908003">
        <ele>396.83</ele>
        <time>2025-12-28T06:56:57Z</time>
        <speed>0.7643625</speed>
      </trkpt>
      <trkpt lat="29.0363264" lon="119.7907561">
        <ele>394.32</ele>
        <time>2025-12-28T06:57:11Z</time>
        <speed>0.58729804</speed>
      </trkpt>
      <trkpt lat="29.0364088" lon="119.7907083">
        <ele>393.24</ele>
        <time>2025-12-28T06:57:21Z</time>
        <speed>0.7550975</speed>
      </trkpt>
      <trkpt lat="29.0364924" lon="119.7906639">
        <ele>392.58</ele>
        <time>2025-12-28T06:57:31Z</time>
        <speed>0.9218675</speed>
      </trkpt>
      <trkpt lat="29.0365867" lon="119.790655">
        <ele>391.64</ele>
        <time>2025-12-28T06:59:11Z</time>
        <speed>0.4488378</speed>
      </trkpt>
      <trkpt lat="29.0366783" lon="119.790655">
        <ele>387.24</ele>
        <time>2025-12-28T06:59:33Z</time>
        <speed>0.6094311</speed>
      </trkpt>
      <trkpt lat="29.0367686" lon="119.7906282">
        <ele>384.29</ele>
        <time>2025-12-28T06:59:45Z</time>
        <speed>0.63156414</speed>
      </trkpt>
      <trkpt lat="29.0368599" lon="119.7906173">
        <ele>382.71</ele>
        <time>2025-12-28T07:00:15Z</time>
        <speed>0.6691389</speed>
      </trkpt>
      <trkpt lat="29.036944" lon="119.790571">
        <ele>379.39</ele>
        <time>2025-12-28T07:00:29Z</time>
        <speed>0.8703953</speed>
      </trkpt>
      <trkpt lat="29.0370179" lon="119.7904919">
        <ele>376.25</ele>
        <time>2025-12-28T07:00:43Z</time>
        <speed>0.6840658</speed>
      </trkpt>
      <trkpt lat="29.0370998" lon="119.7905088">
        <ele>373.95</ele>
        <time>2025-12-28T07:00:57Z</time>
        <speed>0.79061335</speed>
      </trkpt>
      <trkpt lat="29.0371478" lon="119.7905937">
        <ele>371.82</ele>
        <time>2025-12-28T07:01:17Z</time>
        <speed>0.86473334</speed>
      </trkpt>
      <trkpt lat="29.0371846" lon="119.7907059">
        <ele>370.01</ele>
        <time>2025-12-28T07:01:37Z</time>
        <speed>0.46427944</speed>
      </trkpt>
      <trkpt lat="29.0372342" lon="119.7908061">
        <ele>367.98</ele>
        <time>2025-12-28T07:01:55Z</time>
        <speed>0.6320789</speed>
      </trkpt>
      <trkpt lat="29.0372976" lon="119.7908873">
        <ele>365.92</ele>
        <time>2025-12-28T07:02:15Z</time>
        <speed>0.5162664</speed>
      </trkpt>
      <trkpt lat="29.0373761" lon="119.7909636">
        <ele>363.76</ele>
        <time>2025-12-28T07:02:35Z</time>
        <speed>0.4997953</speed>
      </trkpt>
      <trkpt lat="29.0374621" lon="119.7910207">
        <ele>360.77</ele>
        <time>2025-12-28T07:02:53Z</time>
        <speed>0.53839946</speed>
      </trkpt>
      <trkpt lat="29.0375345" lon="119.7910912">
        <ele>358.11</ele>
        <time>2025-12-28T07:03:21Z</time>
        <speed>0.28670028</speed>
      </trkpt>
      <trkpt lat="29.0376167" lon="119.7911783">
        <ele>355.44</ele>
        <time>2025-12-28T07:04:27Z</time>
        <speed>0.33251056</speed>
      </trkpt>
      <trkpt lat="29.0377083" lon="119.7911817">
        <ele>350.3</ele>
        <time>2025-12-28T07:04:51Z</time>
        <speed>0.38037974</speed>
      </trkpt>
      <trkpt lat="29.0378028" lon="119.7910778">
        <ele>346.99</ele>
        <time>2025-12-28T07:05:41Z</time>
        <speed>0.33662835</speed>
      </trkpt>
      <trkpt lat="29.0379042" lon="119.7910541">
        <ele>344.71</ele>
        <time>2025-12-28T07:06:07Z</time>
        <speed>0.6645064</speed>
      </trkpt>
      <trkpt lat="29.0379765" lon="119.7911087">
        <ele>340.92</ele>
        <time>2025-12-28T07:06:35Z</time>
        <speed>0.4333961</speed>
      </trkpt>
      <trkpt lat="29.038058" lon="119.7911018">
        <ele>337.47</ele>
        <time>2025-12-28T07:07:01Z</time>
        <speed>0.4333961</speed>
      </trkpt>
      <trkpt lat="29.0381354" lon="119.7910475">
        <ele>334.64</ele>
        <time>2025-12-28T07:07:19Z</time>
        <speed>0.68252164</speed>
      </trkpt>
      <trkpt lat="29.0382065" lon="119.790979">
        <ele>331.4</ele>
        <time>2025-12-28T07:07:55Z</time>
        <speed>0.29648</speed>
      </trkpt>
      <trkpt lat="29.0382494" lon="119.7908794">
        <ele>328.04</ele>
        <time>2025-12-28T07:08:39Z</time>
        <speed>0.36802638</speed>
      </trkpt>
      <trkpt lat="29.0383213" lon="119.7908709">
        <ele>323.08</ele>
        <time>2025-12-28T07:08:59Z</time>
        <speed>0.3361136</speed>
      </trkpt>
      <trkpt lat="29.0384093" lon="119.7908962">
        <ele>318.23</ele>
        <time>2025-12-28T07:09:27Z</time>
        <speed>0.0</speed>
      </trkpt>
      <trkpt lat="29.0385014" lon="119.7909253">
        <ele>314.69</ele>
        <time>2025-12-28T07:10:13Z</time>
        <speed>0.8050256</speed>
      </trkpt>
      <trkpt lat="29.0385888" lon="119.7909847">
        <ele>310.22</ele>
        <time>2025-12-28T07:11:01Z</time>
        <speed>0.36545277</speed>
      </trkpt>
      <trkpt lat="29.0385767" lon="119.7908667">
        <ele>304.92</ele>
        <time>2025-12-28T07:12:09Z</time>
        <speed>0.36390862</speed>
      </trkpt>
      <trkpt lat="29.03864" lon="119.79079">
        <ele>298.85</ele>
        <time>2025-12-28T07:12:45Z</time>
        <speed>0.5862686</speed>
      </trkpt>
      <trkpt lat="29.0387433" lon="119.7907867">
        <ele>294.57</ele>
        <time>2025-12-28T07:13:59Z</time>
        <speed>0.29081807</speed>
      </trkpt>
      <trkpt lat="29.0388567" lon="119.7908133">
        <ele>289.08</ele>
        <time>2025-12-28T07:14:33Z</time>
        <speed>0.3196425</speed>
      </trkpt>
      <trkpt lat="29.0389446" lon="119.7908541">
        <ele>285.39</ele>
        <time>2025-12-28T07:14:45Z</time>
        <speed>0.6650211</speed>
      </trkpt>
      <trkpt lat="29.0390345" lon="119.7908536">
        <ele>282.98</ele>
        <time>2025-12-28T07:15:19Z</time>
        <speed>0.0</speed>
      </trkpt>
      <trkpt lat="29.0390296" lon="119.7907789">
        <ele>278.82</ele>
        <time>2025-12-28T07:15:56Z</time>
        <speed>0.50597197</speed>
      </trkpt>
      <trkpt lat="29.0389908" lon="119.7906772">
        <ele>274.59</ele>
        <time>2025-12-28T07:16:18Z</time>
        <speed>0.5512675</speed>
      </trkpt>
      <trkpt lat="29.0390272" lon="119.7906003">
        <ele>271.67</ele>
        <time>2025-12-28T07:16:38Z</time>
        <speed>0.36390862</speed>
      </trkpt>
      <trkpt lat="29.0390759" lon="119.7905117">
        <ele>270.69</ele>
        <time>2025-12-28T07:16:50Z</time>
        <speed>0.9213528</speed>
      </trkpt>
      <trkpt lat="29.0391576" lon="119.7904635">
        <ele>270.31</ele>
        <time>2025-12-28T07:17:04Z</time>
        <speed>0.9012786</speed>
      </trkpt>
      <trkpt lat="29.0392323" lon="119.7903911">
        <ele>269.19</ele>
        <time>2025-12-28T07:17:38Z</time>
        <speed>0.6964192</speed>
      </trkpt>
      <trkpt lat="29.0392755" lon="119.790292">
        <ele>268.5</ele>
        <time>2025-12-28T07:17:48Z</time>
        <speed>0.9517214</speed>
      </trkpt>
      <trkpt lat="29.0393464" lon="119.7902124">
        <ele>267.94</ele>
        <time>2025-12-28T07:18:06Z</time>
        <speed>0.67274195</speed>
      </trkpt>
      <trkpt lat="29.0394335" lon="119.7901591">
        <ele>267.67</ele>
        <time>2025-12-28T07:18:20Z</time>
        <speed>0.85135055</speed>
      </trkpt>
      <trkpt lat="29.0394993" lon="119.7900877">
        <ele>267.51</ele>
        <time>2025-12-28T07:18:34Z</time>
        <speed>0.58935696</speed>
      </trkpt>
      <trkpt lat="29.0394985" lon="119.789992">
        <ele>266.26</ele>
        <time>2025-12-28T07:18:56Z</time>
        <speed>0.47097084</speed>
      </trkpt>
      <trkpt lat="29.0395201" lon="119.7898875">
        <ele>264.13</ele>
        <time>2025-12-28T07:19:10Z</time>
        <speed>0.68509525</speed>
      </trkpt>
      <trkpt lat="29.0395387" lon="119.7897812">
        <ele>262.48</ele>
        <time>2025-12-28T07:19:34Z</time>
        <speed>0.32067195</speed>
      </trkpt>
      <trkpt lat="29.039562" lon="119.7896555">
        <ele>260.38</ele>
        <time>2025-12-28T07:20:10Z</time>
        <speed>0.26817027</speed>
      </trkpt>
      <trkpt lat="29.0396103" lon="119.7895573">
        <ele>257.46</ele>
        <time>2025-12-28T07:20:26Z</time>
        <speed>0.77208334</speed>
      </trkpt>
      <trkpt lat="29.0396777" lon="119.789478">
        <ele>254.6</ele>
        <time>2025-12-28T07:20:46Z</time>
        <speed>0.5610472</speed>
      </trkpt>
      <trkpt lat="29.0397671" lon="119.7894376">
        <ele>251.76</ele>
        <time>2025-12-28T07:21:00Z</time>
        <speed>0.55435586</speed>
      </trkpt>
      <trkpt lat="29.039859" lon="119.7894124">
        <ele>250.01</ele>
        <time>2025-12-28T07:21:38Z</time>
        <speed>0.59244525</speed>
      </trkpt>
      <trkpt lat="29.0399647" lon="119.7893999">
        <ele>249.66</ele>
        <time>2025-12-28T07:21:54Z</time>
        <speed>0.63156414</speed>
      </trkpt>
      <trkpt lat="29.0400654" lon="119.7893846">
        <ele>249.77</ele>
        <time>2025-12-28T07:22:04Z</time>
        <speed>0.7664214</speed>
      </trkpt>
      <trkpt lat="29.0401578" lon="119.7893539">
        <ele>250.12</ele>
        <time>2025-12-28T07:22:20Z</time>
        <speed>0.38398278</speed>
      </trkpt>
      <trkpt lat="29.0402305" lon="119.7892929">
        <ele>250.41</ele>
        <time>2025-12-28T07:22:42Z</time>
        <speed>0.36236444</speed>
      </trkpt>
      <trkpt lat="29.0403199" lon="119.78925">
        <ele>250.37</ele>
        <time>2025-12-28T07:22:58Z</time>
        <speed>0.7432589</speed>
      </trkpt>
      <trkpt lat="29.0404016" lon="119.7891892">
        <ele>249.74</ele>
        <time>2025-12-28T07:23:24Z</time>
        <speed>0.50133944</speed>
      </trkpt>
      <trkpt lat="29.0404852" lon="119.789132">
        <ele>247.53</ele>
        <time>2025-12-28T07:23:44Z</time>
        <speed>0.73039085</speed>
      </trkpt>
      <trkpt lat="29.0405761" lon="119.7891108">
        <ele>243.9</ele>
        <time>2025-12-28T07:24:02Z</time>
        <speed>0.70105165</speed>
      </trkpt>
      <trkpt lat="29.0406671" lon="119.7890793">
        <ele>242.44</ele>
        <time>2025-12-28T07:24:38Z</time>
        <speed>0.4838389</speed>
      </trkpt>
      <trkpt lat="29.040754" lon="119.7890297">
        <ele>239.58</ele>
        <time>2025-12-28T07:25:12Z</time>
        <speed>0.5178106</speed>
      </trkpt>
      <trkpt lat="29.040823" lon="119.7889581">
        <ele>236.23</ele>
        <time>2025-12-28T07:25:26Z</time>
        <speed>0.7149492</speed>
      </trkpt>
      <trkpt lat="29.0408942" lon="119.7888855">
        <ele>233.55</ele>
        <time>2025-12-28T07:25:48Z</time>
        <speed>0.565165</speed>
      </trkpt>
      <trkpt lat="29.0409336" lon="119.7887854">
        <ele>230.99</ele>
        <time>2025-12-28T07:26:06Z</time>
        <speed>0.5111192</speed>
      </trkpt>
      <trkpt lat="29.040968" lon="119.7886773">
        <ele>228.84</ele>
        <time>2025-12-28T07:26:20Z</time>
        <speed>0.6830364</speed>
      </trkpt>
      <trkpt lat="29.041015" lon="119.7885709">
        <ele>227.58</ele>
        <time>2025-12-28T07:26:34Z</time>
        <speed>0.73347914</speed>
      </trkpt>
      <trkpt lat="29.0410818" lon="119.7884753">
        <ele>226.64</ele>
        <time>2025-12-28T07:26:50Z</time>
        <speed>0.59296</speed>
      </trkpt>
      <trkpt lat="29.0411358" lon="119.7883832">
        <ele>224.86</ele>
        <time>2025-12-28T07:27:02Z</time>
        <speed>0.7849514</speed>
      </trkpt>
      <trkpt lat="29.0411577" lon="119.7882657">
        <ele>222.68</ele>
        <time>2025-12-28T07:27:40Z</time>
        <speed>0.55178225</speed>
      </trkpt>
      <trkpt lat="29.0411931" lon="119.7881638">
        <ele>222.3</ele>
        <time>2025-12-28T07:27:58Z</time>
        <speed>0.6624475</speed>
      </trkpt>
      <trkpt lat="29.041215" lon="119.78805">
        <ele>219.72</ele>
        <time>2025-12-28T07:33:20Z</time>
        <speed>0.39993918</speed>
      </trkpt>
      <trkpt lat="29.0412083" lon="119.7879333">
        <ele>216.92</ele>
        <time>2025-12-28T07:33:34Z</time>
        <speed>0.8158347</speed>
      </trkpt>
      <trkpt lat="29.0411805" lon="119.7878251">
        <ele>214.97</ele>
        <time>2025-12-28T07:33:48Z</time>
        <speed>0.7566417</speed>
      </trkpt>
      <trkpt lat="29.0411399" lon="119.7877287">
        <ele>213.18</ele>
        <time>2025-12-28T07:34:00Z</time>
        <speed>0.8575272</speed>
      </trkpt>
      <trkpt lat="29.0411166" lon="119.7876247">
        <ele>211.47</ele>
        <time>2025-12-28T07:34:14Z</time>
        <speed>0.7890692</speed>
      </trkpt>
      <trkpt lat="29.0410864" lon="119.7875163">
        <ele>209.42</ele>
        <time>2025-12-28T07:34:28Z</time>
        <speed>0.0</speed>
      </trkpt>
      <trkpt lat="29.0410859" lon="119.7874088">
        <ele>208.55</ele>
        <time>2025-12-28T07:34:36Z</time>
        <speed>0.0</speed>
      </trkpt>
      <trkpt lat="29.041109" lon="119.787298">
        <ele>209.3</ele>
        <time>2025-12-28T07:34:44Z</time>
        <speed>1.0953289</speed>
      </trkpt>
      <trkpt lat="29.0411505" lon="119.7871911">
        <ele>209.95</ele>
        <time>2025-12-28T07:34:58Z</time>
        <speed>0.8127464</speed>
      </trkpt>
      <trkpt lat="29.0412079" lon="119.7870983">
        <ele>208.72</ele>
        <time>2025-12-28T07:35:22Z</time>
        <speed>0.34589332</speed>
      </trkpt>
      <trkpt lat="29.04133" lon="119.7870833">
        <ele>205.79</ele>
        <time>2025-12-28T07:37:24Z</time>
        <speed>0.25633165</speed>
      </trkpt>
      <trkpt lat="29.04134" lon="119.786975">
        <ele>201.75</ele>
        <time>2025-12-28T07:38:08Z</time>
        <speed>0.39015946</speed>
      </trkpt>
      <trkpt lat="29.0414149" lon="119.786995">
        <ele>197.94</ele>
        <time>2025-12-28T07:38:38Z</time>
        <speed>0.45913222</speed>
      </trkpt>
      <trkpt lat="29.041515" lon="119.7869417">
        <ele>194.18</ele>
        <time>2025-12-28T07:40:20Z</time>
        <speed>0.0</speed>
      </trkpt>
      <trkpt lat="29.041605" lon="119.7869017">
        <ele>190.32</ele>
        <time>2025-12-28T07:40:48Z</time>
        <speed>0.44163167</speed>
      </trkpt>
      <trkpt lat="29.0415822" lon="119.7868095">
        <ele>186.22</ele>
        <time>2025-12-28T07:41:00Z</time>
        <speed>0.8343647</speed>
      </trkpt>
      <trkpt lat="29.0415703" lon="119.7867029">
        <ele>182.77</ele>
        <time>2025-12-28T07:41:14Z</time>
        <speed>0.68509525</speed>
      </trkpt>
      <trkpt lat="29.0415549" lon="119.7865778">
        <ele>179.39</ele>
        <time>2025-12-28T07:41:28Z</time>
        <speed>0.8945872</speed>
      </trkpt>
      <trkpt lat="29.0416083" lon="119.7864972">
        <ele>175.13</ele>
        <time>2025-12-28T07:41:40Z</time>
        <speed>0.8400267</speed>
      </trkpt>
      <trkpt lat="29.0416806" lon="119.7864223">
        <ele>171.76</ele>
        <time>2025-12-28T07:41:52Z</time>
        <speed>0.64185864</speed>
      </trkpt>
      <trkpt lat="29.0417243" lon="119.7863319">
        <ele>168.64</ele>
        <time>2025-12-28T07:42:04Z</time>
        <speed>0.84208554</speed>
      </trkpt>
      <trkpt lat="29.0417799" lon="119.7862424">
        <ele>166.13</ele>
        <time>2025-12-28T07:42:16Z</time>
        <speed>0.76950973</speed>
      </trkpt>
      <trkpt lat="29.0418413" lon="119.7861485">
        <ele>164.74</ele>
        <time>2025-12-28T07:42:32Z</time>
        <speed>0.80708444</speed>
      </trkpt>
      <trkpt lat="29.0419017" lon="119.7860606">
        <ele>163.65</ele>
        <time>2025-12-28T07:42:52Z</time>
        <speed>0.58678335</speed>
      </trkpt>
      <trkpt lat="29.0419711" lon="119.7859866">
        <ele>162.04</ele>
        <time>2025-12-28T07:43:02Z</time>
        <speed>0.87142473</speed>
      </trkpt>
      <trkpt lat="29.0419885" lon="119.7858898">
        <ele>161.25</ele>
        <time>2025-12-28T07:43:20Z</time>
        <speed>0.50133944</speed>
      </trkpt>
      <trkpt lat="29.0419925" lon="119.7857852">
        <ele>161.53</ele>
        <time>2025-12-28T07:43:46Z</time>
        <speed>0.40817472</speed>
      </trkpt>
      <trkpt lat="29.0420517" lon="119.7857223">
        <ele>160.18</ele>
        <time>2025-12-28T07:43:56Z</time>
        <speed>0.77465695</speed>
      </trkpt>
      <trkpt lat="29.0421256" lon="119.7856642">
        <ele>158.47</ele>
        <time>2025-12-28T07:44:22Z</time>
        <speed>0.4797211</speed>
      </trkpt>
      <trkpt lat="29.0421955" lon="119.785576">
        <ele>155.3</ele>
        <time>2025-12-28T07:45:06Z</time>
        <speed>0.4071453</speed>
      </trkpt>
      <trkpt lat="29.0422345" lon="119.785458">
        <ele>151.08</ele>
        <time>2025-12-28T07:45:22Z</time>
        <speed>0.7298761</speed>
      </trkpt>
      <trkpt lat="29.0422752" lon="119.785344">
        <ele>148.08</ele>
        <time>2025-12-28T07:45:32Z</time>
        <speed>0.9887814</speed>
      </trkpt>
      <trkpt lat="29.0423279" lon="119.7852372">
        <ele>145.64</ele>
        <time>2025-12-28T07:45:42Z</time>
        <speed>0.9748839</speed>
      </trkpt>
      <trkpt lat="29.0423919" lon="119.7851479">
        <ele>144.03</ele>
        <time>2025-12-28T07:45:56Z</time>
        <speed>0.5718564</speed>
      </trkpt>
      <trkpt lat="29.0424495" lon="119.7850575">
        <ele>143.5</ele>
        <time>2025-12-28T07:46:12Z</time>
        <speed>0.5111192</speed>
      </trkpt>
      <trkpt lat="29.0424866" lon="119.784952">
        <ele>142.38</ele>
        <time>2025-12-28T07:46:26Z</time>
        <speed>0.5631061</speed>
      </trkpt>
      <trkpt lat="29.0425097" lon="119.7848481">
        <ele>141.1</ele>
        <time>2025-12-28T07:46:38Z</time>
        <speed>0.8158347</speed>
      </trkpt>
      <trkpt lat="29.0425402" lon="119.7847504">
        <ele>139.59</ele>
        <time>2025-12-28T07:46:52Z</time>
        <speed>0.74274415</speed>
      </trkpt>
      <trkpt lat="29.0425621" lon="119.7846476">
        <ele>137.53</ele>
        <time>2025-12-28T07:47:24Z</time>
        <speed>0.7200964</speed>
      </trkpt>
      <trkpt lat="29.042585" lon="119.7845454">
        <ele>134.94</ele>
        <time>2025-12-28T07:47:40Z</time>
        <speed>1.143198</speed>
      </trkpt>
      <trkpt lat="29.0425801" lon="119.7844234">
        <ele>131.22</ele>
        <time>2025-12-28T07:48:04Z</time>
        <speed>0.5564147</speed>
      </trkpt>
      <trkpt lat="29.0425478" lon="119.7843143">
        <ele>127.6</ele>
        <time>2025-12-28T07:48:16Z</time>
        <speed>0.9352503</speed>
      </trkpt>
      <trkpt lat="29.0425384" lon="119.784206">
        <ele>124.55</ele>
        <time>2025-12-28T07:48:30Z</time>
        <speed>0.7623036</speed>
      </trkpt>
      <trkpt lat="29.0424772" lon="119.784113">
        <ele>121.39</ele>
        <time>2025-12-28T07:48:48Z</time>
        <speed>0.88944</speed>
      </trkpt>
      <trkpt lat="29.0423933" lon="119.7840391">
        <ele>119.03</ele>
        <time>2025-12-28T07:48:54Z</time>
        <speed>1.5765941</speed>
      </trkpt>
      <trkpt lat="29.0423152" lon="119.7839539">
        <ele>117.04</ele>
        <time>2025-12-28T07:49:08Z</time>
        <speed>1.5457108</speed>
      </trkpt>
      <trkpt lat="29.0422358" lon="119.783888">
        <ele>114.1</ele>
        <time>2025-12-28T07:49:32Z</time>
        <speed>0.4122925</speed>
      </trkpt>
      <trkpt lat="29.0421607" lon="119.7838127">
        <ele>112.63</ele>
        <time>2025-12-28T07:49:46Z</time>
        <speed>0.64700586</speed>
      </trkpt>
      <trkpt lat="29.0420855" lon="119.7837354">
        <ele>112.23</ele>
        <time>2025-12-28T07:49:54Z</time>
        <speed>1.1385655</speed>
      </trkpt>
      <trkpt lat="29.0420102" lon="119.7836571">
        <ele>112.73</ele>
        <time>2025-12-28T07:50:04Z</time>
        <speed>1.1385655</speed>
      </trkpt>
      <trkpt lat="29.0419514" lon="119.7835737">
        <ele>113.02</ele>
        <time>2025-12-28T07:50:18Z</time>
        <speed>0.8086286</speed>
      </trkpt>
      <trkpt lat="29.0419148" lon="119.7834746">
        <ele>113.87</ele>
        <time>2025-12-28T07:50:26Z</time>
        <speed>1.1097411</speed>
      </trkpt>
      <trkpt lat="29.0418905" lon="119.7833701">
        <ele>114.1</ele>
        <time>2025-12-28T07:50:42Z</time>
        <speed>0.61766666</speed>
      </trkpt>
      <trkpt lat="29.0418878" lon="119.7832622">
        <ele>115.52</ele>
        <time>2025-12-28T07:50:52Z</time>
        <speed>0.9615011</speed>
      </trkpt>
      <trkpt lat="29.0418927" lon="119.7831401">
        <ele>116.5</ele>
        <time>2025-12-28T07:51:00Z</time>
        <speed>1.328498</speed>
      </trkpt>
      <trkpt lat="29.0418858" lon="119.7830234">
        <ele>116.2</ele>
        <time>2025-12-28T07:51:04Z</time>
        <speed>2.0341823</speed>
      </trkpt>
      <trkpt lat="29.0418932" lon="119.7828961">
        <ele>115.34</ele>
        <time>2025-12-28T07:51:14Z</time>
        <speed>1.3892353</speed>
      </trkpt>
      <trkpt lat="29.0419206" lon="119.7827815">
        <ele>113.47</ele>
        <time>2025-12-28T07:51:22Z</time>
        <speed>1.550858</speed>
      </trkpt>
      <trkpt lat="29.0419721" lon="119.7826798">
        <ele>111.46</ele>
        <time>2025-12-28T07:51:30Z</time>
        <speed>1.5261514</speed>
      </trkpt>
      <trkpt lat="29.0419721" lon="119.7826798">
        <ele>111.46</ele>
        <time>2025-12-28T07:51:37Z</time>
        <speed>1.5261514</speed>
      </trkpt>
      <extensions>
        <PauseTimes>1766908297000:pause</PauseTimes>
      </extensions>
    </trkseg>
  </trk>
  <wpt lat="29.0412417" lon="119.7823697">
    <ele>127.0</ele>
    <time>2025-12-28T03:36:21Z</time>
    <name><![CDATA[这边往右

        ]]>
    </name>
    <cmt>这边往右

        </cmt>
    <desc><![CDATA[]]>
    </desc>
    <sym>Flag, Blue</sym>
    <type>user</type>
    <extensions>
      <PosType>0</PosType>
      <Speed>0.45707333</Speed>
      <Accuracy>1.6</Accuracy>
      <Time>1766892981711</Time>
      <description><![CDATA[]]>
      </description>
      <FileId>1533905012</FileId>
      <FileSize>2851851</FileSize>
      <FileType>0</FileType>
    </extensions>
  </wpt>
  <wpt lat="29.0288144" lon="119.7923814">
    <ele>485.9</ele>
    <time>2025-12-28T05:45:00Z</time>
    <name><![CDATA[
        ]]>
    </name>
    <cmt>
        </cmt>
    <desc><![CDATA[]]>
    </desc>
    <sym>Flag, Blue</sym>
    <type>user</type>
    <extensions>
      <PosType>0</PosType>
      <Speed>0.51060444</Speed>
      <Accuracy>1.6</Accuracy>
      <Time>1766900700754</Time>
      <description><![CDATA[]]>
      </description>
      <FileId>1533905009</FileId>
      <FileSize>3538799</FileSize>
      <FileType>0</FileType>
    </extensions>
  </wpt>
  <wpt lat="29.0288283" lon="119.792485">
    <ele>491.8</ele>
    <time>2025-12-28T05:46:24Z</time>
    <name><![CDATA[
        ]]>
    </name>
    <cmt>
        </cmt>
    <desc><![CDATA[]]>
    </desc>
    <sym>Flag, Blue</sym>
    <type>user</type>
    <extensions>
      <PosType>0</PosType>
      <Speed>0.5301639</Speed>
      <Accuracy>1.8</Accuracy>
      <Time>1766900784762</Time>
      <description><![CDATA[]]>
      </description>
      <FileId>1533904975</FileId>
      <FileSize>3526941</FileSize>
      <FileType>0</FileType>
    </extensions>
  </wpt>
  <wpt lat="29.0285967" lon="119.79259">
    <ele>504.3</ele>
    <time>2025-12-28T05:48:30Z</time>
    <name><![CDATA[
        ]]>
    </name>
    <cmt>
        </cmt>
    <desc><![CDATA[]]>
    </desc>
    <sym>Flag, Blue</sym>
    <type>user</type>
    <extensions>
      <PosType>0</PosType>
      <Speed>0.28000888</Speed>
      <Accuracy>1.6</Accuracy>
      <Time>1766900910729</Time>
      <description><![CDATA[]]>
      </description>
      <FileId>1533904974</FileId>
      <FileSize>4008436</FileSize>
      <FileType>0</FileType>
    </extensions>
  </wpt>
  <wpt lat="29.0285967" lon="119.79259">
    <ele>504.3</ele>
    <time>2025-12-28T05:48:30Z</time>
    <name><![CDATA[
        ]]>
    </name>
    <cmt>
        </cmt>
    <desc><![CDATA[]]>
    </desc>
    <sym>Flag, Blue</sym>
    <type>user</type>
    <extensions>
      <PosType>0</PosType>
      <Speed>0.28000888</Speed>
      <Accuracy>1.6</Accuracy>
      <Time>1766900910729</Time>
      <description><![CDATA[]]>
      </description>
      <FileId>1533904922</FileId>
      <FileSize>4856310</FileSize>
      <FileType>0</FileType>
    </extensions>
  </wpt>
  <wpt lat="29.0286233" lon="119.7926983">
    <ele>510.6</ele>
    <time>2025-12-28T05:49:32Z</time>
    <name><![CDATA[
        ]]>
    </name>
    <cmt>
        </cmt>
    <desc><![CDATA[]]>
    </desc>
    <sym>Flag, Blue</sym>
    <type>user</type>
    <extensions>
      <PosType>0</PosType>
      <Speed>0.5070014</Speed>
      <Accuracy>1.3</Accuracy>
      <Time>1766900972747</Time>
      <description><![CDATA[]]>
      </description>
      <FileId>1533904919</FileId>
      <FileSize>4618633</FileSize>
      <FileType>0</FileType>
    </extensions>
  </wpt>
  <wpt lat="29.0290783" lon="119.7931517">
    <ele>536.9</ele>
    <time>2025-12-28T05:55:14Z</time>
    <name><![CDATA[
        ]]>
    </name>
    <cmt>
        </cmt>
    <desc><![CDATA[]]>
    </desc>
    <sym>Flag, Blue</sym>
    <type>user</type>
    <extensions>
      <PosType>0</PosType>
      <Speed>0.6722272</Speed>
      <Accuracy>1.3</Accuracy>
      <Time>1766901314776</Time>
      <description><![CDATA[]]>
      </description>
      <FileId>1533904917</FileId>
      <FileSize>2567361</FileSize>
      <FileType>0</FileType>
    </extensions>
  </wpt>
  <wpt lat="29.0292962" lon="119.79342">
    <ele>544.0</ele>
    <time>2025-12-28T05:58:22Z</time>
    <name><![CDATA[
        ]]>
    </name>
    <cmt>
        </cmt>
    <desc><![CDATA[]]>
    </desc>
    <sym>Flag, Blue</sym>
    <type>user</type>
    <extensions>
      <PosType>0</PosType>
      <Speed>0.435455</Speed>
      <Accuracy>1.2</Accuracy>
      <Time>1766901502733</Time>
      <description><![CDATA[]]>
      </description>
      <FileId>1533904914</FileId>
      <FileSize>4741378</FileSize>
      <FileType>0</FileType>
    </extensions>
  </wpt>
  <wpt lat="29.0305933" lon="119.793615">
    <ele>541.1</ele>
    <time>2025-12-28T06:12:29Z</time>
    <name><![CDATA[
        ]]>
    </name>
    <cmt>
        </cmt>
    <desc><![CDATA[]]>
    </desc>
    <sym>Flag, Blue</sym>
    <type>user</type>
    <extensions>
      <PosType>0</PosType>
      <Speed>0.0</Speed>
      <Accuracy>1.3</Accuracy>
      <Time>1766902349769</Time>
      <description><![CDATA[]]>
      </description>
      <FileId>1533904910</FileId>
      <FileSize>2792385</FileSize>
      <FileType>0</FileType>
    </extensions>
  </wpt>
  <wpt lat="29.031507" lon="119.7927831">
    <ele>481.2</ele>
    <time>2025-12-28T06:25:29Z</time>
    <name><![CDATA[
        ]]>
    </name>
    <cmt>
        </cmt>
    <desc><![CDATA[]]>
    </desc>
    <sym>Flag, Blue</sym>
    <type>user</type>
    <extensions>
      <PosType>0</PosType>
      <Speed>0.3196425</Speed>
      <Accuracy>1.2</Accuracy>
      <Time>1766903129785</Time>
      <description><![CDATA[]]>
      </description>
      <FileId>1533904905</FileId>
      <FileSize>3864570</FileSize>
      <FileType>0</FileType>
    </extensions>
  </wpt>
  <wpt lat="29.0318873" lon="119.7928801">
    <ele>470.3</ele>
    <time>2025-12-28T06:26:55Z</time>
    <name><![CDATA[
        ]]>
    </name>
    <cmt>
        </cmt>
    <desc><![CDATA[]]>
    </desc>
    <sym>Flag, Blue</sym>
    <type>user</type>
    <extensions>
      <PosType>0</PosType>
      <Speed>0.86988056</Speed>
      <Accuracy>1.3</Accuracy>
      <Time>1766903215749</Time>
      <description><![CDATA[]]>
      </description>
      <FileId>1533904900</FileId>
      <FileSize>2395351</FileSize>
      <FileType>0</FileType>
    </extensions>
  </wpt>
  <wpt lat="29.032516" lon="119.7924634">
    <ele>464.0</ele>
    <time>2025-12-28T06:29:41Z</time>
    <name><![CDATA[
        ]]>
    </name>
    <cmt>
        </cmt>
    <desc><![CDATA[]]>
    </desc>
    <sym>Flag, Blue</sym>
    <type>user</type>
    <extensions>
      <PosType>0</PosType>
      <Speed>0.6866394</Speed>
      <Accuracy>1.4</Accuracy>
      <Time>1766903381790</Time>
      <description><![CDATA[]]>
      </description>
      <FileId>1533904895</FileId>
      <FileSize>3937151</FileSize>
      <FileType>0</FileType>
    </extensions>
  </wpt>
  <wpt lat="29.0326351" lon="119.7922709">
    <ele>460.5</ele>
    <time>2025-12-28T06:31:07Z</time>
    <name><![CDATA[
        ]]>
    </name>
    <cmt>
        </cmt>
    <desc><![CDATA[]]>
    </desc>
    <sym>Flag, Blue</sym>
    <type>user</type>
    <extensions>
      <PosType>0</PosType>
      <Speed>0.4869272</Speed>
      <Accuracy>1.5</Accuracy>
      <Time>1766903467747</Time>
      <description><![CDATA[]]>
      </description>
      <FileId>1533904891</FileId>
      <FileSize>3486059</FileSize>
      <FileType>0</FileType>
    </extensions>
  </wpt>
  <wpt lat="29.03275" lon="119.7920883">
    <ele>472.1</ele>
    <time>2025-12-28T06:32:59Z</time>
    <name><![CDATA[
        ]]>
    </name>
    <cmt>
        </cmt>
    <desc><![CDATA[]]>
    </desc>
    <sym>Flag, Blue</sym>
    <type>user</type>
    <extensions>
      <PosType>0</PosType>
      <Speed>0.16728473</Speed>
      <Accuracy>1.2</Accuracy>
      <Time>1766903579770</Time>
      <description><![CDATA[]]>
      </description>
      <FileId>1533904886</FileId>
      <FileSize>3166212</FileSize>
      <FileType>0</FileType>
    </extensions>
  </wpt>
  <wpt lat="29.03285" lon="119.7920267">
    <ele>474.0</ele>
    <time>2025-12-28T06:40:33Z</time>
    <name><![CDATA[
        ]]>
    </name>
    <cmt>
        </cmt>
    <desc><![CDATA[]]>
    </desc>
    <sym>Flag, Blue</sym>
    <type>user</type>
    <extensions>
      <PosType>0</PosType>
      <Speed>0.4493525</Speed>
      <Accuracy>1.2</Accuracy>
      <Time>1766904033759</Time>
      <description><![CDATA[]]>
      </description>
      <FileId>1533904858</FileId>
      <FileSize>3457470</FileSize>
      <FileType>0</FileType>
    </extensions>
  </wpt>
  <wpt lat="29.033123" lon="119.7916838">
    <ele>475.9</ele>
    <time>2025-12-28T06:42:47Z</time>
    <name><![CDATA[
        ]]>
    </name>
    <cmt>
        </cmt>
    <desc><![CDATA[]]>
    </desc>
    <sym>Flag, Blue</sym>
    <type>user</type>
    <extensions>
      <PosType>0</PosType>
      <Speed>0.0</Speed>
      <Accuracy>1.4</Accuracy>
      <Time>1766904167658</Time>
      <description><![CDATA[]]>
      </description>
      <FileId>1533904853</FileId>
      <FileSize>3355489</FileSize>
      <FileType>0</FileType>
    </extensions>
  </wpt>
  <wpt lat="29.0360664" lon="119.7909179">
    <ele>398.8</ele>
    <time>2025-12-28T06:55:53Z</time>
    <name><![CDATA[
        ]]>
    </name>
    <cmt>
        </cmt>
    <desc><![CDATA[]]>
    </desc>
    <sym>Flag, Blue</sym>
    <type>user</type>
    <extensions>
      <PosType>0</PosType>
      <Speed>0.9337061</Speed>
      <Accuracy>1.4</Accuracy>
      <Time>1766904953726</Time>
      <description><![CDATA[]]>
      </description>
      <FileId>1533904850</FileId>
      <FileSize>3409849</FileSize>
      <FileType>0</FileType>
    </extensions>
  </wpt>
  <wpt lat="29.0414149" lon="119.786995">
    <ele>189.2</ele>
    <time>2025-12-28T07:38:38Z</time>
    <name><![CDATA[
        ]]>
    </name>
    <cmt>
        </cmt>
    <desc><![CDATA[]]>
    </desc>
    <sym>Flag, Blue</sym>
    <type>user</type>
    <extensions>
      <PosType>0</PosType>
      <Speed>0.45913222</Speed>
      <Accuracy>1.4</Accuracy>
      <Time>1766907518750</Time>
      <description><![CDATA[]]>
      </description>
      <FileId>1533904705</FileId>
      <FileSize>4114508</FileSize>
      <FileType>0</FileType>
    </extensions>
  </wpt>
  <wpt lat="29.0425402" lon="119.7847504">
    <ele>134.8</ele>
    <time>2025-12-28T07:46:52Z</time>
    <name><![CDATA[
        ]]>
    </name>
    <cmt>
        </cmt>
    <desc><![CDATA[]]>
    </desc>
    <sym>Flag, Blue</sym>
    <type>user</type>
    <extensions>
      <PosType>0</PosType>
      <Speed>0.74274415</Speed>
      <Accuracy>1.3</Accuracy>
      <Time>1766908012768</Time>
      <description><![CDATA[]]>
      </description>
      <FileId>1533904701</FileId>
      <FileSize>3820404</FileSize>
      <FileType>0</FileType>
    </extensions>
  </wpt>
  <wpt lat="29.0425384" lon="119.784206">
    <ele>117.2</ele>
    <time>2025-12-28T07:48:30Z</time>
    <name><![CDATA[
        ]]>
    </name>
    <cmt>
        </cmt>
    <desc><![CDATA[]]>
    </desc>
    <sym>Flag, Blue</sym>
    <type>user</type>
    <extensions>
      <PosType>0</PosType>
      <Speed>0.7623036</Speed>
      <Accuracy>1.3</Accuracy>
      <Time>1766908110749</Time>
      <description><![CDATA[]]>
      </description>
      <FileId>1533904700</FileId>
      <FileSize>3342364</FileSize>
      <FileType>0</FileType>
    </extensions>
  </wpt>
  <wpt lat="29.0419721" lon="119.7826798">
    <ele>108.0</ele>
    <time>2025-12-28T07:51:30Z</time>
    <name><![CDATA[
        ]]>
    </name>
    <cmt>
        </cmt>
    <desc><![CDATA[]]>
    </desc>
    <sym>Flag, Blue</sym>
    <type>user</type>
    <extensions>
      <PosType>0</PosType>
      <Speed>1.5261514</Speed>
      <Accuracy>1.5</Accuracy>
      <Time>1766908290809</Time>
      <description><![CDATA[]]>
      </description>
      <FileId>1533904698</FileId>
      <FileSize>2336234</FileSize>
      <FileType>0</FileType>
    </extensions>
  </wpt>
</gpx>